{"type":"FeatureCollection","features":[{"type":"Feature","properties":{"county_fips":"48287","county_name":"Lee","state":"TX"},"geometry":{"type":"Polygon","coordinates":[[[-97.3345,30.4028],[-97.1552,30.4573],[-96.9636,30.5572],[-96.9453,30.5432],[-96.9189,30.5392],[-96.9022,30.5142],[-96.9087,30.5019],[-96.8959,30.4892],[-96.9058,30.4701],[-96.8998,30.4603],[-96.8748,30.4575],[-96.8707,30.4355],[-96.8462,30.4314],[-96.8083,30.3965],[-96.7876,30.3889],[-96.7437,30.3198],[-96.6947,30.3202],[-96.6637,30.2955],[-96.6409,30.2968],[-96.6579,30.2878],[-96.6871,30.2481],[-96.7066,30.2446],[-96.715,30.2509],[-96.7319,30.2438],[-96.7425,30.2269],[-96.7415,30.1974],[-96.8459,30.116],[-97.0192,30.032],[-97.0818,30.2594],[-97.1989,30.3374],[-97.3345,30.4028]]]}},{"type":"Feature","properties":{"county_fips":"47157","county_name":"Shelby","state":"TN"},"geometry":{"type":"Polygon","coordinates":[[[-90.3084,34.9957],[-90.2923,35.0414],[-90.2073,35.0258],[-90.1776,35.0638],[-90.1768,35.1121],[-90.1547,35.1309],[-90.095,35.1175],[-90.0665,35.1368],[-90.0687,35.156],[-90.1014,35.1711],[-90.1174,35.1901],[-90.1161,35.1986],[-90.0965,35.1948],[-90.0886,35.2123],[-90.0782,35.2097],[-90.0749,35.2181],[-90.0864,35.2382],[-90.1051,35.2544],[-90.1521,35.256],[-90.1688,35.2791],[-90.1573,35.3015],[-90.11,35.305],[-90.0962,35.3489],[-90.0783,35.3749],[-90.081,35.3859],[-90.0416,35.3966],[-89.7788,35.3878],[-89.7767,35.4052],[-89.7308,35.4011],[-89.7303,35.4068],[-89.7093,35.4095],[-89.7025,35.4086],[-89.7029,35.3891],[-89.6428,35.388],[-89.646,35.3723],[-89.6328,35.3758],[-89.644,34.9953],[-90.3084,34.9957]]]}},{"type":"Feature","properties":{"county_fips":"48419","county_name":"Shelby","state":"TX"},"geometry":{"type":"Polygon","coordinates":[[[-94.5114,31.974],[-94.0154,31.9802],[-93.9739,31.9217],[-93.9618,31.924],[-93.9535,31.9106],[-93.9233,31.9078],[-93.9322,31.8935],[-93.9221,31.8857],[-93.8974,31.8944],[-93.9025,31.8753],[-93.893,31.8763],[-93.8808,31.8648],[-93.889,31.8557],[-93.8731,31.8367],[-93.8733,31.8149],[-93.8393,31.8003],[-93.8346,31.7833],[-93.8226,31.7736],[-93.8361,31.7485],[-93.8135,31.7259],[-93.8163,31.7075],[-93.7945,31.7021],[-93.8128,31.6698],[-93.8221,31.674],[-93.8265,31.6669],[-93.816,31.6323],[-93.8168,31.6225],[-93.8272,31.6203],[-93.8187,31.6146],[-93.8381,31.6068],[-93.8363,31.5857],[-93.8992,31.6117],[-93.9261,31.5907],[-93.9845,31.5694],[-94.0908,31.6206],[-94.3991,31.6536],[-94.4067,31.6652],[-94.407,31.6954],[-94.4168,31.7059],[-94.4125,31.7464],[-94.4324,31.7752],[-94.4241,31.8002],[-94.4339,31.8245],[-94.4638,31.8565],[-94.462,31.8714],[-94.4775,31.8862],[-94.4807,31.9021],[-94.5113,31.9241],[-94.5114,31.974]]]}},{"type":"Feature","properties":{"county_fips":"42051","county_name":"Fayette","state":"PA"},"geometry":{"type":"Polygon","coordinates":[[[-80.0107,39.9711],[-79.9909,39.9866],[-79.9957,40.0051],[-79.9882,40.0119],[-79.9694,40.0131],[-79.9467,39.9943],[-79.9248,40.0161],[-79.88,40.0283],[-79.877,40.0368],[-79.8919,40.0482],[-79.8798,40.0651],[-79.9014,40.0767],[-79.8637,40.0754],[-79.839,40.0906],[-79.8501,40.114],[-79.875,40.1294],[-79.7461,40.1285],[-79.7244,40.1231],[-79.7224,40.1128],[-79.707,40.1076],[-79.6861,40.1139],[-79.6424,40.0836],[-79.622,40.0945],[-79.593,40.0821],[-79.5854,40.1021],[-79.5423,40.1119],[-79.534,40.1286],[-79.527,40.1232],[-79.5052,40.1406],[-79.4615,40.1441],[-79.4377,40.1159],[-79.3555,40.0743],[-79.3412,40.0429],[-79.2939,40.0404],[-79.3916,39.9195],[-79.3876,39.9157],[-79.4176,39.8538],[-79.3673,39.8227],[-79.3683,39.7959],[-79.3513,39.7866],[-79.3568,39.7815],[-79.3801,39.7901],[-79.3831,39.7825],[-79.395,39.7834],[-79.3787,39.7689],[-79.3986,39.7583],[-79.3941,39.7433],[-79.408,39.742],[-79.41,39.735],[-79.3927,39.7327],[-79.3925,39.7214],[-79.9162,39.7209],[-79.9034,39.7431],[-79.9301,39.7571],[-79.9344,39.7813],[-79.9087,39.7938],[-79.9244,39.8382],[-79.9386,39.8455],[-79.9246,39.8551],[-79.9303,39.8693],[-79.9153,39.8803],[-79.9294,39.9057],[-79.9231,39.921],[-79.9592,39.9539],[-79.9988,39.9509],[-80.0093,39.9588],[-80.0107,39.9711]]]}},{"type":"Feature","properties":{"county_fips":"48339","county_name":"Montgomery","state":"TX"},"geometry":{"type":"Polygon","coordinates":[[[-95.8302,30.6303],[-95.5989,30.509],[-95.3619,30.5089],[-95.3295,30.4332],[-95.308,30.4055],[-95.2368,30.3796],[-95.216,30.3545],[-95.2038,30.352],[-95.2114,30.3386],[-95.2208,30.3371],[-95.2265,30.3199],[-95.1659,30.345],[-95.0967,30.1672],[-95.2641,30.0321],[-95.293,30.0279],[-95.311,30.0329],[-95.3132,30.0508],[-95.3495,30.0764],[-95.4094,30.0926],[-95.4242,30.1155],[-95.4538,30.1046],[-95.4879,30.1078],[-95.4998,30.1425],[-95.5414,30.1703],[-95.5528,30.1701],[-95.5909,30.1361],[-95.6232,30.1356],[-95.6235,30.1272],[-95.637,30.1263],[-95.6683,30.1017],[-95.6837,30.1073],[-95.6908,30.0988],[-95.7151,30.1023],[-95.7609,30.0864],[-95.7893,30.0945],[-95.8033,30.0901],[-95.8044,30.3378],[-95.8302,30.6303]]]}},{"type":"Feature","properties":{"county_fips":"48029","county_name":"Bexar","state":"TX"},"geometry":{"type":"Polygon","coordinates":[[[-98.8066,29.6907],[-98.7788,29.7202],[-98.7382,29.7166],[-98.729,29.7223],[-98.7341,29.7295],[-98.7177,29.7253],[-98.7004,29.7374],[-98.6603,29.7416],[-98.6637,29.7463],[-98.6513,29.754],[-98.6426,29.7402],[-98.6178,29.7439],[-98.6143,29.7376],[-98.6005,29.7413],[-98.6034,29.7495],[-98.5828,29.7411],[-98.5505,29.7607],[-98.5268,29.7404],[-98.446,29.7359],[-98.4383,29.7156],[-98.4268,29.7177],[-98.4297,29.724],[-98.4169,29.7317],[-98.4207,29.7435],[-98.408,29.7485],[-98.3992,29.7381],[-98.3737,29.7306],[-98.3752,29.72],[-98.3526,29.7344],[-98.3386,29.7218],[-98.3414,29.7096],[-98.3805,29.7035],[-98.3763,29.6871],[-98.3843,29.6765],[-98.3789,29.6629],[-98.3638,29.6667],[-98.3427,29.6534],[-98.3453,29.6183],[-98.3122,29.6018],[-98.298,29.5611],[-98.2842,29.5533],[-98.2554,29.5405],[-98.2575,29.5552],[-98.2227,29.549],[-98.2294,29.5419],[-98.2191,29.5239],[-98.1909,29.5095],[-98.1851,29.4861],[-98.1771,29.4848],[-98.1831,29.4967],[-98.1702,29.4979],[-98.1646,29.4781],[-98.15,29.4757],[-98.1428,29.4865],[-98.136,29.4791],[-98.126,29.4818],[-98.1169,29.4639],[-98.1269,29.4572],[-98.1207,29.447],[-98.1372,29.4404],[-98.4073,29.1144],[-98.7995,29.2487],[-98.8048,29.2507],[-98.8066,29.6907]]]}},{"type":"Feature","properties":{"county_fips":"48245","county_name":"Jefferson","state":"TX"},"geometry":{"type":"Polygon","coordinates":[[[-94.4449,30.113],[-94.4311,30.1136],[-94.4283,30.1055],[-94.4012,30.0972],[-94.3762,30.1091],[-94.365,30.1015],[-94.3508,30.1091],[-94.3421,30.1031],[-94.3155,30.1177],[-94.3004,30.1141],[-94.2792,30.1319],[-94.2756,30.1701],[-94.2361,30.1653],[-94.2037,30.1888],[-94.1876,30.1789],[-94.1764,30.1879],[-94.169,30.1734],[-94.1179,30.1641],[-94.1135,30.1483],[-94.1009,30.143],[-94.1091,30.1367],[-94.0796,30.1271],[-94.0743,30.1165],[-94.0873,30.1049],[-94.0921,30.0823],[-94.0519,30.0787],[-94.043,30.0637],[-94.0275,30.066],[-94.0359,30.0414],[-94.0309,30.0264],[-94.001,30.031],[-93.9968,30.0131],[-93.9831,30.0218],[-93.9818,30.0089],[-93.9606,30.0134],[-93.9544,30.0011],[-93.9311,29.9911],[-93.9138,29.996],[-93.9035,29.9855],[-93.8602,29.9774],[-93.8439,29.9548],[-93.839,29.9264],[-93.8543,29.865],[-93.9164,29.825],[-93.9292,29.803],[-93.9224,29.785],[-93.8939,29.7673],[-93.8916,29.7446],[-93.87,29.7355],[-93.838,29.6906],[-93.8377,29.679],[-93.9848,29.6824],[-94.0565,29.6712],[-94.3541,29.5626],[-94.358,29.8875],[-94.4422,29.8871],[-94.4449,30.113]]]}},{"type":"Feature","properties":{"county_fips":"28113","county_name":"Pike","state":"MS"},"geometry":{"type":"Polygon","coordinates":[[[-90.5476,30.9997],[-90.5482,31.3496],[-90.2604,31.3503],[-90.2596,31.0007],[-90.5476,30.9997]]]}},{"type":"Feature","properties":{"county_fips":"28151","county_name":"Washington","state":"MS"},"geometry":{"type":"Polygon","coordinates":[[[-91.2359,33.4406],[-91.2317,33.4571],[-91.2085,33.4686],[-91.1826,33.4992],[-91.2187,33.5294],[-90.7613,33.5294],[-90.7638,33.2704],[-90.7163,33.27],[-90.7314,33.2646],[-90.7323,33.2297],[-90.679,33.1997],[-90.6869,33.1869],[-90.6881,33.1485],[-90.7006,33.1251],[-90.6796,33.1146],[-90.6796,33.1025],[-90.7018,33.0963],[-90.9145,33.0974],[-90.9143,33.0077],[-91.1663,33.0114],[-91.1575,33.0227],[-91.1283,33.0343],[-91.1212,33.0592],[-91.2002,33.1069],[-91.202,33.1231],[-91.1837,33.1417],[-91.1631,33.1422],[-91.1504,33.1307],[-91.1281,33.1289],[-91.0857,33.1372],[-91.0808,33.1822],[-91.1003,33.2194],[-91.0707,33.2273],[-91.0504,33.2512],[-91.0436,33.2746],[-91.0524,33.2854],[-91.0785,33.2833],[-91.0987,33.2385],[-91.1061,33.2418],[-91.1416,33.2995],[-91.1422,33.349],[-91.0644,33.4185],[-91.0581,33.4465],[-91.0707,33.4559],[-91.087,33.4513],[-91.0967,33.4376],[-91.0995,33.4072],[-91.1212,33.3884],[-91.1488,33.3788],[-91.1769,33.3828],[-91.2092,33.4063],[-91.1994,33.4183],[-91.1763,33.417],[-91.1319,33.4301],[-91.1169,33.452],[-91.1322,33.4816],[-91.1717,33.497],[-91.1774,33.4816],[-91.1698,33.452],[-91.1765,33.4446],[-91.2068,33.4338],[-91.2359,33.4406]]]}},{"type":"Feature","properties":{"county_fips":"21179","county_name":"Nelson","state":"KY"},"geometry":{"type":"Polygon","coordinates":[[[-85.7426,37.7922],[-85.7378,37.8118],[-85.7214,37.8102],[-85.7205,37.8084],[-85.723,37.8086],[-85.7242,37.8059],[-85.6912,37.8185],[-85.6806,37.8149],[-85.6168,37.8524],[-85.6103,37.8589],[-85.6133,37.87],[-85.5997,37.8694],[-85.5766,37.8846],[-85.5848,37.8936],[-85.5839,37.911],[-85.5503,37.9269],[-85.5252,37.9527],[-85.5342,37.9652],[-85.4892,37.9907],[-85.3996,37.9399],[-85.1678,37.9718],[-85.1518,37.8877],[-85.1855,37.8922],[-85.1875,37.8836],[-85.1991,37.9018],[-85.1936,37.8655],[-85.2051,37.8642],[-85.1963,37.8555],[-85.2051,37.8462],[-85.2184,37.8543],[-85.2162,37.8713],[-85.2269,37.8552],[-85.2308,37.8705],[-85.241,37.8625],[-85.2555,37.8658],[-85.2442,37.8475],[-85.268,37.8445],[-85.2785,37.8533],[-85.2775,37.8378],[-85.2979,37.8324],[-85.3136,37.8097],[-85.3082,37.7938],[-85.3348,37.7878],[-85.3384,37.7801],[-85.356,37.7838],[-85.3542,37.7698],[-85.3449,37.7636],[-85.353,37.7574],[-85.3743,37.765],[-85.3731,37.74],[-85.4018,37.7307],[-85.4505,37.6859],[-85.5213,37.5543],[-85.5267,37.5626],[-85.5436,37.5624],[-85.5511,37.554],[-85.5471,37.531],[-85.5612,37.524],[-85.5958,37.5328],[-85.5957,37.5451],[-85.601,37.5393],[-85.6036,37.548],[-85.6181,37.5406],[-85.6261,37.5454],[-85.6078,37.558],[-85.6013,37.5825],[-85.6068,37.5904],[-85.5913,37.5945],[-85.5872,37.6051],[-85.6114,37.6073],[-85.6153,37.6145],[-85.5925,37.6138],[-85.5798,37.6267],[-85.5701,37.6172],[-85.5682,37.6235],[-85.5728,37.6383],[-85.5837,37.6443],[-85.6011,37.6399],[-85.5925,37.6939],[-85.606,37.7008],[-85.6372,37.696],[-85.6459,37.7167],[-85.6781,37.73],[-85.6766,37.737],[-85.6875,37.7331],[-85.6795,37.7393],[-85.6866,37.7467],[-85.6824,37.7577],[-85.6929,37.7553],[-85.7045,37.7681],[-85.7165,37.7685],[-85.7139,37.7742],[-85.7281,37.7742],[-85.7363,37.7817],[-85.727,37.7878],[-85.7426,37.7922]]]}},{"type":"Feature","properties":{"county_fips":"21209","county_name":"Scott","state":"KY"},"geometry":{"type":"Polygon","coordinates":[[[-84.7406,38.3524],[-84.6236,38.4312],[-84.5557,38.4926],[-84.5464,38.4668],[-84.5262,38.4498],[-84.5278,38.4332],[-84.4911,38.4144],[-84.4624,38.3845],[-84.4591,38.3437],[-84.434,38.3068],[-84.4447,38.2851],[-84.4369,38.2663],[-84.4225,38.2566],[-84.4168,38.2212],[-84.4223,38.2171],[-84.4018,38.2079],[-84.6206,38.1295],[-84.6334,38.1109],[-84.6506,38.1126],[-84.6533,38.121],[-84.6403,38.1221],[-84.6447,38.1281],[-84.6341,38.1218],[-84.6484,38.1359],[-84.6391,38.1496],[-84.651,38.1452],[-84.6521,38.1584],[-84.6414,38.1584],[-84.6572,38.1621],[-84.6478,38.1766],[-84.6653,38.182],[-84.6714,38.1767],[-84.6784,38.185],[-84.6841,38.176],[-84.6757,38.1722],[-84.6814,38.1692],[-84.6897,38.1712],[-84.6884,38.1808],[-84.7075,38.1734],[-84.7316,38.1874],[-84.7234,38.1941],[-84.7303,38.2083],[-84.7406,38.3524]]]}},{"type":"Feature","properties":{"county_fips":"47167","county_name":"Tipton","state":"TN"},"geometry":{"type":"MultiPolygon","coordinates":[[[[-90.0568,35.4039],[-90.0027,35.4305],[-90.0119,35.4626],[-90.0477,35.5026],[-90.0491,35.5223],[-90.0381,35.5497],[-89.9894,35.56],[-89.9585,35.5417],[-89.9587,35.5238],[-89.9119,35.5128],[-89.9024,35.525],[-89.9097,35.538],[-89.8944,35.5502],[-89.8812,35.5779],[-89.8845,35.585],[-89.8602,35.5846],[-89.8424,35.5976],[-89.8447,35.6048],[-89.8241,35.6031],[-89.8265,35.6144],[-89.8148,35.6179],[-89.8177,35.6237],[-89.8071,35.6205],[-89.7936,35.6399],[-89.7797,35.6354],[-89.7591,35.6426],[-89.7581,35.6504],[-89.7391,35.6394],[-89.7291,35.6474],[-89.727,35.6365],[-89.6943,35.6451],[-89.6885,35.6359],[-89.6759,35.6404],[-89.6659,35.6314],[-89.651,35.6387],[-89.6504,35.6485],[-89.631,35.6451],[-89.6326,35.6503],[-89.623,35.6523],[-89.613,35.6432],[-89.6157,35.6369],[-89.6022,35.6238],[-89.5979,35.6301],[-89.5537,35.6044],[-89.5458,35.6098],[-89.5103,35.5808],[-89.4842,35.5744],[-89.4889,35.5714],[-89.4885,35.5681],[-89.4774,35.562],[-89.4827,35.5466],[-89.4699,35.5466],[-89.4742,35.403],[-89.544,35.4047],[-89.5852,35.3975],[-89.645,35.3712],[-89.6428,35.388],[-89.7029,35.3891],[-89.7025,35.4086],[-89.7093,35.4095],[-89.7303,35.4068],[-89.7308,35.4011],[-89.7767,35.4052],[-89.7788,35.3878],[-90.044,35.3967],[-90.0568,35.4039]]],[[[-90.1793,35.3852],[-90.1689,35.4219],[-90.1294,35.4421],[-90.1144,35.4725],[-90.088,35.4786],[-90.0678,35.4662],[-90.0741,35.434],[-90.062,35.4152],[-90.0695,35.4081],[-90.0543,35.3893],[-90.078,35.3845],[-90.1116,35.4096],[-90.1293,35.4138],[-90.1462,35.3995],[-90.1355,35.3767],[-90.1653,35.374],[-90.1793,35.3852]]]]}},{"type":"Feature","properties":{"county_fips":"48355","county_name":"Nueces","state":"TX"},"geometry":{"type":"MultiPolygon","coordinates":[[[[-97.109,27.892],[-97.1029,27.9034],[-97.0972,27.9035],[-97.109,27.892]]],[[[-97.1257,27.9075],[-97.125,27.9129],[-97.1221,27.9113],[-97.1257,27.9075]]],[[[-97.127,27.8411],[-97.1014,27.8832],[-97.09,27.8755],[-97.0721,27.901],[-97.0572,27.8654],[-97.0649,27.8524],[-97.061,27.8463],[-97.127,27.8411]]],[[[-97.1317,27.896],[-97.1134,27.8921],[-97.1102,27.8892],[-97.1183,27.8856],[-97.1317,27.896]]],[[[-97.1297,27.8975],[-97.1289,27.9051],[-97.1271,27.904],[-97.1297,27.8975]]],[[[-97.1385,27.9008],[-97.1339,27.9011],[-97.1354,27.8978],[-97.1385,27.9008]]],[[[-97.1434,27.8495],[-97.1387,27.8558],[-97.1374,27.8494],[-97.1434,27.8495]]],[[[-97.1444,27.8831],[-97.1426,27.8947],[-97.1375,27.8937],[-97.1444,27.8831]]],[[[-97.1508,27.8759],[-97.1447,27.8809],[-97.1421,27.8811],[-97.1454,27.8766],[-97.1508,27.8759]]],[[[-97.1641,27.8206],[-97.1534,27.8219],[-97.1429,27.8204],[-97.1477,27.8161],[-97.1641,27.8206]]],[[[-97.1684,27.7544],[-97.1727,27.7608],[-97.1649,27.764],[-97.1684,27.7544]]],[[[-97.1878,27.8128],[-97.1785,27.8184],[-97.1775,27.8146],[-97.1878,27.8128]]],[[[-97.2203,27.8102],[-97.2041,27.8139],[-97.1964,27.814],[-97.2073,27.8073],[-97.2203,27.8102]]],[[[-97.2209,27.8492],[-97.2217,27.8545],[-97.2202,27.8506],[-97.2209,27.8492]]],[[[-97.2465,27.6825],[-97.2374,27.687],[-97.2155,27.6828],[-97.2315,27.6409],[-97.2281,27.6739],[-97.2375,27.6828],[-97.2435,27.6711],[-97.2465,27.6825]]],[[[-97.2682,27.576],[-97.2363,27.6376],[-97.2107,27.6241],[-97.2155,27.6444],[-97.2012,27.646],[-97.1968,27.6844],[-97.1689,27.7222],[-97.1512,27.7686],[-97.1215,27.7851],[-97.1212,27.8157],[-97.1354,27.8245],[-97.0629,27.8418],[-97.0448,27.8345],[-97.1409,27.7167],[-97.2227,27.5765],[-97.2421,27.5829],[-97.2682,27.576]]],[[[-97.2676,27.8737],[-97.2522,27.8712],[-97.239,27.8398],[-97.2451,27.841],[-97.2676,27.8737]]],[[[-97.9421,27.6359],[-97.9343,27.8852],[-97.7985,27.9957],[-97.8065,27.9741],[-97.8176,27.9706],[-97.8068,27.9347],[-97.7807,27.9477],[-97.7757,27.9378],[-97.7646,27.9384],[-97.7628,27.9234],[-97.749,27.9329],[-97.73,27.9233],[-97.7363,27.912],[-97.7155,27.9119],[-97.7082,27.9226],[-97.6905,27.917],[-97.6917,27.9041],[-97.6715,27.893],[-97.6753,27.8825],[-97.6382,27.8656],[-97.6271,27.8757],[-97.632,27.8936],[-97.627,27.8954],[-97.6096,27.8904],[-97.609,27.8717],[-97.5919,27.857],[-97.5443,27.8589],[-97.5351,27.8477],[-97.493,27.8442],[-97.4721,27.8242],[-97.4356,27.8324],[-97.4167,27.8222],[-97.4098,27.8334],[-97.3857,27.84],[-97.3785,27.8325],[-97.3949,27.812],[-97.3933,27.7829],[-97.3684,27.7417],[-97.3437,27.724],[-97.2531,27.6975],[-97.2435,27.6892],[-97.2538,27.6928],[-97.2692,27.6774],[-97.2993,27.606],[-97.2946,27.5927],[-97.3252,27.5609],[-97.8407,27.5584],[-97.8399,27.565],[-97.8739,27.5879],[-97.8768,27.6086],[-97.8886,27.6202],[-97.921,27.6229],[-97.9324,27.6359],[-97.9421,27.6359]]]]}},{"type":"Feature","properties":{"county_fips":"48409","county_name":"San Patricio","state":"TX"},"geometry":{"type":"MultiPolygon","coordinates":[[[[-97.2401,27.8336],[-97.2343,27.8358],[-97.23,27.83],[-97.2339,27.8289],[-97.2401,27.8336]]],[[[-97.9087,28.0925],[-97.8966,28.1002],[-97.898,28.1137],[-97.9041,28.1142],[-97.8177,28.1768],[-97.5676,28.1297],[-97.5411,28.1647],[-97.5212,28.1513],[-97.4824,28.1686],[-97.4755,28.1793],[-97.4719,28.155],[-97.4563,28.1605],[-97.4501,28.1478],[-97.4419,28.1535],[-97.4464,28.1328],[-97.4223,28.1423],[-97.4353,28.1299],[-97.428,28.1281],[-97.4267,28.1173],[-97.4054,28.1192],[-97.4039,28.109],[-97.3962,28.1188],[-97.4054,28.1235],[-97.4038,28.1301],[-97.3845,28.1241],[-97.3786,28.139],[-97.3454,28.1184],[-97.3415,28.1322],[-97.3247,28.126],[-97.3307,28.1199],[-97.3253,28.1195],[-97.3177,28.1319],[-97.3275,28.1331],[-97.3178,28.1375],[-97.309,28.12],[-97.316,28.1094],[-97.3013,28.1038],[-97.2889,28.1137],[-97.284,28.0913],[-97.2615,28.0872],[-97.2594,28.0732],[-97.1354,27.8978],[-97.1906,27.8233],[-97.201,27.8213],[-97.2249,27.8267],[-97.2204,27.8373],[-97.2217,27.8545],[-97.2347,27.8504],[-97.2459,27.8725],[-97.2636,27.8808],[-97.3087,27.8743],[-97.3549,27.8511],[-97.3307,27.8738],[-97.3378,27.8836],[-97.4184,27.8704],[-97.4482,27.8694],[-97.4587,27.8789],[-97.4604,27.8645],[-97.4682,27.8703],[-97.4812,27.8601],[-97.4932,27.8841],[-97.5166,27.8714],[-97.5207,27.8607],[-97.5151,27.8512],[-97.4974,27.8495],[-97.4889,27.8403],[-97.5351,27.8477],[-97.5551,27.8607],[-97.5919,27.857],[-97.609,27.8717],[-97.6096,27.8904],[-97.627,27.8954],[-97.632,27.8936],[-97.6271,27.8757],[-97.6382,27.8656],[-97.6753,27.8825],[-97.6715,27.893],[-97.6917,27.9041],[-97.6905,27.917],[-97.7082,27.9226],[-97.7155,27.9119],[-97.7363,27.912],[-97.73,27.9233],[-97.749,27.9329],[-97.7628,27.9234],[-97.7646,27.9384],[-97.7757,27.9378],[-97.7807,27.9477],[-97.8068,27.9347],[-97.8176,27.9706],[-97.8028,27.9794],[-97.7967,28.0106],[-97.7892,28.0136],[-97.7961,28.0313],[-97.8058,28.0414],[-97.8389,28.0346],[-97.8781,28.0463],[-97.884,28.06],[-97.9,28.0656],[-97.9011,28.0759],[-97.8954,28.0759],[-97.9087,28.0925]]]]}},{"type":"Feature","properties":{"county_fips":"48469","county_name":"Victoria","state":"TX"},"geometry":{"type":"Polygon","coordinates":[[[-97.3059,28.864],[-96.9764,29.104],[-96.9386,29.0632],[-96.8321,29.0213],[-96.8056,28.9722],[-96.8078,28.956],[-96.7917,28.9183],[-96.776,28.916],[-96.7584,28.8965],[-96.7389,28.8936],[-96.7221,28.8618],[-96.7027,28.851],[-96.7132,28.8453],[-96.7124,28.8302],[-96.7231,28.8212],[-96.706,28.8144],[-96.7061,28.7958],[-96.6952,28.7929],[-96.6977,28.7744],[-96.6701,28.7612],[-96.6633,28.7423],[-96.6688,28.7363],[-96.6598,28.7204],[-96.6459,28.7211],[-96.6425,28.7169],[-96.6509,28.7177],[-96.6434,28.7121],[-96.7228,28.6698],[-96.8538,28.6352],[-96.9304,28.5867],[-96.9142,28.5692],[-96.906,28.5715],[-96.8951,28.5489],[-96.9058,28.5321],[-96.891,28.5072],[-96.9017,28.5096],[-96.916,28.4987],[-96.9106,28.4886],[-96.9251,28.4884],[-96.956,28.5045],[-96.9856,28.4999],[-97.0229,28.5179],[-97.0248,28.5391],[-97.0515,28.5351],[-97.0448,28.5498],[-97.0627,28.5474],[-97.0592,28.5452],[-97.0619,28.5409],[-97.0797,28.5455],[-97.0777,28.5336],[-97.0861,28.5326],[-97.1039,28.5546],[-97.1234,28.5453],[-97.1395,28.5542],[-97.1478,28.5464],[-97.1493,28.5533],[-97.1602,28.5502],[-97.1642,28.5648],[-97.154,28.5702],[-97.17,28.5772],[-97.1712,28.5867],[-97.162,28.5851],[-97.1824,28.6106],[-97.1677,28.7278],[-97.1782,28.7389],[-97.1678,28.7479],[-97.1606,28.7826],[-97.1763,28.7907],[-97.1905,28.8133],[-97.1867,28.8341],[-97.2035,28.8544],[-97.2334,28.8654],[-97.235,28.8541],[-97.2523,28.8579],[-97.2603,28.8472],[-97.3005,28.8441],[-97.3049,28.8507],[-97.2977,28.8609],[-97.3059,28.864]]]}},{"type":"Feature","properties":{"county_fips":"48455","county_name":"Trinity","state":"TX"},"geometry":{"type":"Polygon","coordinates":[[[-95.4348,31.0581],[-94.9581,31.3869],[-94.9496,31.381],[-94.9573,31.3791],[-94.959,31.365],[-94.9498,31.3598],[-94.9614,31.3525],[-94.9578,31.3428],[-94.9093,31.3368],[-94.897,31.3234],[-94.9015,31.3133],[-94.8942,31.2916],[-94.8861,31.2956],[-94.8778,31.2874],[-94.8976,31.2578],[-94.8757,31.2505],[-94.8604,31.2345],[-94.8646,31.2257],[-94.8584,31.2205],[-94.8664,31.2087],[-94.8501,31.1786],[-94.8551,31.1726],[-94.85,31.1549],[-94.8563,31.1501],[-94.8429,31.1466],[-94.9392,31.042],[-95.2002,30.8246],[-95.2321,30.8428],[-95.2431,30.8669],[-95.2308,30.887],[-95.2524,30.9067],[-95.3129,30.8979],[-95.3139,30.8731],[-95.3275,30.8595],[-95.3425,30.8757],[-95.3521,30.857],[-95.3967,30.8577],[-95.3916,30.876],[-95.3988,30.8823],[-95.3814,30.8793],[-95.3813,30.8871],[-95.4155,30.9079],[-95.4108,30.9304],[-95.4343,30.9374],[-95.4348,31.0581]]]}},{"type":"Feature","properties":{"county_fips":"48407","county_name":"San Jacinto","state":"TX"},"geometry":{"type":"Polygon","coordinates":[[[-95.3589,30.5062],[-95.3275,30.8595],[-95.3139,30.8731],[-95.3129,30.8979],[-95.2524,30.9067],[-95.2308,30.887],[-95.2431,30.8669],[-95.231,30.8411],[-95.181,30.8188],[-95.174,30.8076],[-95.1319,30.7832],[-95.1394,30.7762],[-95.1322,30.7553],[-95.146,30.7424],[-95.1471,30.7174],[-95.1349,30.6933],[-95.1099,30.6942],[-95.1195,30.6773],[-95.1107,30.672],[-95.115,30.661],[-95.1024,30.6585],[-95.09,30.6718],[-95.0546,30.6802],[-95.0545,30.6714],[-95.0342,30.6742],[-95.039,30.6629],[-95.0103,30.6567],[-95.0132,30.6485],[-95.0247,30.6498],[-95.0159,30.6271],[-95.0089,30.6277],[-95.0071,30.6071],[-95.0318,30.5973],[-95.0309,30.5803],[-94.9657,30.5766],[-94.9373,30.558],[-94.9105,30.5615],[-94.8752,30.5461],[-94.8297,30.5395],[-94.8674,30.5108],[-94.8655,30.495],[-94.8426,30.4875],[-95.2256,30.3195],[-95.2208,30.3371],[-95.2114,30.3386],[-95.2038,30.352],[-95.216,30.3545],[-95.2368,30.3796],[-95.308,30.4055],[-95.3295,30.4332],[-95.3589,30.5062]]]}},{"type":"Feature","properties":{"county_fips":"21239","county_name":"Woodford","state":"KY"},"geometry":{"type":"Polygon","coordinates":[[[-84.8619,38.0913],[-84.8648,38.1414],[-84.7252,38.1954],[-84.7316,38.1874],[-84.7075,38.1734],[-84.6908,38.1815],[-84.6897,38.1712],[-84.676,38.1706],[-84.6841,38.176],[-84.6784,38.185],[-84.6714,38.1767],[-84.6653,38.182],[-84.6478,38.1766],[-84.6572,38.1621],[-84.6414,38.1584],[-84.6521,38.1584],[-84.651,38.1452],[-84.6391,38.1496],[-84.6484,38.1359],[-84.6404,38.1344],[-84.6341,38.1218],[-84.6438,38.1284],[-84.6417,38.1202],[-84.6531,38.1165],[-84.6334,38.1109],[-84.6251,38.1164],[-84.7099,37.862],[-84.7652,37.8478],[-84.7733,37.8628],[-84.7582,37.8719],[-84.767,37.8903],[-84.7822,37.8921],[-84.7741,37.9056],[-84.7838,37.9062],[-84.795,37.8868],[-84.8018,37.895],[-84.7973,37.9175],[-84.8265,37.9165],[-84.821,37.9269],[-84.7972,37.934],[-84.82,37.9491],[-84.7944,37.9686],[-84.8181,37.9734],[-84.8235,37.9825],[-84.8171,38.0],[-84.8385,38.0097],[-84.8312,38.0305],[-84.8499,38.0459],[-84.826,38.055],[-84.843,38.07],[-84.8285,38.0894],[-84.8391,38.1002],[-84.8619,38.0913]]]}},{"type":"Feature","properties":{"county_fips":"05117","county_name":"Prairie","state":"AR"},"geometry":{"type":"Polygon","coordinates":[[[-91.8036,34.9258],[-91.7982,35.0425],[-91.7445,35.0471],[-91.7015,35.063],[-91.6794,35.0505],[-91.652,35.0496],[-91.6385,35.0264],[-91.5852,35.0253],[-91.584,35.0916],[-91.4653,35.0895],[-91.468,35.0839],[-91.446,35.0678],[-91.4754,35.067],[-91.4759,35.0564],[-91.4612,35.052],[-91.44,35.0617],[-91.4417,35.0522],[-91.3638,35.052],[-91.3684,34.9009],[-91.3868,34.9002],[-91.3439,34.8756],[-91.3647,34.8682],[-91.3599,34.8463],[-91.3771,34.8343],[-91.3706,34.8248],[-91.3748,34.666],[-91.447,34.6675],[-91.4475,34.6531],[-91.4479,34.6091],[-91.4123,34.6086],[-91.4126,34.5938],[-91.377,34.5929],[-91.3778,34.5635],[-91.5944,34.568],[-91.5959,34.4805],[-91.6782,34.4819],[-91.6834,34.4925],[-91.6751,34.5133],[-91.633,34.5533],[-91.6364,34.5664],[-91.6522,34.5667],[-91.665,34.5798],[-91.6596,34.6],[-91.6391,34.6228],[-91.6417,34.6352],[-91.6753,34.663],[-91.7008,34.6721],[-91.6937,34.9196],[-91.8036,34.9258]]]}},{"type":"Feature","properties":{"county_fips":"22087","county_name":"St. Bernard","state":"LA"},"geometry":{"type":"MultiPolygon","coordinates":[[[[-88.8677,29.8616],[-88.8627,29.8568],[-88.8623,29.8462],[-88.8651,29.8485],[-88.8677,29.8616]]],[[[-88.8761,29.875],[-88.8783,29.877],[-88.8753,29.8819],[-88.8761,29.875]]],[[[-88.8705,30.0492],[-88.8337,29.9988],[-88.817,29.9342],[-88.8181,29.8891],[-88.8327,29.8241],[-88.8751,29.7598],[-88.843,29.826],[-88.8363,29.8552],[-88.8433,29.8638],[-88.8312,29.8788],[-88.8282,29.9207],[-88.8409,29.9956],[-88.8574,30.0278],[-88.8815,30.0532],[-88.8705,30.0492]]],[[[-89.2622,29.8275],[-89.2495,29.8286],[-89.2455,29.8266],[-89.2489,29.8232],[-89.2622,29.8275]]],[[[-89.2934,29.9947],[-89.2878,29.9996],[-89.2899,29.9952],[-89.2934,29.9947]]],[[[-89.3266,29.947],[-89.3222,29.9542],[-89.3194,29.9489],[-89.3266,29.947]]],[[[-89.334,29.9591],[-89.3357,29.9628],[-89.3322,29.9624],[-89.334,29.9591]]],[[[-89.3367,29.988],[-89.3396,29.994],[-89.3367,29.9942],[-89.3367,29.988]]],[[[-89.3422,30.0592],[-89.3188,30.0651],[-89.303,30.0916],[-89.211,30.1414],[-89.1905,30.1618],[-89.1857,30.157],[-89.2431,30.1007],[-89.2291,30.0989],[-89.2208,30.0714],[-89.1757,30.0628],[-89.1734,30.0434],[-89.184,30.0328],[-89.203,30.0346],[-89.213,30.0274],[-89.2115,30.0101],[-89.2016,30.0014],[-89.2157,29.9935],[-89.2295,30.0004],[-89.2272,30.0212],[-89.2443,30.0583],[-89.2534,30.0605],[-89.2755,30.0371],[-89.2758,30.0231],[-89.2876,30.0406],[-89.324,30.0478],[-89.3332,30.0348],[-89.3422,30.0592]]],[[[-89.3404,29.9762],[-89.3458,29.9769],[-89.3435,29.9813],[-89.3404,29.9762]]],[[[-89.3603,29.9199],[-89.3578,29.934],[-89.3524,29.9244],[-89.3603,29.9199]]],[[[-89.3686,29.9538],[-89.362,29.9623],[-89.3668,29.9767],[-89.3604,29.9792],[-89.3518,29.9729],[-89.3632,29.9719],[-89.3537,29.9596],[-89.3686,29.9538]]],[[[-89.3784,30.0042],[-89.3797,30.0146],[-89.3648,30.009],[-89.3784,30.0042]]],[[[-89.4466,30.1303],[-89.4421,30.1444],[-89.4177,30.1437],[-89.429,30.1286],[-89.4466,30.1303]]],[[[-90.0121,29.946],[-89.9899,29.9895],[-89.9726,29.9948],[-89.9401,29.9801],[-89.9142,29.9991],[-89.8945,30.0023],[-89.8797,29.9854],[-89.87,29.9931],[-89.8612,29.9888],[-89.8599,30.0017],[-89.8388,29.9428],[-89.7981,29.9317],[-89.7294,29.9575],[-89.7148,29.947],[-89.7472,29.9308],[-89.7449,29.9079],[-89.7053,29.8743],[-89.6654,29.8628],[-89.6348,29.8632],[-89.6005,29.8771],[-89.5909,29.889],[-89.5923,29.9173],[-89.5704,29.9615],[-89.5801,29.9905],[-89.4915,30.0375],[-89.4967,30.0606],[-89.4844,30.0788],[-89.4564,30.0589],[-89.4446,30.061],[-89.4311,30.0518],[-89.4426,30.0463],[-89.4304,30.0338],[-89.4019,30.049],[-89.3727,30.0498],[-89.3803,30.0416],[-89.3746,30.0326],[-89.4078,30.0239],[-89.3991,30.0009],[-89.4093,30.02],[-89.4235,30.0169],[-89.43,30.0289],[-89.449,30.0192],[-89.4321,30.0105],[-89.4487,30.0118],[-89.4578,29.9982],[-89.4334,29.9912],[-89.434,29.9743],[-89.4198,29.9725],[-89.4235,29.9634],[-89.3812,29.9595],[-89.3983,29.9578],[-89.3805,29.9416],[-89.3701,29.8921],[-89.3598,29.8909],[-89.3539,29.9115],[-89.3344,29.9069],[-89.3176,29.9212],[-89.2758,29.9776],[-89.2733,29.9938],[-89.2572,29.9906],[-89.2478,29.9973],[-89.25,29.9756],[-89.2255,29.9671],[-89.238,29.937],[-89.2324,29.9304],[-89.2798,29.9272],[-89.3247,29.8889],[-89.342,29.8831],[-89.3351,29.8728],[-89.3127,29.8811],[-89.2412,29.8851],[-89.2403,29.8786],[-89.2644,29.867],[-89.2709,29.8521],[-89.2859,29.8507],[-89.2933,29.8634],[-89.306,29.8657],[-89.3152,29.8528],[-89.3009,29.8363],[-89.3195,29.8371],[-89.3124,29.8236],[-89.3275,29.8233],[-89.3431,29.8383],[-89.3294,29.8432],[-89.3408,29.8497],[-89.3857,29.8355],[-89.3794,29.8221],[-89.3623,29.8267],[-89.3493,29.8208],[-89.345,29.8154],[-89.3587,29.8098],[-89.357,29.8],[-89.3446,29.7977],[-89.3365,29.7852],[-89.3184,29.7837],[-89.2925,29.7992],[-89.2857,29.7634],[-89.3049,29.7587],[-89.3328,29.7799],[-89.3673,29.7775],[-89.376,29.7886],[-89.3947,29.7902],[-89.4016,29.7696],[-89.4308,29.7408],[-89.4255,29.7312],[-89.4303,29.7126],[-89.4064,29.6944],[-89.3961,29.6957],[-89.3878,29.68],[-89.404,29.6818],[-89.4242,29.6976],[-89.4319,29.6887],[-89.4267,29.6786],[-89.4403,29.682],[-89.4431,29.6712],[-89.4338,29.6564],[-89.4456,29.6519],[-89.4656,29.6517],[-89.4676,29.699],[-89.4851,29.72],[-89.5249,29.7266],[-89.5188,29.7021],[-89.5077,29.692],[-89.5196,29.6922],[-89.5249,29.6828],[-89.5145,29.6688],[-89.5323,29.6734],[-89.5315,29.6664],[-89.5114,29.6569],[-89.5014,29.634],[-89.5224,29.6508],[-89.6257,29.6789],[-89.6603,29.7087],[-89.6839,29.716],[-89.705,29.7528],[-89.7908,29.7608],[-89.7862,29.7733],[-89.8098,29.7988],[-89.8678,29.794],[-89.8959,29.8332],[-89.9107,29.8679],[-89.9033,29.8874],[-89.921,29.9157],[-89.9366,29.9243],[-89.9698,29.9247],[-90.0121,29.946]]]]}},{"type":"Feature","properties":{"county_fips":"48473","county_name":"Waller","state":"TX"},"geometry":{"type":"Polygon","coordinates":[[[-96.1918,30.1384],[-96.1718,30.1398],[-96.1807,30.1557],[-96.1525,30.1431],[-96.1501,30.1554],[-96.162,30.1649],[-96.1546,30.1771],[-96.159,30.2066],[-96.1451,30.2186],[-96.1282,30.2116],[-96.1172,30.2273],[-96.0989,30.2145],[-96.0889,30.2287],[-95.8043,30.2456],[-95.8033,30.0901],[-95.8096,30.0853],[-95.8389,30.0832],[-95.8466,30.1005],[-95.8619,30.1056],[-95.8739,30.1222],[-95.8986,30.1209],[-95.9607,30.1634],[-95.8262,29.7883],[-95.9509,29.7408],[-95.9713,29.7405],[-95.9709,29.7286],[-96.0327,29.7279],[-96.0401,29.7382],[-96.0293,29.7526],[-96.043,29.7791],[-96.0422,29.7953],[-96.0646,29.8069],[-96.1025,29.8097],[-96.0982,29.8267],[-96.1079,29.8223],[-96.1221,29.8394],[-96.1009,29.8525],[-96.1102,29.8587],[-96.1122,29.8726],[-96.0927,29.8828],[-96.1259,29.8977],[-96.1133,29.9153],[-96.1306,29.9396],[-96.1229,29.949],[-96.1008,29.9435],[-96.1064,29.9555],[-96.1195,29.955],[-96.126,29.965],[-96.0928,29.9615],[-96.1029,29.9678],[-96.0957,29.9781],[-96.1045,29.9964],[-96.1005,30.0042],[-96.0916,29.9982],[-96.0845,30.0051],[-96.0966,30.0276],[-96.1132,30.027],[-96.1071,30.0361],[-96.1147,30.0488],[-96.1464,30.0645],[-96.1512,30.0764],[-96.1338,30.071],[-96.1584,30.0917],[-96.154,30.108],[-96.1699,30.0988],[-96.175,30.1124],[-96.1887,30.1105],[-96.1912,30.1176],[-96.1789,30.1209],[-96.1918,30.1384]]]}},{"type":"Feature","properties":{"county_fips":"48453","county_name":"Travis","state":"TX"},"geometry":{"type":"Polygon","coordinates":[[[-98.173,30.3563],[-98.0977,30.4676],[-98.0978,30.4981],[-98.1137,30.4856],[-98.1231,30.487],[-98.0499,30.6242],[-98.0365,30.6117],[-98.0127,30.6168],[-98.0063,30.6275],[-97.9924,30.6095],[-97.9567,30.6282],[-97.9171,30.6049],[-97.9219,30.591],[-97.9151,30.5806],[-97.927,30.5677],[-97.9025,30.5713],[-97.8679,30.5465],[-97.8714,30.5227],[-97.8558,30.5074],[-97.8622,30.4973],[-97.8465,30.4734],[-97.8119,30.4471],[-97.7794,30.4384],[-97.7763,30.4298],[-97.7536,30.4333],[-97.7468,30.4493],[-97.6888,30.4614],[-97.6829,30.4801],[-97.6514,30.4749],[-97.6068,30.4903],[-97.5962,30.5015],[-97.5683,30.4997],[-97.5461,30.4754],[-97.524,30.4722],[-97.5109,30.4853],[-97.4598,30.4583],[-97.4341,30.4597],[-97.4153,30.4383],[-97.393,30.4388],[-97.3834,30.4242],[-97.3695,30.4196],[-97.4925,30.21],[-97.6494,30.0679],[-97.6537,30.0716],[-97.7088,30.0235],[-98.173,30.3563]]]}},{"type":"Feature","properties":{"county_fips":"48491","county_name":"Williamson","state":"TX"},"geometry":{"type":"Polygon","coordinates":[[[-98.0499,30.6242],[-97.9629,30.7856],[-97.8281,30.9044],[-97.6241,30.87],[-97.2699,30.7354],[-97.1552,30.4573],[-97.3345,30.4028],[-97.3768,30.4192],[-97.393,30.4388],[-97.4153,30.4383],[-97.4341,30.4597],[-97.4598,30.4583],[-97.5109,30.4853],[-97.524,30.4722],[-97.5461,30.4754],[-97.5683,30.4997],[-97.5962,30.5015],[-97.6068,30.4903],[-97.6514,30.4749],[-97.6829,30.4801],[-97.6888,30.4614],[-97.7468,30.4493],[-97.7536,30.4333],[-97.7763,30.4298],[-97.7794,30.4384],[-97.8119,30.4471],[-97.8465,30.4734],[-97.8622,30.4973],[-97.8558,30.5074],[-97.8714,30.5227],[-97.8679,30.5465],[-97.9025,30.5713],[-97.927,30.5677],[-97.9151,30.5806],[-97.9219,30.591],[-97.9171,30.6049],[-97.9567,30.6282],[-97.9924,30.6095],[-98.0063,30.6275],[-98.0127,30.6168],[-98.0365,30.6117],[-98.0499,30.6242]]]}},{"type":"Feature","properties":{"county_fips":"48373","county_name":"Polk","state":"TX"},"geometry":{"type":"Polygon","coordinates":[[[-95.2002,30.8246],[-94.9392,31.042],[-94.8429,31.1466],[-94.7516,31.1056],[-94.7236,31.1085],[-94.6984,31.0962],[-94.6709,31.0956],[-94.6707,31.0884],[-94.6585,31.0849],[-94.649,31.099],[-94.6431,31.0881],[-94.6143,31.0848],[-94.5989,31.0686],[-94.5616,31.063],[-94.658,31.012],[-94.5379,30.4911],[-94.8655,30.495],[-94.8674,30.5108],[-94.8334,30.5305],[-94.8304,30.5416],[-94.8752,30.5461],[-94.9105,30.5615],[-94.9373,30.558],[-94.9657,30.5766],[-95.0286,30.5785],[-95.0355,30.5856],[-95.0318,30.5973],[-95.0071,30.6071],[-95.0089,30.6277],[-95.0159,30.6271],[-95.0247,30.6498],[-95.0132,30.6485],[-95.0103,30.6567],[-95.039,30.6629],[-95.0342,30.6742],[-95.0545,30.6714],[-95.0546,30.6802],[-95.09,30.6718],[-95.1024,30.6585],[-95.115,30.661],[-95.1107,30.672],[-95.1195,30.6773],[-95.1099,30.6942],[-95.1349,30.6933],[-95.1471,30.7174],[-95.146,30.7424],[-95.1322,30.7553],[-95.1394,30.7762],[-95.1319,30.7832],[-95.174,30.8076],[-95.181,30.8188],[-95.2002,30.8246]]]}},{"type":"Feature","properties":{"county_fips":"48241","county_name":"Jasper","state":"TX"},"geometry":{"type":"Polygon","coordinates":[[[-94.4423,31.03],[-94.4578,31.0333],[-94.0641,31.1123],[-94.0629,31.1149],[-94.0569,31.1119],[-94.0423,31.1194],[-94.039,31.1343],[-93.9111,31.1581],[-93.8657,30.9472],[-93.9015,30.2427],[-94.1186,30.2429],[-94.0965,30.2587],[-94.1048,30.2662],[-94.1136,30.2629],[-94.1178,30.3006],[-94.1018,30.3105],[-94.1061,30.3218],[-94.0829,30.3457],[-94.1013,30.3656],[-94.102,30.3841],[-94.1086,30.3873],[-94.1039,30.3942],[-94.1167,30.3975],[-94.1134,30.4065],[-94.1201,30.4107],[-94.1128,30.415],[-94.1194,30.4263],[-94.0945,30.4656],[-94.1031,30.4687],[-94.0789,30.4901],[-94.0829,30.5106],[-94.067,30.5319],[-94.0859,30.5473],[-94.0939,30.5673],[-94.0859,30.5697],[-94.0959,30.5768],[-94.0793,30.5981],[-94.0812,30.6072],[-94.0697,30.6107],[-94.0758,30.618],[-94.0532,30.6292],[-94.0516,30.6418],[-94.0598,30.647],[-94.0531,30.6485],[-94.0739,30.6676],[-94.0795,30.6608],[-94.0731,30.6561],[-94.0864,30.6573],[-94.0824,30.6677],[-94.0913,30.6882],[-94.1258,30.6841],[-94.123,30.7009],[-94.1374,30.7143],[-94.1295,30.7194],[-94.1382,30.7319],[-94.1282,30.7465],[-94.1399,30.7559],[-94.1328,30.7646],[-94.1501,30.7902],[-94.1802,30.7956],[-94.1778,30.8123],[-94.1891,30.8182],[-94.1877,30.8243],[-94.1783,30.8231],[-94.1859,30.8314],[-94.1801,30.834],[-94.1913,30.8381],[-94.201,30.8635],[-94.1899,30.872],[-94.2051,30.8865],[-94.2,30.8921],[-94.2159,30.9015],[-94.1994,30.9283],[-94.21,30.938],[-94.221,30.9353],[-94.2238,30.9477],[-94.2286,30.9397],[-94.227,30.9504],[-94.2337,30.9517],[-94.2279,30.9578],[-94.2447,30.966],[-94.2414,30.9925],[-94.2331,30.9863],[-94.2384,31.0137],[-94.2799,31.0177],[-94.2828,31.0361],[-94.2932,31.0428],[-94.3251,31.02],[-94.3388,31.0373],[-94.3538,31.0394],[-94.3547,31.0322],[-94.375,31.0353],[-94.3824,31.0264],[-94.4138,31.0265],[-94.436,31.0138],[-94.4343,31.0069],[-94.4511,31.0034],[-94.4423,31.03]]]}},{"type":"Feature","properties":{"county_fips":"54081","county_name":"Raleigh","state":"WV"},"geometry":{"type":"Polygon","coordinates":[[[-81.5715,37.9278],[-81.5588,37.9362],[-81.5617,37.9441],[-81.542,37.9689],[-81.5265,37.9712],[-81.5076,37.9882],[-81.4896,37.9811],[-81.4591,37.9894],[-81.4591,37.9791],[-81.4385,37.968],[-81.4114,37.9743],[-81.3866,37.9672],[-81.347,37.9767],[-81.3285,37.9667],[-81.3222,37.9523],[-81.2963,37.9437],[-81.3014,37.9272],[-81.2952,37.8894],[-81.0728,37.8737],[-81.0729,37.8606],[-81.1002,37.8547],[-81.0877,37.8498],[-81.0523,37.8584],[-81.049,37.8507],[-81.0591,37.8408],[-81.0542,37.8339],[-80.9665,37.8321],[-80.9356,37.8159],[-80.9214,37.7934],[-80.8946,37.7746],[-80.9019,37.7567],[-80.9236,37.7436],[-80.8969,37.7277],[-80.8777,37.6856],[-80.8947,37.6725],[-80.9083,37.7001],[-80.9452,37.7153],[-80.9771,37.7145],[-80.9746,37.6958],[-81.0217,37.6696],[-81.0276,37.6586],[-81.0682,37.6409],[-81.0667,37.6338],[-81.0741,37.6324],[-81.0643,37.6111],[-81.0937,37.5887],[-81.1081,37.5939],[-81.1194,37.5884],[-81.1354,37.5979],[-81.1989,37.5755],[-81.2,37.5403],[-81.2188,37.5088],[-81.2447,37.5298],[-81.2642,37.5276],[-81.2772,37.5418],[-81.3113,37.5524],[-81.3131,37.5864],[-81.458,37.7842],[-81.4785,37.7806],[-81.4929,37.7915],[-81.5142,37.7912],[-81.5211,37.8001],[-81.5167,37.8184],[-81.542,37.8289],[-81.5518,37.8245],[-81.5676,37.8675],[-81.5538,37.8943],[-81.5642,37.9027],[-81.562,37.9197],[-81.5715,37.9278]]]}},{"type":"Feature","properties":{"county_fips":"12001","county_name":"Alachua","state":"FL"},"geometry":{"type":"Polygon","coordinates":[[[-82.6586,29.8301],[-82.6414,29.8274],[-82.6313,29.8491],[-82.6178,29.8473],[-82.6197,29.8591],[-82.6063,29.8529],[-82.5865,29.8667],[-82.5926,29.8875],[-82.5759,29.8949],[-82.5795,29.9144],[-82.5547,29.9285],[-82.5416,29.9255],[-82.5241,29.9453],[-82.4845,29.9397],[-82.47,29.9258],[-82.4466,29.9318],[-82.4125,29.922],[-82.3975,29.8861],[-82.335,29.8787],[-82.3142,29.8676],[-82.305,29.8532],[-82.2818,29.8444],[-82.2441,29.8524],[-82.2335,29.8453],[-82.1945,29.8485],[-82.1732,29.837],[-82.1331,29.8359],[-82.1176,29.7906],[-82.0793,29.776],[-82.0882,29.7609],[-82.0731,29.7604],[-82.0579,29.7478],[-82.0555,29.7172],[-82.0491,29.7134],[-82.0561,29.6568],[-82.0567,29.44],[-82.0713,29.4433],[-82.0705,29.4342],[-82.0809,29.4404],[-82.0992,29.4188],[-82.1011,29.4383],[-82.1193,29.4282],[-82.1345,29.435],[-82.1458,29.4176],[-82.1507,29.4265],[-82.1936,29.4209],[-82.2132,29.4318],[-82.2127,29.4656],[-82.1935,29.4614],[-82.199,29.4558],[-82.1916,29.4525],[-82.1881,29.4569],[-82.2036,29.472],[-82.2082,29.4668],[-82.2119,29.4841],[-82.5568,29.4801],[-82.5571,29.5375],[-82.6563,29.5356],[-82.6586,29.8301]]]}},{"type":"Feature","properties":{"county_fips":"21067","county_name":"Fayette","state":"KY"},"geometry":{"type":"Polygon","coordinates":[[[-84.6601,38.0037],[-84.6206,38.1295],[-84.3871,38.2103],[-84.3764,38.2105],[-84.3586,38.1948],[-84.3551,38.178],[-84.3738,38.1604],[-84.3674,38.13],[-84.3806,38.1125],[-84.3341,38.0864],[-84.3144,38.093],[-84.2845,38.0703],[-84.2847,38.0401],[-84.2927,38.0333],[-84.2826,38.0191],[-84.3225,38.0009],[-84.3244,37.9664],[-84.3118,37.9629],[-84.3232,37.9558],[-84.3107,37.9525],[-84.332,37.9466],[-84.3384,37.9392],[-84.3308,37.9362],[-84.34,37.9311],[-84.3314,37.9203],[-84.3399,37.9228],[-84.3394,37.916],[-84.3481,37.915],[-84.3388,37.9076],[-84.349,37.8987],[-84.3374,37.892],[-84.3388,37.8853],[-84.3441,37.8813],[-84.3818,37.8999],[-84.3657,37.8588],[-84.3882,37.8453],[-84.4144,37.8722],[-84.438,37.8487],[-84.4344,37.8685],[-84.4527,37.9088],[-84.4717,37.9201],[-84.4796,37.9402],[-84.5923,37.9864],[-84.6601,38.0037]]]}},{"type":"Feature","properties":{"county_fips":"22099","county_name":"St. Martin","state":"LA"},"geometry":{"type":"MultiPolygon","coordinates":[[[[-91.472,29.9563],[-91.2553,29.9716],[-91.2297,29.9327],[-91.232,29.9182],[-91.2071,29.8979],[-91.1986,29.8597],[-91.1845,29.8467],[-91.1318,29.837],[-91.0994,29.8147],[-91.0927,29.801],[-91.1002,29.772],[-91.0895,29.7555],[-91.0954,29.737],[-91.1066,29.7335],[-91.1,29.6994],[-91.1341,29.7241],[-91.1809,29.7285],[-91.2152,29.7512],[-91.3523,29.7666],[-91.3865,29.7837],[-91.3736,29.8344],[-91.4129,29.9042],[-91.472,29.948],[-91.472,29.9563]]],[[[-91.9887,30.3696],[-91.9803,30.4034],[-91.97,30.4102],[-91.9369,30.3947],[-91.8693,30.4172],[-91.8127,30.3943],[-91.6789,30.3947],[-91.6943,30.4017],[-91.7187,30.4489],[-91.7397,30.453],[-91.7562,30.4981],[-91.7013,30.4977],[-91.6925,30.4813],[-91.6748,30.4745],[-91.6401,30.4427],[-91.6248,30.3948],[-91.6278,30.3796],[-91.6481,30.3651],[-91.6255,30.3542],[-91.6211,30.3099],[-91.59,30.277],[-91.588,30.2571],[-91.5628,30.2419],[-91.5106,30.2407],[-91.4753,30.2292],[-91.4902,30.2019],[-91.472,30.1867],[-91.4725,30.1427],[-91.4613,30.1312],[-91.4712,30.1107],[-91.4639,30.1027],[-91.3888,30.1024],[-91.3718,30.0816],[-91.3688,30.0588],[-91.4882,30.0582],[-91.5077,30.0336],[-91.6002,30.033],[-91.6122,30.0677],[-91.6306,30.0719],[-91.6589,30.1082],[-91.6695,30.1129],[-91.6784,30.105],[-91.6995,30.1208],[-91.7266,30.1224],[-91.7653,30.1084],[-91.7687,30.0964],[-91.7605,30.0909],[-91.8013,30.0701],[-91.8182,30.0439],[-91.8756,30.0678],[-91.8958,30.0572],[-91.9071,30.0726],[-91.9512,30.0728],[-91.9341,30.1197],[-91.9055,30.1546],[-91.9213,30.1882],[-91.9547,30.1868],[-91.9629,30.1759],[-91.98,30.1825],[-91.9788,30.2088],[-91.9579,30.2119],[-91.9428,30.2366],[-91.9589,30.2372],[-91.9681,30.259],[-91.9769,30.2606],[-91.9489,30.2768],[-91.9662,30.3244],[-91.9529,30.3387],[-91.9538,30.36],[-91.9887,30.3696]]]]}},{"type":"Feature","properties":{"county_fips":"22033","county_name":"East Baton Rouge","state":"LA"},"geometry":{"type":"Polygon","coordinates":[[[-91.3165,30.59],[-91.2935,30.6284],[-91.2977,30.6495],[-91.2894,30.678],[-91.2707,30.6809],[-91.2678,30.6946],[-91.2547,30.7049],[-90.8488,30.7195],[-90.8442,30.708],[-90.853,30.6957],[-90.8709,30.6933],[-90.9183,30.6381],[-90.935,30.6283],[-90.9406,30.6205],[-90.9335,30.6206],[-90.9351,30.6129],[-90.9592,30.6058],[-90.9638,30.5939],[-90.9774,30.5935],[-90.9879,30.5726],[-90.9713,30.5627],[-90.973,30.5409],[-90.9844,30.5306],[-90.9679,30.5044],[-90.9759,30.4983],[-90.97,30.4956],[-90.9787,30.4791],[-90.9743,30.471],[-90.9915,30.462],[-90.9812,30.4528],[-90.9869,30.4484],[-90.9813,30.4419],[-90.9724,30.4403],[-90.9824,30.4235],[-90.9642,30.4189],[-90.9579,30.4061],[-90.9694,30.4051],[-90.9723,30.3975],[-90.9674,30.3887],[-90.9466,30.3935],[-90.9437,30.3765],[-90.9315,30.3713],[-90.937,30.3639],[-90.9054,30.361],[-90.9081,30.356],[-90.8917,30.3452],[-90.9101,30.3397],[-90.9207,30.3457],[-90.9394,30.3403],[-90.987,30.3457],[-91.0142,30.3348],[-91.0324,30.3148],[-91.093,30.3206],[-91.1184,30.3125],[-91.1363,30.3151],[-91.1508,30.3374],[-91.162,30.3415],[-91.1945,30.347],[-91.2303,30.3411],[-91.2406,30.3628],[-91.2081,30.4037],[-91.1963,30.4347],[-91.1985,30.5131],[-91.2093,30.523],[-91.2627,30.5052],[-91.2815,30.5061],[-91.2828,30.5172],[-91.2461,30.5359],[-91.2431,30.5531],[-91.265,30.5722],[-91.3105,30.5747],[-91.3165,30.59]]]}},{"type":"Feature","properties":{"county_fips":"28007","county_name":"Attala","state":"MS"},"geometry":{"type":"Polygon","coordinates":[[[-89.9656,32.8814],[-89.9575,32.8917],[-89.934,32.8961],[-89.938,32.9043],[-89.9178,32.9116],[-89.9182,32.9229],[-89.8964,32.9326],[-89.8991,32.9439],[-89.8882,32.959],[-89.8942,32.9648],[-89.8837,32.974],[-89.8883,32.9806],[-89.8777,32.993],[-89.8815,32.9989],[-89.8364,33.04],[-89.8416,33.0583],[-89.8227,33.066],[-89.8287,33.0819],[-89.819,33.0992],[-89.8233,33.1127],[-89.806,33.1129],[-89.796,33.1244],[-89.7958,33.1568],[-89.7742,33.1761],[-89.7787,33.1915],[-89.755,33.1987],[-89.7453,33.2282],[-89.7225,33.2592],[-89.7094,33.2635],[-89.7015,33.2855],[-89.3164,33.2856],[-89.3192,32.9317],[-89.7302,32.9299],[-89.73,32.8851],[-89.9656,32.8814]]]}},{"type":"Feature","properties":{"county_fips":"48361","county_name":"Orange","state":"TX"},"geometry":{"type":"Polygon","coordinates":[[[-94.118,30.2169],[-94.1176,30.2417],[-93.7052,30.2439],[-93.7122,30.2198],[-93.7192,30.2185],[-93.7178,30.194],[-93.7055,30.1929],[-93.7126,30.1902],[-93.702,30.1678],[-93.7065,30.1474],[-93.6977,30.1529],[-93.6886,30.1404],[-93.7007,30.1381],[-93.7014,30.1223],[-93.7078,30.1207],[-93.7024,30.1127],[-93.7238,30.0941],[-93.7236,30.0832],[-93.7341,30.0861],[-93.6994,30.0592],[-93.7109,30.0544],[-93.7173,30.0657],[-93.7421,30.0208],[-93.7894,29.9878],[-93.819,29.9148],[-93.8543,29.865],[-93.8388,29.9369],[-93.859,29.9765],[-93.9035,29.9855],[-93.9138,29.996],[-93.9311,29.9911],[-93.9544,30.0011],[-93.9606,30.0134],[-93.9818,30.0089],[-93.9831,30.0218],[-93.9968,30.0131],[-94.001,30.031],[-94.0295,30.0255],[-94.0359,30.0414],[-94.0275,30.066],[-94.043,30.0637],[-94.0519,30.0787],[-94.0921,30.0823],[-94.0873,30.1049],[-94.0737,30.1141],[-94.0796,30.1271],[-94.1091,30.1367],[-94.1009,30.143],[-94.1135,30.1483],[-94.1145,30.1738],[-94.1065,30.1932],[-94.0979,30.1884],[-94.0912,30.2046],[-94.118,30.2169]]]}},{"type":"Feature","properties":{"county_fips":"21029","county_name":"Bullitt","state":"KY"},"geometry":{"type":"Polygon","coordinates":[[[-85.9361,37.9988],[-85.8828,38.0405],[-85.7126,38.0873],[-85.5573,38.0738],[-85.4288,38.1184],[-85.438,38.1019],[-85.4692,38.0962],[-85.5169,38.0113],[-85.4892,37.9907],[-85.5342,37.9652],[-85.5252,37.9527],[-85.5503,37.9269],[-85.5839,37.911],[-85.5776,37.8831],[-85.5997,37.8694],[-85.6133,37.87],[-85.6103,37.8589],[-85.6168,37.8524],[-85.6806,37.8149],[-85.6912,37.8185],[-85.7242,37.8059],[-85.7214,37.8102],[-85.7378,37.8118],[-85.763,37.8374],[-85.7939,37.848],[-85.8012,37.8599],[-85.8173,37.8583],[-85.8398,37.8814],[-85.8354,37.8926],[-85.8133,37.889],[-85.8275,37.9006],[-85.8302,37.9188],[-85.8476,37.9231],[-85.8593,37.9476],[-85.9033,37.9405],[-85.9059,37.9898],[-85.9361,37.9988]]]}},{"type":"Feature","properties":{"county_fips":"48187","county_name":"Guadalupe","state":"TX"},"geometry":{"type":"Polygon","coordinates":[[[-98.3109,29.5945],[-98.0899,29.6835],[-97.8753,29.8582],[-97.8614,29.855],[-97.8376,29.8285],[-97.8464,29.8086],[-97.8303,29.7955],[-97.8293,29.7796],[-97.8171,29.7904],[-97.8002,29.7659],[-97.8034,29.7537],[-97.7809,29.7593],[-97.782,29.7477],[-97.7586,29.725],[-97.7683,29.7203],[-97.7634,29.713],[-97.7384,29.7129],[-97.7436,29.6975],[-97.7219,29.6821],[-97.7046,29.6826],[-97.6983,29.6667],[-97.6984,29.6691],[-97.6907,29.6731],[-97.6805,29.6636],[-97.6526,29.6678],[-97.6517,29.654],[-97.631,29.6535],[-97.8404,29.3768],[-98.0847,29.3796],[-98.1131,29.3653],[-98.1305,29.398],[-98.1366,29.4299],[-98.1342,29.4418],[-98.1207,29.447],[-98.1268,29.4547],[-98.117,29.4619],[-98.1231,29.4785],[-98.1428,29.4865],[-98.15,29.4757],[-98.1646,29.4781],[-98.1702,29.4979],[-98.1831,29.4967],[-98.1771,29.4848],[-98.1851,29.4861],[-98.1909,29.5095],[-98.2191,29.5239],[-98.2294,29.5419],[-98.2227,29.549],[-98.2432,29.5571],[-98.2514,29.5498],[-98.2588,29.5546],[-98.2539,29.541],[-98.2674,29.5442],[-98.298,29.5611],[-98.3109,29.5945]]]}},{"type":"Feature","properties":{"county_fips":"05107","county_name":"Phillips","state":"AR"},"geometry":{"type":"Polygon","coordinates":[[[-91.1175,34.121],[-91.1108,34.1312],[-91.0995,34.1298],[-91.0957,34.1408],[-91.0785,34.1442],[-91.0903,34.1541],[-91.0832,34.1612],[-91.0943,34.1761],[-91.087,34.1809],[-91.0941,34.1895],[-91.0867,34.2023],[-91.0716,34.1994],[-91.0606,34.2168],[-91.0654,34.2384],[-91.0792,34.2512],[-91.0628,34.2547],[-91.0779,34.2823],[-91.0707,34.298],[-91.0648,34.2879],[-91.0583,34.2896],[-91.0647,34.3104],[-91.0528,34.3111],[-91.0643,34.3195],[-91.0545,34.3234],[-91.0563,34.3367],[-91.0027,34.3364],[-91.0003,34.4694],[-91.0548,34.4708],[-91.052,34.6457],[-90.5873,34.6414],[-90.5911,34.6192],[-90.5405,34.5579],[-90.5425,34.5401],[-90.5813,34.5156],[-90.5927,34.4906],[-90.5777,34.431],[-90.5862,34.4092],[-90.606,34.3933],[-90.6409,34.3889],[-90.6585,34.3757],[-90.6668,34.3558],[-90.6614,34.3154],[-90.6781,34.313],[-90.6931,34.3226],[-90.6762,34.3711],[-90.7158,34.3603],[-90.7573,34.3674],[-90.7692,34.3584],[-90.7687,34.3478],[-90.7428,34.3213],[-90.7352,34.3026],[-90.7529,34.2746],[-90.7656,34.2695],[-90.8296,34.2786],[-90.8381,34.22],[-90.8471,34.2061],[-90.8966,34.2258],[-90.9063,34.2444],[-90.9232,34.2465],[-90.9355,34.2378],[-90.9345,34.2179],[-90.9255,34.207],[-90.8876,34.1824],[-90.8544,34.1868],[-90.8124,34.1808],[-90.8076,34.1618],[-90.8159,34.1499],[-90.8361,34.1379],[-90.8535,34.1375],[-90.91,34.1655],[-90.9586,34.1355],[-90.9556,34.1189],[-91.1175,34.121]]]}},{"type":"Feature","properties":{"county_fips":"21017","county_name":"Bourbon","state":"KY"},"geometry":{"type":"Polygon","coordinates":[[[-84.4427,38.2832],[-84.429,38.2797],[-84.417,38.2877],[-84.3788,38.2779],[-84.3597,38.296],[-84.3491,38.2862],[-84.3344,38.2886],[-84.3424,38.2954],[-84.3192,38.296],[-84.3046,38.3054],[-84.3085,38.3125],[-84.2941,38.309],[-84.2966,38.3177],[-84.2818,38.3125],[-84.1941,38.3717],[-84.1663,38.3549],[-84.1326,38.3045],[-84.1242,38.3068],[-84.1299,38.2946],[-84.1041,38.2857],[-84.1144,38.2861],[-84.1112,38.2794],[-84.1202,38.2755],[-84.1036,38.2699],[-84.103,38.2588],[-84.0926,38.2605],[-84.0898,38.2726],[-84.0792,38.273],[-84.0854,38.2661],[-84.0734,38.2662],[-84.0798,38.2571],[-84.0572,38.2568],[-84.0526,38.2426],[-84.0614,38.2341],[-84.0325,38.2231],[-84.0289,38.2141],[-84.0046,38.2241],[-84.0067,38.2151],[-83.996,38.2147],[-84.0045,38.2112],[-83.9907,38.203],[-83.9884,38.22],[-83.9774,38.22],[-83.979,38.2078],[-83.9701,38.2099],[-83.9698,38.2042],[-83.9835,38.1952],[-83.9779,38.1921],[-83.9902,38.1751],[-84.0805,38.1151],[-84.2865,38.067],[-84.2873,38.0756],[-84.3144,38.093],[-84.3341,38.0864],[-84.3806,38.1125],[-84.3679,38.1276],[-84.3738,38.1604],[-84.3551,38.178],[-84.3586,38.1948],[-84.3785,38.2114],[-84.4008,38.2053],[-84.4195,38.214],[-84.4225,38.2566],[-84.4369,38.2663],[-84.4427,38.2832]]]}},{"type":"Feature","properties":{"county_fips":"05001","county_name":"Arkansas","state":"AR"},"geometry":{"type":"Polygon","coordinates":[[[-91.7117,34.2339],[-91.7053,34.4827],[-91.5959,34.4805],[-91.5944,34.568],[-91.2916,34.5618],[-91.3002,34.5326],[-91.262,34.5273],[-91.2668,34.5052],[-91.2518,34.5023],[-91.2521,34.4877],[-91.228,34.4794],[-91.2174,34.4872],[-91.2089,34.4825],[-91.2227,34.4639],[-91.2063,34.4547],[-91.2203,34.4536],[-91.2176,34.4423],[-91.1907,34.44],[-91.1762,34.4515],[-91.1697,34.4333],[-91.1616,34.4354],[-91.1532,34.4212],[-91.1664,34.413],[-91.136,34.4016],[-91.1307,34.3811],[-91.1045,34.3641],[-91.1078,34.3534],[-91.0926,34.3437],[-91.078,34.3483],[-91.0532,34.3322],[-91.0554,34.322],[-91.0643,34.3195],[-91.0521,34.3133],[-91.0645,34.3118],[-91.0583,34.2896],[-91.0648,34.2879],[-91.0707,34.298],[-91.0779,34.2823],[-91.0628,34.2547],[-91.0788,34.2484],[-91.0654,34.2384],[-91.0606,34.2168],[-91.0716,34.1994],[-91.0867,34.2023],[-91.0941,34.1895],[-91.087,34.1809],[-91.0943,34.1761],[-91.0832,34.1612],[-91.0903,34.1541],[-91.0785,34.1442],[-91.0957,34.1408],[-91.0995,34.1298],[-91.1108,34.1312],[-91.1236,34.1063],[-91.1424,34.1113],[-91.1413,34.1017],[-91.1507,34.1035],[-91.1499,34.0854],[-91.1677,34.0943],[-91.1864,34.081],[-91.1836,34.0726],[-91.194,34.0726],[-91.1878,34.0621],[-91.1969,34.0502],[-91.1952,34.0353],[-91.1846,34.0302],[-91.1844,34.0175],[-91.1622,34.0058],[-91.1588,33.979],[-91.1357,33.962],[-91.1521,33.9536],[-91.1407,33.9462],[-91.1515,33.9373],[-91.1369,33.9262],[-91.1544,33.9302],[-91.1711,33.923],[-91.1732,33.9317],[-91.1618,33.9435],[-91.1702,33.9587],[-91.2177,33.954],[-91.2329,33.9406],[-91.2394,33.9492],[-91.2302,33.9778],[-91.2519,33.9568],[-91.2625,33.9573],[-91.2708,33.9415],[-91.2908,33.9556],[-91.2902,33.9685],[-91.3501,33.9553],[-91.3576,33.9628],[-91.3477,33.9713],[-91.3225,33.9668],[-91.312,33.9746],[-91.3184,34.004],[-91.3316,34.0166],[-91.3401,34.0107],[-91.3283,33.9847],[-91.3364,33.9835],[-91.3544,34.0048],[-91.3733,33.9822],[-91.3919,33.9816],[-91.4382,34.028],[-91.4335,34.0612],[-91.4451,34.0806],[-91.4318,34.0874],[-91.4424,34.0878],[-91.438,34.0964],[-91.4482,34.1211],[-91.4432,34.1263],[-91.4635,34.1357],[-91.4933,34.1273],[-91.4965,34.15],[-91.5152,34.1429],[-91.5208,34.1641],[-91.5148,34.1711],[-91.5274,34.1833],[-91.5298,34.2176],[-91.561,34.2255],[-91.5957,34.2124],[-91.5928,34.2287],[-91.5991,34.2315],[-91.7117,34.2339]]]}},{"type":"Feature","properties":{"county_fips":"48199","county_name":"Hardin","state":"TX"},"geometry":{"type":"Polygon","coordinates":[[[-94.7327,30.4901],[-94.5379,30.4911],[-94.5457,30.527],[-94.0717,30.526],[-94.0841,30.5056],[-94.0789,30.4901],[-94.1031,30.4687],[-94.0945,30.4656],[-94.1194,30.4263],[-94.1128,30.415],[-94.1201,30.4107],[-94.1134,30.4065],[-94.1167,30.3975],[-94.1039,30.3942],[-94.1086,30.3873],[-94.102,30.3841],[-94.1013,30.3656],[-94.0829,30.3457],[-94.0966,30.3386],[-94.0988,30.3224],[-94.1061,30.3218],[-94.1018,30.3105],[-94.1178,30.3006],[-94.1142,30.2861],[-94.1205,30.283],[-94.1136,30.2629],[-94.1048,30.2662],[-94.0965,30.2587],[-94.1183,30.2444],[-94.1178,30.2159],[-94.0917,30.2058],[-94.0911,30.1984],[-94.0982,30.1985],[-94.0979,30.1884],[-94.1065,30.1932],[-94.1105,30.1878],[-94.1159,30.1603],[-94.169,30.1734],[-94.1764,30.1879],[-94.1876,30.1789],[-94.1951,30.1891],[-94.2096,30.1877],[-94.2211,30.1706],[-94.2313,30.1726],[-94.2361,30.1653],[-94.2756,30.1701],[-94.2792,30.1319],[-94.2926,30.1177],[-94.3307,30.1147],[-94.3421,30.1031],[-94.3508,30.1091],[-94.365,30.1015],[-94.3762,30.1091],[-94.4124,30.0982],[-94.4386,30.1158],[-94.5963,30.1121],[-94.7327,30.4901]]]}},{"type":"Feature","properties":{"county_fips":"28121","county_name":"Rankin","state":"MS"},"geometry":{"type":"Polygon","coordinates":[[[-90.2535,32.1525],[-90.2419,32.1551],[-90.242,32.178],[-90.2344,32.1731],[-90.2126,32.18],[-90.2057,32.191],[-90.1963,32.1852],[-90.1966,32.1956],[-90.1817,32.2016],[-90.1905,32.2036],[-90.1854,32.2186],[-90.1905,32.2267],[-90.2085,32.2352],[-90.1993,32.2409],[-90.2053,32.2519],[-90.1843,32.2619],[-90.1777,32.2903],[-90.1656,32.2839],[-90.1571,32.2938],[-90.1514,32.291],[-90.1627,32.3062],[-90.1506,32.3117],[-90.1522,32.3237],[-90.1397,32.3221],[-90.1101,32.3444],[-90.114,32.3605],[-90.1062,32.3555],[-90.0952,32.3891],[-90.0874,32.3847],[-90.0815,32.3953],[-90.0779,32.3877],[-90.0679,32.3918],[-90.0637,32.4042],[-90.0753,32.4191],[-90.0629,32.42],[-90.0681,32.4386],[-90.0407,32.4417],[-90.0193,32.4773],[-90.0025,32.4859],[-89.9928,32.4828],[-89.9816,32.4982],[-89.9606,32.4914],[-89.9419,32.5132],[-89.9294,32.5133],[-89.9233,32.5289],[-89.9112,32.5287],[-89.9113,32.5373],[-89.8932,32.5424],[-89.8959,32.5544],[-89.8863,32.5632],[-89.867,32.5645],[-89.8589,32.5848],[-89.8465,32.5827],[-89.84,32.5933],[-89.837,32.5854],[-89.8329,32.5902],[-89.8139,32.5819],[-89.8086,32.5908],[-89.7952,32.5845],[-89.7946,32.5928],[-89.7875,32.592],[-89.7301,32.3527],[-89.7301,32.0471],[-90.2303,32.0497],[-90.2363,32.0647],[-90.2267,32.0798],[-90.2358,32.0904],[-90.2268,32.0943],[-90.2466,32.0931],[-90.2466,32.1003],[-90.2367,32.1002],[-90.2512,32.1124],[-90.243,32.1137],[-90.2483,32.1183],[-90.2411,32.1252],[-90.2475,32.1352],[-90.2436,32.1512],[-90.2535,32.1525]]]}},{"type":"Feature","properties":{"county_fips":"12055","county_name":"Highlands","state":"FL"},"geometry":{"type":"Polygon","coordinates":[[[-81.5625,27.0337],[-81.5635,27.6466],[-81.1422,27.6432],[-81.1405,27.6013],[-81.1551,27.5918],[-81.1566,27.575],[-81.206,27.5473],[-81.2025,27.5394],[-81.2143,27.5287],[-81.1994,27.515],[-81.2051,27.4897],[-81.1825,27.4837],[-81.1726,27.4629],[-81.1449,27.445],[-81.1391,27.434],[-81.1438,27.412],[-81.1232,27.4029],[-81.1213,27.3898],[-81.0983,27.3791],[-81.0684,27.3823],[-81.05,27.3707],[-81.0511,27.363],[-81.0344,27.359],[-81.0307,27.3515],[-81.0421,27.3476],[-81.0441,27.3297],[-81.0298,27.3232],[-81.0247,27.3018],[-80.9946,27.2973],[-81.0006,27.2676],[-80.9926,27.2503],[-80.9805,27.246],[-80.9853,27.2316],[-80.9647,27.2159],[-80.951,27.2242],[-80.9407,27.2059],[-81.1691,27.2096],[-81.1683,27.1217],[-81.2677,27.1211],[-81.2672,27.0325],[-81.333,27.0324],[-81.333,27.0396],[-81.3418,27.0397],[-81.3427,27.0323],[-81.5625,27.0337]]]}},{"type":"Feature","properties":{"county_fips":"05077","county_name":"Lee","state":"AR"},"geometry":{"type":"Polygon","coordinates":[[[-91.1024,34.7381],[-91.0992,34.9116],[-90.4085,34.904],[-90.4079,34.8268],[-90.4387,34.8252],[-90.4497,34.8399],[-90.4294,34.8666],[-90.4401,34.8854],[-90.4623,34.8917],[-90.4843,34.8749],[-90.482,34.8578],[-90.4554,34.8208],[-90.4694,34.8126],[-90.4765,34.7936],[-90.449,34.7475],[-90.4554,34.7326],[-90.4917,34.7214],[-90.5242,34.7314],[-90.4944,34.7574],[-90.4928,34.7725],[-90.5211,34.8019],[-90.5408,34.7958],[-90.5478,34.7833],[-90.5394,34.7553],[-90.5456,34.7389],[-90.5678,34.7333],[-90.5719,34.7128],[-90.5324,34.6962],[-90.4742,34.7053],[-90.4637,34.6926],[-90.4688,34.67],[-90.5245,34.6285],[-90.5416,34.6286],[-90.5541,34.6409],[-90.5526,34.6597],[-90.54,34.6768],[-90.5562,34.6936],[-90.5701,34.6934],[-90.5684,34.6689],[-90.5873,34.6414],[-91.052,34.6457],[-91.0495,34.7342],[-91.1024,34.7381]]]}},{"type":"Feature","properties":{"county_fips":"12021","county_name":"Collier","state":"FL"},"geometry":{"type":"Polygon","coordinates":[[[-81.8458,26.3304],[-81.8191,26.3304],[-81.819,26.3162],[-81.6579,26.3176],[-81.6595,26.4211],[-81.5625,26.4226],[-81.5638,26.5133],[-81.2718,26.5171],[-81.2682,26.2531],[-80.8797,26.2593],[-80.8731,25.8054],[-81.47,25.8036],[-81.464,25.8113],[-81.4895,25.8221],[-81.4996,25.8348],[-81.53,25.8386],[-81.5342,25.8566],[-81.5479,25.8496],[-81.5525,25.8583],[-81.5644,25.8562],[-81.605,25.8921],[-81.6226,25.8907],[-81.6386,25.9054],[-81.6721,25.8818],[-81.6726,25.8567],[-81.6783,25.8453],[-81.6848,25.8472],[-81.718,25.9079],[-81.7295,25.9094],[-81.7346,25.9361],[-81.7531,25.9511],[-81.7529,25.9612],[-81.7382,25.9718],[-81.7624,26.0061],[-81.8017,26.0914],[-81.8207,26.2367],[-81.8458,26.3304]]]}},{"type":"Feature","properties":{"county_fips":"22013","county_name":"Bienville","state":"LA"},"geometry":{"type":"Polygon","coordinates":[[[-93.4287,32.3852],[-93.4183,32.4012],[-93.393,32.3943],[-93.3727,32.4102],[-93.2369,32.4102],[-93.2372,32.4543],[-93.1476,32.4547],[-93.1521,32.466],[-93.1464,32.47],[-93.1713,32.5264],[-93.1682,32.5497],[-93.1788,32.5848],[-92.8809,32.5853],[-92.8795,32.454],[-92.777,32.4536],[-92.7732,32.236],[-92.7827,32.2189],[-92.801,32.2107],[-92.7988,32.1813],[-92.8222,32.1626],[-92.8153,32.1474],[-93.1871,32.1485],[-93.1919,32.1784],[-93.213,32.1968],[-93.214,32.2361],[-93.4286,32.2353],[-93.4081,32.2505],[-93.4054,32.2782],[-93.4074,32.2848],[-93.4184,32.2841],[-93.4266,32.3095],[-93.3998,32.3628],[-93.4287,32.3852]]]}},{"type":"Feature","properties":{"county_fips":"21141","county_name":"Logan","state":"KY"},"geometry":{"type":"Polygon","coordinates":[[[-87.0608,36.6432],[-87.0595,36.748],[-87.0502,36.7675],[-87.0582,36.8047],[-87.0532,37.061],[-86.9764,37.0736],[-86.8453,37.0565],[-86.6745,36.9998],[-86.6116,36.8831],[-86.6559,36.8763],[-86.6907,36.8443],[-86.7513,36.7271],[-86.7633,36.6489],[-87.0608,36.6432]]]}},{"type":"Feature","properties":{"county_fips":"48055","county_name":"Caldwell","state":"TX"},"geometry":{"type":"Polygon","coordinates":[[[-97.8993,29.8578],[-97.8939,29.8837],[-97.7924,29.9452],[-97.7607,29.9881],[-97.6537,30.0716],[-97.3158,29.7865],[-97.5977,29.6307],[-97.6037,29.6418],[-97.6175,29.6336],[-97.6175,29.6451],[-97.6294,29.6398],[-97.631,29.6535],[-97.6517,29.654],[-97.6526,29.6678],[-97.6805,29.6636],[-97.6907,29.6731],[-97.6983,29.6667],[-97.7046,29.6826],[-97.7219,29.6821],[-97.7357,29.6912],[-97.7436,29.6975],[-97.7384,29.7129],[-97.7685,29.7191],[-97.7586,29.725],[-97.782,29.7477],[-97.7809,29.7593],[-97.8034,29.7537],[-97.8002,29.7659],[-97.8171,29.7904],[-97.8293,29.7796],[-97.8303,29.7955],[-97.8464,29.8086],[-97.8367,29.8269],[-97.8466,29.8417],[-97.876,29.8606],[-97.8993,29.8578]]]}},{"type":"Feature","properties":{"county_fips":"48331","county_name":"Milam","state":"TX"},"geometry":{"type":"Polygon","coordinates":[[[-97.3155,30.7524],[-97.259,30.8896],[-96.8296,31.1104],[-96.8307,31.1004],[-96.8093,31.0803],[-96.8203,31.061],[-96.7916,31.0651],[-96.7851,31.0491],[-96.7692,31.0495],[-96.7671,31.0428],[-96.7797,31.0334],[-96.7703,31.0267],[-96.7715,31.0028],[-96.7471,31.001],[-96.7459,30.9929],[-96.7724,30.9691],[-96.7565,30.9468],[-96.7563,30.9272],[-96.7437,30.9157],[-96.7306,30.9161],[-96.7344,30.9045],[-96.7262,30.8985],[-96.6849,30.906],[-96.687,30.8965],[-96.6972,30.8984],[-96.6822,30.8814],[-96.695,30.8781],[-96.6944,30.8636],[-96.67,30.8417],[-96.6702,30.8339],[-96.6413,30.8181],[-96.6358,30.8005],[-96.6483,30.781],[-96.6252,30.7808],[-96.6121,30.7564],[-96.6329,30.7418],[-96.6214,30.7308],[-97.1552,30.4573],[-97.2699,30.7354],[-97.3155,30.7524]]]}},{"type":"Feature","properties":{"county_fips":"48091","county_name":"Comal","state":"TX"},"geometry":{"type":"Polygon","coordinates":[[[-98.6461,29.7452],[-98.2976,30.038],[-98.0305,29.8485],[-97.9993,29.7524],[-98.0899,29.6835],[-98.3109,29.5945],[-98.3122,29.6018],[-98.3453,29.6183],[-98.3427,29.6534],[-98.3638,29.6667],[-98.3789,29.6629],[-98.3843,29.6765],[-98.3763,29.6871],[-98.3805,29.7035],[-98.3414,29.7096],[-98.3386,29.7218],[-98.3526,29.7344],[-98.3752,29.72],[-98.3737,29.7306],[-98.3992,29.7381],[-98.408,29.7485],[-98.4207,29.7435],[-98.4169,29.7317],[-98.4297,29.724],[-98.4268,29.7177],[-98.4383,29.7156],[-98.446,29.7359],[-98.5268,29.7404],[-98.5505,29.7607],[-98.5828,29.7411],[-98.6004,29.75],[-98.6005,29.7413],[-98.6143,29.7376],[-98.6178,29.7439],[-98.6461,29.7452]]]}},{"type":"Feature","properties":{"county_fips":"48297","county_name":"Live Oak","state":"TX"},"geometry":{"type":"Polygon","coordinates":[[[-98.335,28.6127],[-98.0983,28.7869],[-98.0053,28.6902],[-98.0898,28.663],[-97.8088,28.1834],[-97.9041,28.1142],[-97.8966,28.1018],[-97.9087,28.0925],[-97.8954,28.0759],[-97.9012,28.0678],[-97.8831,28.0569],[-98.3343,28.0578],[-98.335,28.6127]]]}},{"type":"Feature","properties":{"county_fips":"48123","county_name":"DeWitt","state":"TX"},"geometry":{"type":"Polygon","coordinates":[[[-97.7551,29.0071],[-97.2401,29.3845],[-96.9764,29.104],[-97.3059,28.864],[-97.3108,28.8778],[-97.325,28.8747],[-97.34,28.8956],[-97.3531,28.8916],[-97.384,28.9074],[-97.3846,28.9168],[-97.4017,28.9157],[-97.4172,28.9251],[-97.5746,28.8133],[-97.7551,29.0071]]]}},{"type":"Feature","properties":{"county_fips":"48285","county_name":"Lavaca","state":"TX"},"geometry":{"type":"Polygon","coordinates":[[[-97.2396,29.3855],[-97.2023,29.5075],[-97.2041,29.5806],[-97.1426,29.6281],[-96.865,29.6327],[-96.8432,29.6166],[-96.8328,29.5769],[-96.7931,29.5774],[-96.5606,29.3354],[-96.9386,29.0632],[-97.2396,29.3855]]]}},{"type":"Feature","properties":{"county_fips":"12049","county_name":"Hardee","state":"FL"},"geometry":{"type":"Polygon","coordinates":[[[-82.0558,27.3383],[-82.0543,27.6464],[-81.5635,27.6466],[-81.5641,27.3406],[-82.0558,27.3383]]]}},{"type":"Feature","properties":{"county_fips":"48201","county_name":"Harris","state":"TX"},"geometry":{"type":"MultiPolygon","coordinates":[[[[-94.9761,29.6783],[-94.9738,29.6861],[-94.9686,29.6825],[-94.9761,29.6783]]],[[[-94.9921,29.6984],[-94.9752,29.694],[-94.9738,29.6891],[-94.9796,29.6883],[-94.9921,29.6984]]],[[[-95.9591,30.1632],[-95.8986,30.1209],[-95.8739,30.1222],[-95.8619,30.1056],[-95.8466,30.1005],[-95.8389,30.0832],[-95.817,30.0818],[-95.7893,30.0945],[-95.7609,30.0864],[-95.7151,30.1023],[-95.6908,30.0988],[-95.6837,30.1073],[-95.6683,30.1017],[-95.637,30.1263],[-95.6235,30.1272],[-95.6232,30.1356],[-95.5909,30.1361],[-95.5528,30.1701],[-95.5414,30.1703],[-95.4998,30.1425],[-95.4879,30.1078],[-95.4538,30.1046],[-95.4242,30.1155],[-95.4094,30.0926],[-95.3495,30.0764],[-95.3132,30.0508],[-95.311,30.0329],[-95.293,30.0279],[-95.2641,30.0321],[-95.0967,30.1672],[-95.0312,29.9933],[-94.9998,29.9913],[-94.9821,29.9648],[-94.9987,29.9199],[-94.9771,29.8682],[-94.9346,29.8343],[-94.909,29.8267],[-94.9085,29.8149],[-94.9238,29.7964],[-94.9138,29.7663],[-94.9454,29.7162],[-94.933,29.7147],[-94.933,29.7052],[-94.9253,29.7037],[-94.9299,29.6974],[-94.9158,29.6984],[-94.9199,29.6869],[-94.9307,29.6737],[-94.9427,29.6978],[-94.9721,29.7017],[-94.9898,29.7134],[-95.0197,29.7044],[-94.9828,29.6819],[-95.0156,29.6395],[-95.0135,29.6292],[-94.9827,29.6013],[-95.0073,29.5751],[-95.0212,29.5538],[-95.0171,29.5487],[-95.0683,29.5575],[-95.0809,29.5457],[-95.0792,29.5347],[-95.0963,29.5352],[-95.0936,29.5258],[-95.1061,29.5169],[-95.1039,29.5113],[-95.1417,29.5064],[-95.1489,29.4987],[-95.1639,29.4981],[-95.1675,29.5125],[-95.1878,29.5243],[-95.1883,29.5354],[-95.1995,29.5445],[-95.1932,29.5595],[-95.2377,29.5614],[-95.254,29.5539],[-95.2663,29.5946],[-95.3311,29.5991],[-95.3464,29.5855],[-95.4243,29.5803],[-95.6055,29.6645],[-95.826,29.7886],[-95.9591,30.1632]]]]}},{"type":"Feature","properties":{"county_fips":"48209","county_name":"Hays","state":"TX"},"geometry":{"type":"Polygon","coordinates":[[[-98.2976,30.038],[-98.173,30.3563],[-97.7088,30.0235],[-97.7607,29.9881],[-97.7926,29.9451],[-97.8939,29.8837],[-97.8993,29.8578],[-97.8753,29.8582],[-97.9445,29.8068],[-97.9993,29.7524],[-98.0305,29.8485],[-98.2976,30.038]]]}},{"type":"Feature","properties":{"county_fips":"48249","county_name":"Jim Wells","state":"TX"},"geometry":{"type":"Polygon","coordinates":[[[-98.2355,28.058],[-97.8831,28.0569],[-97.8606,28.0381],[-97.8058,28.0414],[-97.7903,28.0192],[-97.7985,27.9957],[-97.9343,27.8852],[-97.9421,27.6359],[-98.0598,27.6359],[-98.0581,27.261],[-98.2325,27.2625],[-98.2355,28.058]]]}},{"type":"Feature","properties":{"county_fips":"48021","county_name":"Bastrop","state":"TX"},"geometry":{"type":"Polygon","coordinates":[[[-97.6494,30.0679],[-97.4925,30.21],[-97.3695,30.4196],[-97.1989,30.3374],[-97.0818,30.2594],[-97.0245,30.0514],[-97.3158,29.7865],[-97.6494,30.0679]]]}},{"type":"Feature","properties":{"county_fips":"21083","county_name":"Graves","state":"KY"},"geometry":{"type":"Polygon","coordinates":[[[-88.8196,36.7559],[-88.8132,36.7731],[-88.8129,36.9469],[-88.4841,36.9421],[-88.4891,36.5011],[-88.8168,36.5028],[-88.8196,36.7559]]]}},{"type":"Feature","properties":{"county_fips":"48291","county_name":"Liberty","state":"TX"},"geometry":{"type":"Polygon","coordinates":[[[-95.1659,30.345],[-94.8426,30.4875],[-94.8494,30.4936],[-94.7327,30.4901],[-94.5963,30.1121],[-94.4449,30.113],[-94.4422,29.8895],[-94.9815,29.8843],[-94.9987,29.9199],[-94.9821,29.9648],[-94.9998,29.9913],[-95.0312,29.9933],[-95.1659,30.345]]]}},{"type":"Feature","properties":{"county_fips":"48177","county_name":"Gonzales","state":"TX"},"geometry":{"type":"Polygon","coordinates":[[[-97.8588,29.3529],[-97.6332,29.6499],[-97.6294,29.6398],[-97.6175,29.6451],[-97.6185,29.6338],[-97.6037,29.6418],[-97.5977,29.6307],[-97.3179,29.7847],[-97.1305,29.6433],[-97.2041,29.5806],[-97.2023,29.5075],[-97.2401,29.3845],[-97.6131,29.1098],[-97.8588,29.3529]]]}},{"type":"Feature","properties":{"county_fips":"48149","county_name":"Fayette","state":"TX"},"geometry":{"type":"Polygon","coordinates":[[[-97.3158,29.7865],[-97.0245,30.0514],[-97.0192,30.032],[-96.8459,30.116],[-96.7946,30.1605],[-96.7669,30.1387],[-96.715,30.145],[-96.6871,30.1643],[-96.6834,30.151],[-96.6472,30.1452],[-96.6531,30.13],[-96.6337,30.1061],[-96.6343,30.0757],[-96.6239,30.0667],[-96.622,30.0443],[-96.5698,29.9615],[-96.717,29.7927],[-96.8742,29.6327],[-97.1433,29.6281],[-97.1305,29.6433],[-97.3158,29.7865]]]}},{"type":"Feature","properties":{"county_fips":"22045","county_name":"Iberia","state":"LA"},"geometry":{"type":"MultiPolygon","coordinates":[[[[-91.9939,29.9824],[-91.9514,30.0728],[-91.9071,30.0726],[-91.8958,30.0572],[-91.8756,30.0678],[-91.8182,30.0439],[-91.8013,30.0701],[-91.7605,30.0909],[-91.7687,30.0964],[-91.7653,30.1084],[-91.732,30.1222],[-91.6995,30.1208],[-91.6784,30.105],[-91.6695,30.1129],[-91.6589,30.1082],[-91.6306,30.0719],[-91.6122,30.0677],[-91.6002,30.033],[-91.5077,30.0336],[-91.4882,30.0582],[-91.3667,30.0547],[-91.3406,30.0615],[-91.2691,30.0593],[-91.2419,30.0295],[-91.2287,30.0425],[-91.2219,30.0378],[-91.2359,30.0011],[-91.2594,30.0002],[-91.2552,29.9715],[-91.6243,29.9455],[-91.7113,29.8461],[-91.855,29.7388],[-91.8775,29.748],[-91.8792,29.7566],[-91.8548,29.7795],[-91.8517,29.7918],[-91.8391,29.7736],[-91.8288,29.7779],[-91.8229,29.8004],[-91.8308,29.8293],[-91.8595,29.8261],[-91.8891,29.836],[-91.9069,29.8309],[-91.9153,29.8194],[-91.9375,29.8168],[-91.9722,29.8336],[-91.9939,29.9824]]],[[[-92.0319,29.5776],[-92.0209,29.5773],[-92.0178,29.591],[-91.989,29.6114],[-91.9399,29.6103],[-91.9281,29.6187],[-91.9285,29.6351],[-91.9161,29.6312],[-91.9031,29.6374],[-91.8915,29.6282],[-91.843,29.6277],[-91.8405,29.6158],[-91.8066,29.6002],[-91.8027,29.5887],[-91.7847,29.5941],[-91.7753,29.5879],[-91.7759,29.5678],[-91.7333,29.5808],[-91.7368,29.5623],[-91.7081,29.5688],[-91.7132,29.5555],[-91.7654,29.5248],[-91.7742,29.5049],[-91.7683,29.4904],[-91.7862,29.4831],[-91.8036,29.4879],[-91.8216,29.4739],[-91.8465,29.4793],[-91.8625,29.5033],[-91.883,29.5012],[-91.906,29.5186],[-91.9535,29.5381],[-91.9659,29.5363],[-92.0319,29.5776]]]]}},{"type":"Feature","properties":{"county_fips":"37135","county_name":"Orange","state":"NC"},"geometry":{"type":"Polygon","coordinates":[[[-79.2684,35.9109],[-79.258,36.2434],[-78.9506,36.2393],[-79.0163,35.8632],[-79.0819,35.8608],[-79.2495,35.8768],[-79.2569,35.9021],[-79.2684,35.9109]]]}},{"type":"Feature","properties":{"county_fips":"28127","county_name":"Simpson","state":"MS"},"geometry":{"type":"Polygon","coordinates":[[[-90.2479,32.0315],[-90.2303,32.0497],[-89.6621,32.0472],[-89.6544,32.0137],[-89.653,31.7807],[-90.1226,31.7527],[-90.129,31.7682],[-90.1232,31.775],[-90.1125,31.7697],[-90.111,31.7893],[-90.1408,31.7894],[-90.1507,31.7999],[-90.1369,31.826],[-90.1273,31.8256],[-90.1446,31.8299],[-90.1592,31.8447],[-90.1389,31.8481],[-90.1326,31.8569],[-90.1418,31.8874],[-90.1703,31.9045],[-90.1665,31.9264],[-90.1787,31.9427],[-90.183,31.9374],[-90.1983,31.9419],[-90.1875,31.952],[-90.1981,31.9579],[-90.2061,31.988],[-90.2224,31.9885],[-90.2328,32.0089],[-90.2133,32.0243],[-90.2343,32.0172],[-90.2396,32.0206],[-90.2336,32.0243],[-90.2436,32.0226],[-90.2479,32.0315]]]}},{"type":"Feature","properties":{"county_fips":"48493","county_name":"Wilson","state":"TX"},"geometry":{"type":"Polygon","coordinates":[[[-98.4073,29.1144],[-98.1342,29.4418],[-98.1305,29.398],[-98.1131,29.3653],[-98.0847,29.3796],[-97.8404,29.3768],[-97.8588,29.3529],[-97.7284,29.2217],[-98.191,28.8823],[-98.4073,29.1144]]]}},{"type":"Feature","properties":{"county_fips":"13155","county_name":"Irwin","state":"GA"},"geometry":{"type":"Polygon","coordinates":[[[-83.501,31.5701],[-83.4999,31.6195],[-83.4916,31.6194],[-83.4907,31.6961],[-83.4606,31.6954],[-83.4529,31.7086],[-83.4666,31.7418],[-83.4527,31.7506],[-83.4536,31.7579],[-83.3703,31.7571],[-83.3696,31.7697],[-83.3397,31.7696],[-83.3399,31.7566],[-83.3253,31.7566],[-83.3256,31.6806],[-83.2656,31.6799],[-83.2664,31.6542],[-83.1772,31.6517],[-83.1764,31.6784],[-82.9984,31.6732],[-82.9988,31.6605],[-83.0134,31.6608],[-83.0142,31.6357],[-83.0294,31.6362],[-83.0302,31.6237],[-83.0444,31.6242],[-83.0448,31.6108],[-83.0588,31.6112],[-83.06,31.5655],[-83.0683,31.5452],[-83.1198,31.4737],[-83.3765,31.482],[-83.4071,31.5435],[-83.4206,31.5535],[-83.4709,31.556],[-83.4708,31.5694],[-83.501,31.5701]]]}},{"type":"Feature","properties":{"county_fips":"48255","county_name":"Karnes","state":"TX"},"geometry":{"type":"Polygon","coordinates":[[[-98.191,28.8823],[-97.7284,29.2217],[-97.6131,29.1098],[-97.7551,29.0071],[-97.5746,28.8133],[-97.7785,28.668],[-97.7919,28.677],[-97.8253,28.6703],[-97.8301,28.6781],[-97.8933,28.7],[-97.9151,28.7196],[-98.0053,28.6902],[-98.191,28.8823]]]}},{"type":"Feature","properties":{"county_fips":"21219","county_name":"Todd","state":"KY"},"geometry":{"type":"Polygon","coordinates":[[[-87.336,36.6415],[-87.2601,37.0749],[-87.2521,37.0757],[-87.2546,37.0696],[-87.2452,37.0641],[-87.2466,37.0544],[-87.2621,37.0527],[-87.2508,37.0491],[-87.2503,37.0406],[-87.1181,37.0447],[-87.0532,37.061],[-87.0582,36.8047],[-87.0502,36.7675],[-87.0595,36.748],[-87.0608,36.6432],[-87.336,36.6415]]]}}]}