{"type":"FeatureCollection","features":[{"type":"Feature","properties":{"county_fips":"37047","county_name":"Columbus","state":"NC"},"geometry":{"type":"Polygon","coordinates":[[[-79.0712,34.2993],[-79.0529,34.3146],[-79.0383,34.3135],[-79.0272,34.3529],[-79.009,34.353],[-79.0008,34.3647],[-79.0116,34.3803],[-78.995,34.3926],[-78.9776,34.3903],[-78.9682,34.3973],[-78.9711,34.4277],[-78.9599,34.4428],[-78.9374,34.4551],[-78.9074,34.4557],[-78.869,34.4848],[-78.8252,34.4618],[-78.6676,34.4696],[-78.6564,34.4603],[-78.6594,34.4537],[-78.6468,34.4607],[-78.594,34.4314],[-78.4453,34.3774],[-78.3351,34.3676],[-78.2561,34.3995],[-78.2345,34.3738],[-78.2292,34.379],[-78.2102,34.3684],[-78.2025,34.3533],[-78.1624,34.357],[-78.2546,34.2163],[-78.3743,34.2049],[-78.3668,34.1888],[-78.3916,34.1739],[-78.4227,34.1396],[-78.5029,34.1691],[-78.5452,34.1457],[-78.5388,34.1252],[-78.5551,34.1168],[-78.549,34.1115],[-78.554,34.1041],[-78.5441,34.0999],[-78.5602,34.0921],[-78.5571,34.0618],[-78.5796,34.0516],[-78.5793,34.0369],[-78.5908,34.0272],[-78.6003,34.03],[-78.6406,34.0103],[-78.6241,33.9733],[-78.6484,33.9655],[-78.6422,33.9581],[-78.6504,33.9443],[-79.0712,34.2993]]]}},{"type":"Feature","properties":{"county_fips":"37009","county_name":"Ashe","state":"NC"},"geometry":{"type":"Polygon","coordinates":[[[-81.7407,36.4131],[-81.7207,36.4225],[-81.7149,36.4572],[-81.6953,36.4679],[-81.708,36.5362],[-81.69,36.5522],[-81.6902,36.5687],[-81.677,36.5707],[-81.6775,36.5881],[-81.3533,36.5747],[-81.3531,36.5461],[-81.3459,36.5515],[-81.3481,36.5419],[-81.3283,36.5173],[-81.3226,36.4958],[-81.2721,36.4468],[-81.2646,36.4103],[-81.2442,36.3816],[-81.2556,36.3633],[-81.266,36.3611],[-81.3236,36.3768],[-81.3543,36.3556],[-81.3667,36.2859],[-81.3786,36.2779],[-81.4138,36.2948],[-81.4131,36.2815],[-81.4291,36.2776],[-81.4297,36.2667],[-81.4582,36.2484],[-81.4754,36.2528],[-81.4775,36.2403],[-81.5217,36.2553],[-81.5522,36.2764],[-81.5661,36.272],[-81.6382,36.3496],[-81.7387,36.3948],[-81.7407,36.4131]]]}},{"type":"Feature","properties":{"county_fips":"45051","county_name":"Horry","state":"SC"},"geometry":{"type":"Polygon","coordinates":[[[-79.3388,33.9705],[-79.3285,34.0002],[-79.3151,33.9965],[-79.3072,34.0059],[-79.3076,34.0277],[-79.2478,34.0571],[-79.2396,34.0768],[-79.2481,34.0795],[-79.2501,34.0904],[-79.2301,34.1088],[-79.2209,34.1077],[-79.2189,34.1268],[-79.2058,34.133],[-79.2075,34.1548],[-79.1973,34.1587],[-79.1927,34.1754],[-79.1769,34.1848],[-79.1736,34.1795],[-79.1539,34.2072],[-79.1337,34.2157],[-79.1357,34.2291],[-79.1267,34.2361],[-79.1348,34.241],[-79.1264,34.2573],[-79.0937,34.278],[-79.0861,34.295],[-79.0713,34.2993],[-78.5473,33.8565],[-78.6977,33.808],[-78.7958,33.7551],[-78.9141,33.6616],[-79.0018,33.5727],[-79.1011,33.573],[-79.0998,33.609],[-79.1091,33.6003],[-79.1213,33.6048],[-79.1233,33.6232],[-79.1337,33.6357],[-79.1349,33.6485],[-79.1273,33.6436],[-79.1239,33.6522],[-79.1295,33.6501],[-79.1364,33.6638],[-79.1533,33.6594],[-79.1573,33.6848],[-79.1914,33.7065],[-79.1959,33.7279],[-79.2481,33.7844],[-79.2609,33.8189],[-79.2488,33.8312],[-79.2641,33.8425],[-79.256,33.8654],[-79.2636,33.8925],[-79.2999,33.9038],[-79.3123,33.9182],[-79.3067,33.9239],[-79.3069,33.9348],[-79.317,33.9341],[-79.3116,33.9442],[-79.3334,33.9527],[-79.3301,33.9616],[-79.3388,33.9705]]]}},{"type":"Feature","properties":{"county_fips":"45091","county_name":"York","state":"SC"},"geometry":{"type":"Polygon","coordinates":[[[-81.4923,34.9472],[-81.4758,34.983],[-81.4847,34.9974],[-81.4873,35.0347],[-81.4714,35.0481],[-81.4088,35.0471],[-81.4025,35.1369],[-81.3666,35.1649],[-81.0436,35.1499],[-81.051,35.1317],[-81.039,35.1263],[-81.0328,35.108],[-81.0521,35.0963],[-81.058,35.0732],[-81.0576,35.0624],[-81.0415,35.0447],[-80.935,35.1074],[-80.9062,35.0764],[-80.8996,35.0599],[-80.9059,35.0468],[-80.8973,35.0353],[-80.9095,35.0165],[-80.8857,34.9915],[-80.8847,34.9662],[-80.874,34.9654],[-80.8686,34.9507],[-80.8651,34.9239],[-80.8789,34.901],[-80.8801,34.8715],[-80.8666,34.8485],[-80.8982,34.8208],[-81.4766,34.8226],[-81.4533,34.8463],[-81.4684,34.8652],[-81.4787,34.898],[-81.4701,34.9136],[-81.4773,34.9261],[-81.4735,34.9355],[-81.4923,34.9472]]]}},{"type":"Feature","properties":{"county_fips":"37193","county_name":"Wilkes","state":"NC"},"geometry":{"type":"Polygon","coordinates":[[[-81.542,36.1194],[-81.5004,36.1425],[-81.4558,36.2004],[-81.4657,36.2271],[-81.4777,36.2358],[-81.4754,36.2528],[-81.4582,36.2484],[-81.4526,36.2579],[-81.4313,36.2655],[-81.4291,36.2776],[-81.4131,36.2815],[-81.4138,36.2948],[-81.3786,36.2779],[-81.3667,36.2859],[-81.3543,36.3556],[-81.3214,36.3771],[-81.3084,36.3677],[-81.266,36.3611],[-81.2435,36.3661],[-81.1893,36.3994],[-81.163,36.4325],[-81.1382,36.4125],[-81.1284,36.4259],[-81.0948,36.4404],[-81.0778,36.4178],[-81.0443,36.4111],[-81.0438,36.3933],[-81.0267,36.3732],[-80.9814,36.3762],[-80.9842,36.3885],[-80.9672,36.402],[-80.9421,36.3736],[-80.9058,36.3611],[-80.8931,36.3409],[-80.8687,36.3264],[-80.8816,36.0557],[-80.9757,36.0588],[-81.0485,36.0411],[-81.0575,36.0316],[-81.0981,36.0282],[-81.1117,36.0377],[-81.1393,36.0376],[-81.1708,36.0255],[-81.2026,36.0362],[-81.2685,36.025],[-81.3265,35.9948],[-81.3449,36.0256],[-81.3815,36.0446],[-81.3965,36.0409],[-81.3895,36.0501],[-81.3978,36.0664],[-81.4248,36.0778],[-81.4446,36.0723],[-81.4565,36.0915],[-81.4673,36.0857],[-81.477,36.0966],[-81.5162,36.0974],[-81.542,36.1194]]]}},{"type":"Feature","properties":{"county_fips":"37159","county_name":"Rowan","state":"NC"},"geometry":{"type":"Polygon","coordinates":[[[-80.7716,35.6722],[-80.7078,35.853],[-80.6934,35.8536],[-80.6918,35.8635],[-80.6688,35.8563],[-80.6713,35.8465],[-80.632,35.8457],[-80.6095,35.8231],[-80.5947,35.8274],[-80.5904,35.8171],[-80.5871,35.823],[-80.5743,35.818],[-80.5329,35.7852],[-80.5086,35.7746],[-80.4974,35.783],[-80.4869,35.7663],[-80.4848,35.7756],[-80.4783,35.7748],[-80.4534,35.7345],[-80.3728,35.7165],[-80.3338,35.72],[-80.3241,35.7058],[-80.3344,35.6921],[-80.3306,35.6788],[-80.3073,35.6657],[-80.2883,35.6353],[-80.265,35.6296],[-80.2089,35.5813],[-80.2098,35.5523],[-80.1992,35.5456],[-80.1829,35.5033],[-80.7372,35.5058],[-80.7398,35.5441],[-80.7716,35.6722]]]}},{"type":"Feature","properties":{"county_fips":"37089","county_name":"Henderson","state":"NC"},"geometry":{"type":"Polygon","coordinates":[[[-82.7429,35.4241],[-82.7142,35.4486],[-82.6732,35.4595],[-82.622,35.4357],[-82.6087,35.4433],[-82.5708,35.4311],[-82.5612,35.4432],[-82.5488,35.4443],[-82.5423,35.4313],[-82.5469,35.4252],[-82.5332,35.4164],[-82.5339,35.4444],[-82.4706,35.4452],[-82.4178,35.4744],[-82.3631,35.461],[-82.3693,35.4855],[-82.341,35.4889],[-82.3326,35.5002],[-82.2658,35.4678],[-82.2805,35.4434],[-82.2615,35.3884],[-82.3053,35.3326],[-82.3104,35.3147],[-82.3295,35.3076],[-82.3461,35.286],[-82.3497,35.2443],[-82.3592,35.2445],[-82.3593,35.2283],[-82.3509,35.2283],[-82.3537,35.1922],[-82.3732,35.1822],[-82.3822,35.1896],[-82.384,35.2105],[-82.3929,35.2154],[-82.4197,35.1986],[-82.4396,35.1659],[-82.4571,35.1639],[-82.4516,35.1727],[-82.4601,35.1781],[-82.53,35.1556],[-82.5533,35.1617],[-82.5533,35.1535],[-82.5742,35.1437],[-82.5907,35.162],[-82.6043,35.2589],[-82.6161,35.2601],[-82.6102,35.2882],[-82.624,35.2971],[-82.6192,35.3037],[-82.7429,35.4241]]]}},{"type":"Feature","properties":{"county_fips":"37163","county_name":"Sampson","state":"NC"},"geometry":{"type":"Polygon","coordinates":[[[-78.6718,35.087],[-78.6582,35.0945],[-78.6538,35.1114],[-78.639,35.117],[-78.6519,35.1218],[-78.6347,35.1394],[-78.6399,35.1549],[-78.6328,35.1642],[-78.6389,35.167],[-78.6299,35.1723],[-78.64,35.1859],[-78.6357,35.1917],[-78.6464,35.1986],[-78.6244,35.204],[-78.6332,35.2137],[-78.6195,35.2269],[-78.6171,35.2457],[-78.5846,35.2733],[-78.5835,35.2968],[-78.5383,35.3164],[-78.4919,35.2633],[-78.4118,35.2547],[-78.3066,35.2876],[-78.2462,35.226],[-78.1618,35.2043],[-78.1718,35.0935],[-78.1598,35.0798],[-78.1471,34.9025],[-78.1986,34.7416],[-78.1352,34.7102],[-78.114,34.7218],[-78.1135,34.7072],[-78.1565,34.6791],[-78.2544,34.5536],[-78.2601,34.5566],[-78.2517,34.562],[-78.2663,34.584],[-78.275,34.5814],[-78.2912,34.6005],[-78.3032,34.6005],[-78.3131,34.6259],[-78.3221,34.6285],[-78.3116,34.6416],[-78.3246,34.6497],[-78.325,34.6688],[-78.3469,34.6802],[-78.3493,34.6919],[-78.3734,34.6992],[-78.3686,34.7043],[-78.3823,34.7173],[-78.3794,34.7234],[-78.3919,34.7296],[-78.3907,34.7495],[-78.4245,34.7699],[-78.4498,34.8135],[-78.4592,34.8127],[-78.4658,34.8276],[-78.4877,34.8363],[-78.4952,34.8591],[-78.5131,34.8691],[-78.5127,34.8806],[-78.5469,34.9006],[-78.5435,34.9138],[-78.5623,34.918],[-78.5727,34.9374],[-78.6075,34.9536],[-78.647,34.9923],[-78.645,35.0101],[-78.6593,35.0428],[-78.6545,35.0508],[-78.6718,35.087]]]}},{"type":"Feature","properties":{"county_fips":"37121","county_name":"Mitchell","state":"NC"},"geometry":{"type":"Polygon","coordinates":[[[-82.4167,36.0728],[-82.4045,36.0876],[-82.3552,36.1156],[-82.3214,36.1196],[-82.2895,36.1357],[-82.2687,36.127],[-82.2604,36.1337],[-82.2475,36.1309],[-82.2221,36.1569],[-82.2049,36.1571],[-82.1768,36.1422],[-82.1479,36.1495],[-82.1306,36.1064],[-82.0809,36.1058],[-82.0719,36.0699],[-82.0392,36.0078],[-82.0493,36.0079],[-82.059,35.991],[-82.0484,35.964],[-82.0341,35.9421],[-81.982,35.9114],[-81.9802,35.885],[-81.9973,35.874],[-82.0226,35.8849],[-82.034,35.8622],[-82.048,35.8532],[-82.0994,35.8517],[-82.1212,35.8246],[-82.1483,35.8227],[-82.1436,35.8269],[-82.1501,35.8415],[-82.1388,35.8456],[-82.1499,35.8912],[-82.1427,35.9063],[-82.155,35.9208],[-82.1452,35.9309],[-82.1654,35.9343],[-82.1697,35.9286],[-82.1977,35.9523],[-82.1863,35.9588],[-82.1937,35.9666],[-82.1917,35.9906],[-82.2041,36.0036],[-82.1938,36.0007],[-82.197,36.0145],[-82.2333,36.0135],[-82.2367,36.0049],[-82.2521,36.0087],[-82.252,35.9891],[-82.2733,36.0029],[-82.2681,36.0166],[-82.2911,36.0296],[-82.3008,36.0458],[-82.3123,36.0376],[-82.3124,36.0261],[-82.3382,36.0301],[-82.3364,36.0524],[-82.352,36.0845],[-82.3766,36.0709],[-82.3973,36.0817],[-82.3998,36.0714],[-82.4167,36.0728]]]}},{"type":"Feature","properties":{"county_fips":"42051","county_name":"Fayette","state":"PA"},"geometry":{"type":"Polygon","coordinates":[[[-80.0107,39.9711],[-79.9909,39.9866],[-79.9957,40.0051],[-79.9882,40.0119],[-79.9694,40.0131],[-79.9467,39.9943],[-79.9248,40.0161],[-79.88,40.0283],[-79.877,40.0368],[-79.8919,40.0482],[-79.8798,40.0651],[-79.9014,40.0767],[-79.8637,40.0754],[-79.839,40.0906],[-79.8501,40.114],[-79.875,40.1294],[-79.7461,40.1285],[-79.7244,40.1231],[-79.7224,40.1128],[-79.707,40.1076],[-79.6861,40.1139],[-79.6424,40.0836],[-79.622,40.0945],[-79.593,40.0821],[-79.5854,40.1021],[-79.5423,40.1119],[-79.534,40.1286],[-79.527,40.1232],[-79.5052,40.1406],[-79.4615,40.1441],[-79.4377,40.1159],[-79.3555,40.0743],[-79.3412,40.0429],[-79.2939,40.0404],[-79.3916,39.9195],[-79.3876,39.9157],[-79.4176,39.8538],[-79.3673,39.8227],[-79.3683,39.7959],[-79.3513,39.7866],[-79.3568,39.7815],[-79.3801,39.7901],[-79.3831,39.7825],[-79.395,39.7834],[-79.3787,39.7689],[-79.3986,39.7583],[-79.3941,39.7433],[-79.408,39.742],[-79.41,39.735],[-79.3927,39.7327],[-79.3925,39.7214],[-79.9162,39.7209],[-79.9034,39.7431],[-79.9301,39.7571],[-79.9344,39.7813],[-79.9087,39.7938],[-79.9244,39.8382],[-79.9386,39.8455],[-79.9246,39.8551],[-79.9303,39.8693],[-79.9153,39.8803],[-79.9294,39.9057],[-79.9231,39.921],[-79.9592,39.9539],[-79.9988,39.9509],[-80.0093,39.9588],[-80.0107,39.9711]]]}},{"type":"Feature","properties":{"county_fips":"45055","county_name":"Kershaw","state":"SC"},"geometry":{"type":"Polygon","coordinates":[[[-80.8792,34.4578],[-80.7433,34.5399],[-80.7377,34.5395],[-80.7456,34.5126],[-80.74,34.48],[-80.7136,34.4873],[-80.6982,34.516],[-80.6891,34.5153],[-80.6584,34.4786],[-80.6452,34.4837],[-80.6456,34.4915],[-80.6322,34.4914],[-80.6281,34.4824],[-80.6227,34.4915],[-80.6296,34.4912],[-80.6296,34.4987],[-80.6136,34.4999],[-80.6104,34.4888],[-80.5958,34.5021],[-80.5794,34.4846],[-80.5489,34.4933],[-80.544,34.5075],[-80.5303,34.5037],[-80.5239,34.5098],[-80.5507,34.56],[-80.4084,34.6148],[-80.3834,34.5922],[-80.3723,34.5468],[-80.3548,34.5311],[-80.3536,34.5209],[-80.3303,34.5095],[-80.3263,34.4374],[-80.3114,34.4243],[-80.3022,34.3998],[-80.2859,34.3941],[-80.284,34.3777],[-80.2869,34.3646],[-80.3251,34.3393],[-80.3638,34.3395],[-80.3658,34.3282],[-80.353,34.3033],[-80.382,34.3052],[-80.4374,34.2845],[-80.4241,34.2507],[-80.433,34.2489],[-80.4308,34.227],[-80.4452,34.206],[-80.4545,34.208],[-80.4646,34.1786],[-80.5801,34.0999],[-80.6185,34.1092],[-80.6162,34.0996],[-80.7036,34.081],[-80.7193,34.069],[-80.8691,34.1829],[-80.7699,34.3771],[-80.7836,34.3888],[-80.7832,34.4065],[-80.7935,34.4133],[-80.8332,34.4148],[-80.8792,34.4578]]]}},{"type":"Feature","properties":{"county_fips":"45027","county_name":"Clarendon","state":"SC"},"geometry":{"type":"Polygon","coordinates":[[[-80.5405,33.629],[-80.5283,33.6367],[-80.5341,33.6439],[-80.4976,33.6743],[-80.4787,33.7143],[-80.4544,33.7135],[-80.4493,33.7375],[-80.4309,33.7383],[-80.4259,33.7241],[-80.4344,33.7119],[-80.392,33.7156],[-80.3971,33.7678],[-80.2712,33.7863],[-80.2554,33.8041],[-80.1954,33.839],[-79.9746,33.9465],[-79.9459,33.886],[-79.8756,33.8852],[-79.9153,33.8186],[-79.9445,33.8102],[-79.9956,33.7679],[-79.9744,33.7216],[-79.9932,33.7045],[-80.1017,33.4969],[-80.1255,33.5024],[-80.1273,33.4933],[-80.1521,33.4854],[-80.1318,33.4634],[-80.1442,33.4641],[-80.1392,33.454],[-80.1522,33.4594],[-80.1507,33.4482],[-80.1615,33.4489],[-80.1627,33.4607],[-80.1734,33.4487],[-80.181,33.4546],[-80.1975,33.4436],[-80.1981,33.4516],[-80.2074,33.4526],[-80.204,33.4419],[-80.2224,33.4478],[-80.2359,33.4396],[-80.2399,33.4547],[-80.2679,33.4379],[-80.282,33.4484],[-80.3236,33.4312],[-80.3489,33.4302],[-80.3902,33.444],[-80.437,33.478],[-80.4391,33.502],[-80.46,33.5029],[-80.4564,33.5122],[-80.4677,33.5162],[-80.468,33.525],[-80.4473,33.5245],[-80.4475,33.5405],[-80.4554,33.5471],[-80.4684,33.5411],[-80.485,33.56],[-80.5045,33.5627],[-80.5161,33.5791],[-80.5022,33.5904],[-80.5198,33.5974],[-80.52,33.6142],[-80.5405,33.629]]]}},{"type":"Feature","properties":{"county_fips":"37167","county_name":"Stanly","state":"NC"},"geometry":{"type":"Polygon","coordinates":[[[-80.5059,35.1933],[-80.4829,35.2133],[-80.2954,35.5029],[-80.1826,35.5042],[-80.177,35.4868],[-80.1617,35.4752],[-80.1399,35.4751],[-80.1099,35.461],[-80.1087,35.4451],[-80.0975,35.4381],[-80.1005,35.4299],[-80.0901,35.4156],[-80.0937,35.402],[-80.0661,35.3895],[-80.0512,35.3715],[-80.0654,35.3605],[-80.0663,35.3406],[-80.0819,35.3215],[-80.0984,35.2581],[-80.0908,35.236],[-80.0698,35.2183],[-80.0533,35.1786],[-80.0754,35.1431],[-80.1073,35.1733],[-80.1148,35.1943],[-80.1291,35.1876],[-80.1242,35.1753],[-80.1362,35.1675],[-80.1578,35.1728],[-80.1676,35.1622],[-80.1609,35.1487],[-80.1906,35.1555],[-80.197,35.1665],[-80.2085,35.1558],[-80.225,35.1562],[-80.2531,35.2109],[-80.284,35.1924],[-80.2967,35.1934],[-80.3217,35.1731],[-80.3404,35.1741],[-80.3576,35.1649],[-80.371,35.1797],[-80.3883,35.1659],[-80.4115,35.1633],[-80.4193,35.1729],[-80.4399,35.161],[-80.4704,35.1673],[-80.4811,35.1801],[-80.4884,35.1755],[-80.5036,35.1817],[-80.5059,35.1933]]]}},{"type":"Feature","properties":{"county_fips":"37007","county_name":"Anson","state":"NC"},"geometry":{"type":"Polygon","coordinates":[[[-80.3208,34.8141],[-80.2768,35.1957],[-80.2559,35.2111],[-80.225,35.1562],[-80.2085,35.1558],[-80.197,35.1665],[-80.1728,35.1478],[-80.1599,35.1497],[-80.1676,35.1622],[-80.1559,35.1745],[-80.1362,35.1675],[-80.1242,35.1753],[-80.1278,35.189],[-80.1116,35.1933],[-80.1073,35.1733],[-80.0777,35.1476],[-80.0682,35.112],[-80.0244,35.0904],[-79.9929,35.0856],[-79.9585,35.1137],[-79.9252,35.1165],[-79.9125,35.0961],[-79.9102,35.069],[-79.8767,35.0445],[-79.9006,35.0057],[-79.8648,34.98],[-79.8723,34.9504],[-79.8485,34.9043],[-79.8658,34.8794],[-79.903,34.8545],[-79.9138,34.8189],[-79.9274,34.8066],[-80.3208,34.8141]]]}},{"type":"Feature","properties":{"county_fips":"37155","county_name":"Robeson","state":"NC"},"geometry":{"type":"Polygon","coordinates":[[[-79.4615,34.6304],[-79.3317,34.773],[-79.3576,34.8203],[-79.3488,34.8389],[-79.1914,34.8337],[-79.0387,34.9527],[-78.9408,34.9034],[-78.9223,34.8755],[-78.927,34.864],[-78.8924,34.8138],[-78.8836,34.8124],[-78.8544,34.7357],[-78.8054,34.6866],[-78.8094,34.6683],[-78.8192,34.6626],[-78.8136,34.6519],[-78.8344,34.6216],[-78.8315,34.6088],[-78.8412,34.5974],[-78.8361,34.5935],[-78.8627,34.562],[-78.853,34.5278],[-78.857,34.5151],[-78.8444,34.5081],[-78.8464,34.5002],[-78.8634,34.498],[-78.8697,34.4824],[-78.9074,34.4557],[-78.9374,34.4551],[-78.9599,34.4428],[-78.9711,34.4277],[-78.9682,34.3973],[-78.9776,34.3903],[-78.995,34.3926],[-79.0116,34.3803],[-79.0008,34.3647],[-79.009,34.353],[-79.0272,34.3529],[-79.0383,34.3135],[-79.0529,34.3146],[-79.0712,34.2993],[-79.4615,34.6304]]]}},{"type":"Feature","properties":{"county_fips":"37129","county_name":"New Hanover","state":"NC"},"geometry":{"type":"Polygon","coordinates":[[[-78.0299,34.3318],[-77.9932,34.3368],[-77.978,34.3574],[-77.9881,34.3639],[-77.987,34.3721],[-77.9628,34.3826],[-77.9578,34.3686],[-77.9404,34.37],[-77.9354,34.358],[-77.9345,34.3666],[-77.9288,34.3615],[-77.9178,34.3755],[-77.9006,34.378],[-77.8979,34.3647],[-77.8884,34.3641],[-77.823,34.3894],[-77.8047,34.3767],[-77.8151,34.367],[-77.8127,34.359],[-77.752,34.3033],[-77.7414,34.3015],[-77.7398,34.2932],[-77.7106,34.2977],[-77.7753,34.2333],[-77.839,34.1479],[-77.871,34.0838],[-77.8795,34.0806],[-77.8804,34.0607],[-77.9372,33.9292],[-77.9485,33.9713],[-77.9362,34.0046],[-77.9311,34.0589],[-77.9369,34.1228],[-77.9586,34.1738],[-77.9566,34.2345],[-77.9685,34.2423],[-77.9678,34.2521],[-77.9731,34.2472],[-77.9875,34.2683],[-78.002,34.2731],[-77.9902,34.2817],[-78.0048,34.2805],[-78.0059,34.2889],[-78.0159,34.2903],[-78.0062,34.3195],[-78.0262,34.3181],[-78.0299,34.3318]]]}},{"type":"Feature","properties":{"county_fips":"37141","county_name":"Pender","state":"NC"},"geometry":{"type":"Polygon","coordinates":[[[-78.2722,34.5384],[-78.1565,34.6791],[-78.1135,34.7072],[-78.114,34.7218],[-78.1024,34.7254],[-78.0307,34.7248],[-78.0127,34.7326],[-77.9812,34.714],[-77.9614,34.7199],[-77.952,34.7147],[-77.938,34.7232],[-77.6801,34.7206],[-77.5759,34.4764],[-77.5412,34.465],[-77.5184,34.4409],[-77.7248,34.2929],[-77.7398,34.2932],[-77.7414,34.3015],[-77.752,34.3033],[-77.8127,34.359],[-77.8151,34.367],[-77.8047,34.3767],[-77.823,34.3894],[-77.8884,34.3641],[-77.8979,34.3647],[-77.9006,34.378],[-77.9178,34.3755],[-77.9288,34.3615],[-77.9345,34.3666],[-77.9354,34.358],[-77.9404,34.37],[-77.9578,34.3686],[-77.9628,34.3826],[-77.987,34.3721],[-77.9881,34.3639],[-77.978,34.3574],[-77.9932,34.3368],[-78.0467,34.3304],[-78.0582,34.344],[-78.0593,34.3379],[-78.0783,34.3389],[-78.0788,34.3539],[-78.1028,34.355],[-78.1221,34.3684],[-78.1373,34.3717],[-78.1738,34.3519],[-78.1962,34.3525],[-78.2102,34.358],[-78.2116,34.3694],[-78.2292,34.379],[-78.2357,34.3747],[-78.2561,34.3995],[-78.1765,34.4654],[-78.2029,34.4756],[-78.207,34.4874],[-78.2356,34.4925],[-78.2524,34.5047],[-78.2541,34.5198],[-78.2639,34.5196],[-78.2722,34.5384]]]}},{"type":"Feature","properties":{"county_fips":"37133","county_name":"Onslow","state":"NC"},"geometry":{"type":"MultiPolygon","coordinates":[[[[-77.1692,34.6224],[-77.1212,34.648],[-77.1104,34.6451],[-77.1692,34.6224]]],[[[-77.2269,34.5967],[-77.2024,34.6128],[-77.1795,34.6204],[-77.2269,34.5967]]],[[[-77.6801,34.7206],[-77.677,34.7996],[-77.6511,34.9235],[-77.6534,34.9405],[-77.6801,34.9711],[-77.639,34.9845],[-77.5028,34.9696],[-77.3668,34.9087],[-77.3633,34.9255],[-77.3316,34.9391],[-77.2674,34.9255],[-77.2602,34.9096],[-77.2374,34.9],[-77.2342,34.8863],[-77.2224,34.8871],[-77.202,34.8348],[-77.1813,34.8362],[-77.1958,34.8094],[-77.1711,34.7907],[-77.1727,34.7806],[-77.166,34.785],[-77.1657,34.7793],[-77.1574,34.7808],[-77.1603,34.7746],[-77.1533,34.7762],[-77.1578,34.7659],[-77.1256,34.7567],[-77.1052,34.6947],[-77.1133,34.683],[-77.1259,34.6852],[-77.1362,34.6783],[-77.1336,34.6728],[-77.1546,34.6679],[-77.1634,34.6537],[-77.2047,34.6343],[-77.2424,34.6],[-77.2337,34.593],[-77.307,34.5451],[-77.5184,34.4409],[-77.5412,34.465],[-77.5759,34.4764],[-77.6801,34.7206]]]]}},{"type":"Feature","properties":{"county_fips":"37049","county_name":"Craven","state":"NC"},"geometry":{"type":"Polygon","coordinates":[[[-77.4733,35.2311],[-77.427,35.2559],[-77.4496,35.2995],[-77.4311,35.313],[-77.4313,35.3298],[-77.4105,35.3319],[-77.4109,35.3378],[-77.3952,35.343],[-77.3504,35.3284],[-77.2943,35.3791],[-77.2693,35.3692],[-77.2661,35.3536],[-77.2487,35.3543],[-77.2382,35.3618],[-77.2396,35.3814],[-77.2271,35.3998],[-77.2016,35.3987],[-77.1891,35.4184],[-76.9588,35.301],[-76.8959,35.2539],[-76.9062,35.2359],[-76.9326,35.2303],[-76.9446,35.2108],[-76.9595,35.2028],[-76.9705,35.1619],[-76.9875,35.1543],[-76.9759,35.1337],[-76.942,35.1155],[-76.9311,35.1172],[-76.9402,35.103],[-76.9333,35.0802],[-76.9429,35.0514],[-76.9876,35.0656],[-77.0104,35.1012],[-77.0189,35.1027],[-77.0304,35.1331],[-77.0539,35.1474],[-77.0615,35.1441],[-77.0346,35.1112],[-77.0339,35.0922],[-76.9893,35.0438],[-76.9705,34.9973],[-76.8892,34.9482],[-76.8683,34.9476],[-76.8478,34.9363],[-76.8112,34.9392],[-76.7608,34.9159],[-76.7454,34.9223],[-76.7456,34.9303],[-76.7266,34.9279],[-76.7076,34.9542],[-76.6772,34.9577],[-76.6526,34.9376],[-76.6606,34.9156],[-76.6863,34.8954],[-76.693,34.8692],[-76.758,34.8463],[-76.8831,34.8449],[-76.8823,34.8367],[-76.9548,34.8245],[-76.9544,34.8091],[-77.0783,34.8113],[-77.0472,34.8364],[-77.1089,34.8308],[-77.0989,35.0267],[-77.1102,35.0455],[-77.1096,35.0685],[-77.1305,35.0723],[-77.1483,35.0547],[-77.1645,35.0655],[-77.1684,35.0606],[-77.1806,35.0552],[-77.1739,35.0591],[-77.1894,35.0667],[-77.1877,35.0811],[-77.4733,35.2311]]]}},{"type":"Feature","properties":{"county_fips":"37137","county_name":"Pamlico","state":"NC"},"geometry":{"type":"Polygon","coordinates":[[[-76.9875,35.1543],[-76.9705,35.1619],[-76.9595,35.2028],[-76.9446,35.2108],[-76.9326,35.2303],[-76.9062,35.2359],[-76.8959,35.2539],[-76.8453,35.2161],[-76.6326,35.2353],[-76.6138,35.2708],[-76.6194,35.3023],[-76.6112,35.3355],[-76.6068,35.3293],[-76.575,35.3305],[-76.4842,35.3136],[-76.4839,35.3063],[-76.4989,35.3059],[-76.4927,35.2913],[-76.4982,35.2796],[-76.4799,35.2791],[-76.4771,35.2867],[-76.4697,35.2809],[-76.4758,35.2768],[-76.4674,35.2613],[-76.4794,35.269],[-76.4907,35.2627],[-76.4792,35.2473],[-76.5034,35.2407],[-76.4914,35.2207],[-76.496,35.217],[-76.5291,35.2312],[-76.5655,35.2292],[-76.521,35.2061],[-76.5267,35.1848],[-76.5864,35.202],[-76.6013,35.1974],[-76.5987,35.1879],[-76.6341,35.1743],[-76.6337,35.1607],[-76.5866,35.1544],[-76.588,35.1688],[-76.5693,35.1735],[-76.5472,35.1492],[-76.5395,35.1546],[-76.5363,35.1499],[-76.5695,35.0985],[-76.5952,35.092],[-76.5973,35.074],[-76.6969,35.0224],[-76.7116,35.0045],[-76.7575,34.9924],[-76.7712,34.9767],[-76.8036,34.9638],[-76.9457,35.045],[-76.9488,35.0515],[-76.9361,35.0619],[-76.9333,35.0802],[-76.9402,35.103],[-76.9311,35.1172],[-76.942,35.1155],[-76.9759,35.1337],[-76.9875,35.1543]]]}},{"type":"Feature","properties":{"county_fips":"37177","county_name":"Tyrrell","state":"NC"},"geometry":{"type":"Polygon","coordinates":[[[-76.4056,35.7863],[-76.3536,35.8613],[-76.38,35.9147],[-76.3534,35.9407],[-76.3254,35.9386],[-76.2717,35.9723],[-76.1705,35.9945],[-76.0625,35.9907],[-76.0114,35.9542],[-76.0205,35.9325],[-76.0128,35.9219],[-76.0285,35.9107],[-76.0454,35.8845],[-76.046,35.8703],[-76.0632,35.8534],[-76.0635,35.824],[-76.0505,35.8067],[-76.0559,35.7602],[-76.0483,35.7371],[-76.0601,35.7087],[-76.0364,35.6884],[-76.0451,35.6656],[-76.0611,35.6752],[-76.0967,35.6696],[-76.1202,35.6806],[-76.1183,35.6919],[-76.1301,35.6908],[-76.142,35.7029],[-76.1696,35.6986],[-76.1675,35.6908],[-76.1766,35.6862],[-76.1695,35.6725],[-76.1814,35.6667],[-76.1778,35.6549],[-76.1931,35.646],[-76.1958,35.6201],[-76.2143,35.5984],[-76.2928,35.6064],[-76.2979,35.609],[-76.2692,35.6908],[-76.406,35.6976],[-76.4056,35.7863]]]}},{"type":"Feature","properties":{"county_fips":"37131","county_name":"Northampton","state":"NC"},"geometry":{"type":"Polygon","coordinates":[[[-77.8998,36.5447],[-77.1697,36.5473],[-77.151,36.5405],[-77.1484,36.525],[-77.0834,36.5132],[-77.0854,36.5],[-77.0665,36.497],[-77.0664,36.4829],[-77.0838,36.4723],[-77.1124,36.4777],[-77.1368,36.4561],[-77.1313,36.4378],[-77.2085,36.2466],[-77.2286,36.2144],[-77.2549,36.2185],[-77.2982,36.2077],[-77.2933,36.1974],[-77.2997,36.1814],[-77.2915,36.1683],[-77.2996,36.1649],[-77.3131,36.1722],[-77.309,36.1807],[-77.3284,36.1919],[-77.351,36.1915],[-77.386,36.2112],[-77.3769,36.245],[-77.4094,36.2635],[-77.4144,36.2935],[-77.4417,36.3244],[-77.5411,36.3033],[-77.5711,36.3138],[-77.5856,36.3373],[-77.5765,36.3544],[-77.5479,36.372],[-77.5505,36.414],[-77.5864,36.422],[-77.5919,36.4314],[-77.626,36.4457],[-77.6444,36.4802],[-77.7265,36.4875],[-77.7679,36.48],[-77.819,36.5007],[-77.8928,36.512],[-77.8995,36.5043],[-77.8998,36.5447]]]}},{"type":"Feature","properties":{"county_fips":"45045","county_name":"Greenville","state":"SC"},"geometry":{"type":"Polygon","coordinates":[[[-82.7641,35.0682],[-82.7542,35.0696],[-82.7518,35.0799],[-82.7384,35.0795],[-82.727,35.0941],[-82.7005,35.1008],[-82.6977,35.0957],[-82.6865,35.1082],[-82.6936,35.1169],[-82.6814,35.1279],[-82.6733,35.1175],[-82.6624,35.1181],[-82.641,35.1323],[-82.629,35.1262],[-82.6124,35.1382],[-82.5699,35.1453],[-82.5464,35.1637],[-82.53,35.1556],[-82.4601,35.1781],[-82.4516,35.1727],[-82.4571,35.1639],[-82.4396,35.1659],[-82.4197,35.1986],[-82.3929,35.2154],[-82.3713,35.1814],[-82.3615,35.1908],[-82.3234,35.1848],[-82.2825,35.1999],[-82.2159,35.196],[-82.2261,34.8502],[-82.2194,34.8534],[-82.1734,34.806],[-82.1652,34.8069],[-82.1688,34.7971],[-82.1535,34.782],[-82.1456,34.7852],[-82.2348,34.5888],[-82.2361,34.5353],[-82.3139,34.4843],[-82.3438,34.5],[-82.344,34.5122],[-82.3642,34.5154],[-82.3863,34.5393],[-82.4196,34.5571],[-82.4283,34.5989],[-82.4438,34.6073],[-82.4382,34.6107],[-82.4529,34.6238],[-82.4559,34.6573],[-82.4631,34.6558],[-82.4677,34.6671],[-82.4567,34.6803],[-82.4639,34.6856],[-82.4569,34.6995],[-82.4654,34.706],[-82.4574,34.7142],[-82.4655,34.7212],[-82.4521,34.7764],[-82.4609,34.7967],[-82.4766,34.8022],[-82.4751,34.8104],[-82.487,34.819],[-82.4764,34.8279],[-82.487,34.8306],[-82.4808,34.8425],[-82.4891,34.8411],[-82.483,34.8579],[-82.489,34.8614],[-82.4877,34.8858],[-82.4965,34.8876],[-82.501,34.9104],[-82.5182,34.9204],[-82.5274,34.9659],[-82.5481,34.9787],[-82.5341,34.9838],[-82.5432,35.0046],[-82.5379,35.0155],[-82.5956,35.0101],[-82.5857,35.0324],[-82.5903,35.0442],[-82.5982,35.0385],[-82.5977,35.0543],[-82.5905,35.0637],[-82.5743,35.0646],[-82.5716,35.0746],[-82.6114,35.0723],[-82.6416,35.0602],[-82.6597,35.067],[-82.7082,35.0621],[-82.7379,35.0472],[-82.7497,35.0476],[-82.7641,35.0682]]]}},{"type":"Feature","properties":{"county_fips":"45025","county_name":"Chesterfield","state":"SC"},"geometry":{"type":"Polygon","coordinates":[[[-80.5641,34.8148],[-79.9307,34.8066],[-79.9281,34.7699],[-79.893,34.742],[-79.8594,34.6778],[-79.8305,34.6572],[-79.8169,34.6587],[-79.7956,34.6476],[-79.8006,34.6377],[-79.7776,34.6122],[-79.8031,34.6097],[-79.83,34.5319],[-79.8392,34.5346],[-79.862,34.521],[-79.8636,34.5087],[-79.8796,34.4935],[-79.9021,34.4892],[-79.9198,34.4958],[-79.9625,34.487],[-79.9834,34.5017],[-80.0265,34.4865],[-80.0455,34.4926],[-80.2886,34.3662],[-80.2859,34.3941],[-80.3022,34.3998],[-80.3114,34.4243],[-80.3263,34.4374],[-80.3303,34.5095],[-80.3536,34.5209],[-80.3548,34.5311],[-80.3723,34.5468],[-80.3862,34.5966],[-80.4073,34.6086],[-80.4192,34.62],[-80.4139,34.6278],[-80.4328,34.6388],[-80.4318,34.66],[-80.4402,34.658],[-80.4503,34.6758],[-80.4608,34.677],[-80.4752,34.6992],[-80.4885,34.7046],[-80.4856,34.7174],[-80.5162,34.7589],[-80.5147,34.7666],[-80.5445,34.784],[-80.5641,34.8148]]]}},{"type":"Feature","properties":{"county_fips":"37085","county_name":"Harnett","state":"NC"},"geometry":{"type":"Polygon","coordinates":[[[-79.2219,35.2694],[-78.9688,35.5225],[-78.9161,35.5841],[-78.6897,35.5159],[-78.6869,35.5019],[-78.6606,35.4962],[-78.6503,35.4724],[-78.6272,35.4583],[-78.6072,35.4321],[-78.5927,35.3986],[-78.5745,35.3885],[-78.5688,35.3693],[-78.5299,35.3349],[-78.5387,35.3158],[-78.5835,35.2968],[-78.5846,35.2733],[-78.6171,35.2457],[-78.7122,35.2576],[-78.7259,35.2669],[-78.7647,35.2584],[-78.7957,35.2657],[-78.8047,35.2572],[-78.8475,35.2528],[-78.8761,35.2415],[-78.8804,35.2304],[-78.9207,35.2202],[-78.9977,35.2141],[-79.0958,35.1921],[-79.1506,35.2133],[-79.1651,35.2409],[-79.2219,35.2694]]]}},{"type":"Feature","properties":{"county_fips":"37125","county_name":"Moore","state":"NC"},"geometry":{"type":"Polygon","coordinates":[[[-79.768,35.5115],[-79.3501,35.518],[-79.3359,35.4978],[-79.3519,35.4775],[-79.3599,35.4775],[-79.3598,35.4697],[-79.3296,35.4398],[-79.3289,35.4231],[-79.2896,35.4004],[-79.2733,35.3523],[-79.1836,35.3072],[-79.223,35.2681],[-79.1651,35.2409],[-79.1506,35.2133],[-79.1004,35.1962],[-79.0976,35.1742],[-79.1251,35.1665],[-79.133,35.1777],[-79.1421,35.169],[-79.1543,35.1804],[-79.1683,35.1814],[-79.1755,35.1931],[-79.2113,35.194],[-79.2298,35.2106],[-79.2467,35.2131],[-79.2926,35.1884],[-79.3123,35.1685],[-79.3354,35.1616],[-79.4588,35.0436],[-79.499,35.0638],[-79.5683,35.0648],[-79.5828,35.084],[-79.5733,35.1225],[-79.6094,35.149],[-79.6161,35.1685],[-79.6571,35.1913],[-79.6725,35.245],[-79.698,35.2515],[-79.712,35.2759],[-79.7099,35.3013],[-79.7642,35.4757],[-79.768,35.5115]]]}},{"type":"Feature","properties":{"county_fips":"37117","county_name":"Martin","state":"NC"},"geometry":{"type":"Polygon","coordinates":[[[-77.4092,35.9987],[-77.3276,36.0714],[-77.3187,36.0554],[-77.2063,36.0068],[-77.2133,35.9925],[-77.1959,35.992],[-77.1908,35.9608],[-77.1976,35.9619],[-77.1889,35.9567],[-77.1979,35.9576],[-77.1942,35.9497],[-77.2023,35.9474],[-77.1858,35.9309],[-77.1309,35.9408],[-77.1249,35.9267],[-77.1029,35.9333],[-77.094,35.9248],[-77.0805,35.9376],[-77.068,35.9361],[-77.0708,35.9438],[-77.0609,35.9386],[-77.045,35.9439],[-77.038,35.9302],[-77.0275,35.9297],[-77.0306,35.9054],[-77.0222,35.8911],[-77.0375,35.8906],[-77.0313,35.8807],[-77.0455,35.8748],[-77.0446,35.8621],[-77.0356,35.8575],[-77.0053,35.8584],[-76.9866,35.8768],[-76.9811,35.8728],[-76.9409,35.9011],[-76.9287,35.9],[-76.893,35.864],[-76.9035,35.8374],[-76.8939,35.8307],[-76.9041,35.8241],[-76.893,35.8187],[-76.8973,35.8139],[-76.8826,35.8119],[-76.8331,35.8522],[-76.832,35.885],[-76.8069,35.8839],[-76.781,35.8639],[-76.7606,35.8649],[-76.7835,35.8492],[-76.7892,35.8376],[-76.7827,35.8242],[-76.8026,35.8052],[-76.793,35.7899],[-76.8035,35.7839],[-76.8033,35.773],[-76.8313,35.7307],[-76.9858,35.6588],[-77.1568,35.7368],[-77.174,35.7328],[-77.2159,35.7601],[-77.2598,35.7652],[-77.2644,35.7752],[-77.2552,35.7864],[-77.3504,35.8192],[-77.3424,35.9053],[-77.4092,35.9987]]]}},{"type":"Feature","properties":{"county_fips":"37051","county_name":"Cumberland","state":"NC"},"geometry":{"type":"Polygon","coordinates":[[[-79.1129,35.1259],[-79.0958,35.1921],[-78.9977,35.2141],[-78.9207,35.2202],[-78.8804,35.2304],[-78.8761,35.2415],[-78.8249,35.2596],[-78.8047,35.2572],[-78.7934,35.266],[-78.7647,35.2584],[-78.7259,35.2669],[-78.7122,35.2576],[-78.6171,35.2457],[-78.6195,35.2269],[-78.6337,35.2125],[-78.6244,35.204],[-78.6468,35.1974],[-78.6357,35.1917],[-78.64,35.1859],[-78.6299,35.1723],[-78.6389,35.167],[-78.6328,35.1642],[-78.6399,35.1549],[-78.6347,35.1394],[-78.6519,35.1218],[-78.6393,35.1159],[-78.6538,35.1114],[-78.6582,35.0945],[-78.6707,35.0925],[-78.6723,35.0853],[-78.6545,35.0508],[-78.6593,35.0428],[-78.645,35.0101],[-78.647,34.9923],[-78.6075,34.9536],[-78.5727,34.9374],[-78.5623,34.918],[-78.5435,34.9138],[-78.5469,34.9006],[-78.5139,34.8817],[-78.5131,34.8691],[-78.4947,34.8562],[-78.5161,34.8459],[-78.8274,34.8507],[-78.9042,34.8349],[-78.927,34.864],[-78.9223,34.8755],[-78.9408,34.9034],[-79.0387,34.9527],[-79.0348,34.963],[-79.0497,34.992],[-79.0903,35.042],[-79.0932,35.0902],[-79.1129,35.1259]]]}},{"type":"Feature","properties":{"county_fips":"37027","county_name":"Caldwell","state":"NC"},"geometry":{"type":"Polygon","coordinates":[[[-81.8105,36.1115],[-81.6748,36.1226],[-81.5455,36.1175],[-81.5162,36.0974],[-81.477,36.0966],[-81.4673,36.0857],[-81.4539,36.0904],[-81.4446,36.0723],[-81.4248,36.0778],[-81.3978,36.0664],[-81.3895,36.0501],[-81.3965,36.0409],[-81.3815,36.0446],[-81.3449,36.0256],[-81.3283,35.9966],[-81.3429,35.9233],[-81.3334,35.8789],[-81.344,35.8247],[-81.3343,35.7963],[-81.3472,35.793],[-81.3539,35.7689],[-81.3712,35.7664],[-81.3788,35.7573],[-81.4393,35.7731],[-81.446,35.7852],[-81.5541,35.7769],[-81.6008,35.8251],[-81.6104,35.8196],[-81.6301,35.8304],[-81.6392,35.8483],[-81.7098,35.875],[-81.7525,35.9244],[-81.7756,35.9269],[-81.7774,35.947],[-81.8091,35.9588],[-81.7357,36.0676],[-81.7537,36.0727],[-81.7608,36.0898],[-81.7755,36.0993],[-81.8105,36.1115]]]}},{"type":"Feature","properties":{"county_fips":"37127","county_name":"Nash","state":"NC"},"geometry":{"type":"Polygon","coordinates":[[[-78.2556,35.8161],[-78.0066,36.2026],[-77.9777,36.1753],[-77.969,36.1838],[-77.9733,36.1942],[-77.9511,36.1806],[-77.9438,36.1926],[-77.9318,36.1826],[-77.9238,36.1888],[-77.9178,36.1796],[-77.923,36.1669],[-77.9007,36.1627],[-77.8879,36.144],[-77.8619,36.1491],[-77.8088,36.1382],[-77.8039,36.1497],[-77.774,36.1426],[-77.7501,36.1575],[-77.7293,36.1487],[-77.7315,36.1393],[-77.7213,36.1338],[-77.7168,36.1458],[-77.698,36.1531],[-77.7085,36.1121],[-77.7718,36.0067],[-77.8447,35.8376],[-77.8739,35.8497],[-77.8974,35.8439],[-78.1973,35.7279],[-78.2155,35.7358],[-78.2188,35.7549],[-78.2327,35.7513],[-78.2383,35.7671],[-78.2506,35.7733],[-78.2439,35.7919],[-78.2556,35.8161]]]}},{"type":"Feature","properties":{"county_fips":"37093","county_name":"Hoke","state":"NC"},"geometry":{"type":"Polygon","coordinates":[[[-79.4579,35.0446],[-79.3354,35.1616],[-79.3123,35.1685],[-79.2926,35.1884],[-79.2429,35.2138],[-79.2113,35.194],[-79.1755,35.1931],[-79.1683,35.1814],[-79.1543,35.1804],[-79.1421,35.169],[-79.133,35.1777],[-79.1251,35.1665],[-79.0976,35.1742],[-79.1129,35.1259],[-79.0932,35.0902],[-79.0903,35.042],[-79.0497,34.992],[-79.0356,34.9552],[-79.1914,34.8337],[-79.3479,34.8386],[-79.3373,34.8537],[-79.3489,34.8874],[-79.3531,34.9442],[-79.3965,34.9941],[-79.4495,35.0271],[-79.4579,35.0446]]]}},{"type":"Feature","properties":{"county_fips":"45079","county_name":"Richland","state":"SC"},"geometry":{"type":"Polygon","coordinates":[[[-81.3453,34.205],[-81.3169,34.2395],[-81.2966,34.2374],[-81.2513,34.2029],[-81.2264,34.2057],[-81.1783,34.1746],[-81.1794,34.1871],[-81.1684,34.1977],[-81.1812,34.2203],[-81.0959,34.2139],[-81.0708,34.2251],[-81.0699,34.2322],[-81.0612,34.228],[-80.9619,34.252],[-80.8259,34.2688],[-80.8685,34.1817],[-80.7193,34.069],[-80.7036,34.081],[-80.6162,34.0996],[-80.6362,34.0802],[-80.6195,34.0823],[-80.6312,34.0682],[-80.6064,34.058],[-80.6126,34.0518],[-80.601,34.0394],[-80.608,34.0293],[-80.6021,34.0254],[-80.6155,34.0245],[-80.628,34.0119],[-80.6253,34.0037],[-80.6373,34.0076],[-80.6354,34.0014],[-80.6466,33.999],[-80.6304,33.9758],[-80.6331,33.9665],[-80.6158,33.9655],[-80.6291,33.9418],[-80.6167,33.9364],[-80.6306,33.9337],[-80.6262,33.9299],[-80.6341,33.9173],[-80.615,33.8919],[-80.6256,33.8935],[-80.623,33.8604],[-80.6335,33.8527],[-80.6161,33.8343],[-80.6157,33.8145],[-80.5983,33.8045],[-80.6054,33.8047],[-80.5962,33.7864],[-80.603,33.7853],[-80.5977,33.7775],[-80.6057,33.7718],[-80.605,33.7585],[-80.6187,33.7436],[-80.6328,33.7437],[-80.6564,33.7614],[-80.6547,33.7735],[-80.6866,33.756],[-80.7054,33.7598],[-80.7123,33.7712],[-80.7154,33.7605],[-80.7268,33.7683],[-80.7385,33.7564],[-80.7363,33.7674],[-80.745,33.7764],[-80.7516,33.7706],[-80.7473,33.7617],[-80.7597,33.774],[-80.7849,33.761],[-80.783,33.7689],[-80.8112,33.7797],[-80.828,33.7762],[-80.8225,33.787],[-80.8335,33.7855],[-80.8375,33.7939],[-80.8658,33.8027],[-80.8748,33.8155],[-80.9156,33.8114],[-80.9153,33.8339],[-80.9362,33.8264],[-80.9537,33.8427],[-80.9883,33.8498],[-80.9862,33.8575],[-81.0021,33.8631],[-80.9982,33.8768],[-81.0207,33.8847],[-81.0088,33.9041],[-81.0301,33.9136],[-81.017,33.9309],[-81.0547,34.0008],[-81.0975,34.0177],[-81.132,34.0623],[-81.1729,34.0905],[-81.2334,34.1018],[-81.2758,34.0974],[-81.315,34.1461],[-81.3023,34.1624],[-81.3145,34.1869],[-81.3453,34.205]]]}},{"type":"Feature","properties":{"county_fips":"45047","county_name":"Greenwood","state":"SC"},"geometry":{"type":"Polygon","coordinates":[[[-82.3342,34.3426],[-82.2463,34.4097],[-82.2446,34.4034],[-82.2284,34.4024],[-82.2313,34.3925],[-82.178,34.3581],[-82.1687,34.3301],[-82.134,34.3238],[-82.1217,34.3034],[-82.1107,34.3081],[-82.0845,34.2998],[-82.0093,34.2425],[-81.9784,34.2381],[-81.9711,34.2222],[-81.9391,34.1955],[-81.9205,34.192],[-81.917,34.177],[-81.9054,34.1781],[-81.9077,34.1619],[-81.8972,34.1463],[-81.8685,34.1324],[-81.897,34.1069],[-81.9003,34.095],[-81.9158,34.091],[-81.9473,34.0371],[-81.9899,33.9971],[-82.0078,33.9613],[-82.047,33.9532],[-82.0451,33.9834],[-82.0761,33.9788],[-82.1511,33.9865],[-82.1677,33.9731],[-82.1844,33.9744],[-82.2208,33.9911],[-82.2437,34.0179],[-82.3059,33.9718],[-82.3269,34.0641],[-82.2688,34.1071],[-82.2498,34.1345],[-82.2401,34.1922],[-82.2482,34.2206],[-82.2653,34.2445],[-82.3071,34.2759],[-82.3111,34.3204],[-82.3238,34.3253],[-82.3342,34.3426]]]}},{"type":"Feature","properties":{"county_fips":"45071","county_name":"Newberry","state":"SC"},"geometry":{"type":"Polygon","coordinates":[[[-81.9437,34.2061],[-81.9114,34.2463],[-81.8953,34.3005],[-81.8485,34.3235],[-81.8498,34.333],[-81.8369,34.3428],[-81.7826,34.3651],[-81.7345,34.4377],[-81.7225,34.4497],[-81.7032,34.4526],[-81.6436,34.5337],[-81.6272,34.5217],[-81.6178,34.5252],[-81.6134,34.5138],[-81.5529,34.4768],[-81.5569,34.4631],[-81.5463,34.4619],[-81.5511,34.4522],[-81.541,34.445],[-81.4846,34.49],[-81.4232,34.4944],[-81.4125,34.4699],[-81.4212,34.4538],[-81.3965,34.3898],[-81.3715,34.3504],[-81.359,34.3105],[-81.3396,34.2922],[-81.3423,34.2669],[-81.3169,34.2395],[-81.3453,34.205],[-81.339,34.1976],[-81.3523,34.1967],[-81.3748,34.179],[-81.4037,34.1779],[-81.4372,34.13],[-81.3882,34.0793],[-81.4028,34.0708],[-81.4249,34.083],[-81.4449,34.0777],[-81.4655,34.0873],[-81.472,34.0766],[-81.4851,34.0823],[-81.5025,34.0739],[-81.5139,34.0823],[-81.5389,34.0817],[-81.5896,34.1172],[-81.6005,34.1129],[-81.6076,34.1232],[-81.6227,34.1263],[-81.637,34.1462],[-81.6727,34.156],[-81.6915,34.1729],[-81.7155,34.1752],[-81.7316,34.1876],[-81.7788,34.1647],[-81.7842,34.1727],[-81.8273,34.1728],[-81.8273,34.1822],[-81.8389,34.1722],[-81.8606,34.1794],[-81.8764,34.1678],[-81.8792,34.1579],[-81.8667,34.1381],[-81.8774,34.1369],[-81.8982,34.1476],[-81.9077,34.1619],[-81.9054,34.1781],[-81.917,34.177],[-81.9205,34.192],[-81.9391,34.1955],[-81.9437,34.2061]]]}},{"type":"Feature","properties":{"county_fips":"37019","county_name":"Brunswick","state":"NC"},"geometry":{"type":"Polygon","coordinates":[[[-78.6504,33.9457],[-78.6422,33.9581],[-78.6484,33.9655],[-78.6241,33.9733],[-78.6406,34.0103],[-78.6003,34.03],[-78.5908,34.0272],[-78.5793,34.0369],[-78.5796,34.0516],[-78.5571,34.0618],[-78.5602,34.0921],[-78.5441,34.0999],[-78.554,34.1041],[-78.549,34.1115],[-78.5551,34.1168],[-78.5388,34.1252],[-78.5452,34.1457],[-78.5029,34.1691],[-78.4227,34.1396],[-78.3916,34.1739],[-78.3668,34.1888],[-78.3743,34.2049],[-78.2546,34.2163],[-78.1545,34.365],[-78.1395,34.3655],[-78.1373,34.3717],[-78.1207,34.368],[-78.1028,34.355],[-78.0788,34.3539],[-78.0783,34.3389],[-78.0593,34.3379],[-78.0598,34.3448],[-78.0467,34.3304],[-78.0263,34.3293],[-78.0262,34.3181],[-78.0087,34.3226],[-78.0159,34.2903],[-78.0059,34.2889],[-78.0048,34.2805],[-77.9902,34.2817],[-78.002,34.2731],[-77.9875,34.2683],[-77.9731,34.2472],[-77.9678,34.2521],[-77.9685,34.2423],[-77.9566,34.2345],[-77.9586,34.1738],[-77.9369,34.1228],[-77.931,34.0503],[-77.9485,33.9713],[-77.9372,33.9292],[-77.9534,33.8956],[-77.9605,33.8432],[-78.0083,33.8642],[-77.9898,33.888],[-77.989,33.9025],[-77.9959,33.9056],[-78.017,33.9023],[-78.0207,33.8883],[-78.1203,33.9103],[-78.2392,33.9175],[-78.3871,33.902],[-78.5405,33.8527],[-78.6504,33.9457]]]}},{"type":"Feature","properties":{"county_fips":"37119","county_name":"Mecklenburg","state":"NC"},"geometry":{"type":"Polygon","coordinates":[[[-81.0576,35.0624],[-81.0521,35.0963],[-81.0325,35.11],[-81.039,35.1263],[-81.051,35.1317],[-81.0471,35.1452],[-81.0058,35.157],[-81.0024,35.1808],[-81.0141,35.222],[-81.0083,35.2481],[-81.0151,35.2687],[-81.0009,35.3054],[-80.9817,35.3272],[-80.9849,35.3401],[-80.9694,35.3514],[-80.9621,35.347],[-80.923,35.3599],[-80.9613,35.3755],[-80.9764,35.3642],[-80.9868,35.379],[-80.9552,35.3932],[-80.9587,35.4326],[-80.9425,35.4577],[-80.9515,35.4671],[-80.9473,35.4885],[-80.9067,35.5148],[-80.7842,35.506],[-80.7868,35.493],[-80.7522,35.4141],[-80.7635,35.4121],[-80.7664,35.4015],[-80.6931,35.3464],[-80.6671,35.2688],[-80.5503,35.2084],[-80.7676,35.0363],[-80.8045,35.0277],[-80.8404,35.0016],[-80.935,35.1074],[-81.0415,35.0447],[-81.0576,35.0624]]]}},{"type":"Feature","properties":{"county_fips":"45007","county_name":"Anderson","state":"SC"},"geometry":{"type":"Polygon","coordinates":[[[-82.9922,34.4792],[-82.7876,34.6727],[-82.4851,34.8194],[-82.4766,34.8022],[-82.4609,34.7967],[-82.4521,34.7764],[-82.4655,34.7212],[-82.4574,34.7142],[-82.4654,34.706],[-82.4569,34.6995],[-82.4639,34.6856],[-82.4567,34.6803],[-82.4677,34.6671],[-82.4631,34.6558],[-82.4559,34.6573],[-82.4529,34.6238],[-82.4382,34.6107],[-82.4438,34.6073],[-82.4283,34.5989],[-82.4196,34.5571],[-82.3863,34.5393],[-82.3642,34.5154],[-82.344,34.5122],[-82.3438,34.5],[-82.3139,34.4843],[-82.742,34.2117],[-82.7467,34.2664],[-82.7818,34.2979],[-82.7947,34.3406],[-82.8348,34.3663],[-82.8588,34.4552],[-82.9016,34.4868],[-82.9922,34.4792]]]}},{"type":"Feature","properties":{"county_fips":"45083","county_name":"Spartanburg","state":"SC"},"geometry":{"type":"Polygon","coordinates":[[[-82.2263,34.8525],[-82.2159,35.196],[-81.8747,35.1841],[-81.8061,35.0572],[-81.8076,35.0356],[-81.7943,35.0354],[-81.7857,35.0193],[-81.7552,34.9306],[-81.7347,34.9328],[-81.7141,34.9129],[-81.7828,34.8372],[-81.8204,34.6865],[-81.8519,34.5948],[-81.8636,34.5802],[-81.8712,34.5929],[-81.8802,34.5967],[-81.8903,34.5901],[-81.8938,34.6017],[-81.9103,34.603],[-81.9519,34.6495],[-82.0046,34.6623],[-82.0587,34.7017],[-82.0694,34.7023],[-82.0666,34.7152],[-82.0788,34.7194],[-82.0839,34.7448],[-82.1011,34.744],[-82.1094,34.7563],[-82.1152,34.7489],[-82.1354,34.7731],[-82.1319,34.7788],[-82.1535,34.782],[-82.1688,34.7971],[-82.1652,34.8069],[-82.1734,34.806],[-82.1958,34.835],[-82.2263,34.8525]]]}},{"type":"Feature","properties":{"county_fips":"45067","county_name":"Marion","state":"SC"},"geometry":{"type":"Polygon","coordinates":[[[-79.5719,34.1854],[-79.5457,34.2108],[-79.5543,34.2476],[-79.5124,34.2575],[-79.4963,34.2748],[-79.4791,34.2786],[-79.4807,34.2881],[-79.411,34.3002],[-79.3803,34.3006],[-79.3054,34.2693],[-79.2944,34.277],[-79.2394,34.2543],[-79.2143,34.2555],[-79.1735,34.2875],[-79.1266,34.2517],[-79.1348,34.241],[-79.1267,34.2361],[-79.1357,34.2291],[-79.1337,34.2157],[-79.1539,34.2072],[-79.1736,34.1795],[-79.1769,34.1848],[-79.1927,34.1754],[-79.1973,34.1587],[-79.2075,34.1548],[-79.2058,34.133],[-79.2189,34.1268],[-79.2209,34.1077],[-79.2301,34.1088],[-79.2501,34.0904],[-79.2481,34.0795],[-79.2396,34.0768],[-79.2478,34.0571],[-79.3076,34.0277],[-79.3072,34.0059],[-79.3151,33.9965],[-79.3285,34.0002],[-79.3388,33.9705],[-79.3301,33.9616],[-79.3334,33.9527],[-79.3116,33.9442],[-79.317,33.9341],[-79.3069,33.9348],[-79.3067,33.9239],[-79.3123,33.9182],[-79.2999,33.9038],[-79.2636,33.8925],[-79.256,33.8654],[-79.2641,33.8425],[-79.2488,33.8312],[-79.2603,33.8149],[-79.2355,33.7644],[-79.1959,33.7279],[-79.1903,33.7058],[-79.1994,33.7101],[-79.1962,33.7013],[-79.2128,33.7001],[-79.218,33.7058],[-79.2389,33.6944],[-79.2493,33.697],[-79.2424,33.7059],[-79.2751,33.7089],[-79.2711,33.7216],[-79.2864,33.7176],[-79.2933,33.7523],[-79.3233,33.7887],[-79.3152,33.8268],[-79.3369,33.8326],[-79.332,33.8366],[-79.3398,33.8415],[-79.3538,33.8341],[-79.3535,33.8412],[-79.3683,33.8429],[-79.3895,33.8732],[-79.4098,33.8853],[-79.4004,33.8922],[-79.429,33.8978],[-79.4522,33.9148],[-79.452,33.9246],[-79.4596,33.9208],[-79.4629,33.9318],[-79.4737,33.93],[-79.4917,33.9465],[-79.4815,33.9647],[-79.4998,33.9713],[-79.5169,33.994],[-79.5089,34.0037],[-79.5114,34.0409],[-79.5359,34.0761],[-79.5291,34.1002],[-79.5153,34.0972],[-79.5246,34.1156],[-79.5172,34.1268],[-79.5325,34.1263],[-79.5326,34.1357],[-79.5719,34.1854]]]}},{"type":"Feature","properties":{"county_fips":"37161","county_name":"Rutherford","state":"NC"},"geometry":{"type":"Polygon","coordinates":[[[-82.2805,35.4434],[-82.2658,35.4678],[-82.2514,35.4607],[-82.2425,35.4678],[-82.2243,35.4983],[-82.2315,35.5199],[-82.169,35.5278],[-82.1505,35.518],[-82.0826,35.5334],[-82.0398,35.5327],[-82.0027,35.5518],[-81.9676,35.526],[-81.905,35.5419],[-81.8427,35.5423],[-81.8221,35.5805],[-81.7988,35.58],[-81.7941,35.5932],[-81.7722,35.5929],[-81.772,35.602],[-81.7534,35.6136],[-81.7371,35.6019],[-81.7173,35.6046],[-81.7057,35.5812],[-81.692,35.58],[-81.7029,35.3573],[-81.7595,35.2226],[-81.7681,35.1804],[-81.9693,35.1872],[-81.9709,35.2116],[-81.9628,35.2269],[-81.9688,35.2578],[-81.9957,35.2706],[-82.054,35.3354],[-82.0771,35.342],[-82.0972,35.3699],[-82.1052,35.3672],[-82.1094,35.3833],[-82.16,35.4094],[-82.1716,35.4093],[-82.1851,35.3966],[-82.2046,35.4036],[-82.2205,35.3946],[-82.2391,35.4026],[-82.2613,35.3932],[-82.2701,35.4004],[-82.2805,35.4434]]]}},{"type":"Feature","properties":{"county_fips":"45019","county_name":"Charleston","state":"SC"},"geometry":{"type":"MultiPolygon","coordinates":[[[[-79.5079,33.0201],[-79.5024,33.0206],[-79.501,33.0182],[-79.5031,33.0176],[-79.5079,33.0201]]],[[[-79.5522,32.9888],[-79.5487,32.993],[-79.5452,32.9907],[-79.5522,32.9888]]],[[[-80.182,32.5472],[-80.1845,32.5536],[-80.1772,32.5483],[-80.182,32.5472]]],[[[-80.4536,32.7405],[-80.4475,32.7627],[-80.4329,32.7785],[-80.4358,32.7882],[-80.4054,32.815],[-80.3941,32.8445],[-80.4013,32.8585],[-80.3018,32.8519],[-80.1493,32.8182],[-80.1608,32.8409],[-80.1837,32.8471],[-80.1857,32.8608],[-80.1767,32.8671],[-80.1613,32.8559],[-80.1549,32.8651],[-80.1622,32.8746],[-80.1448,32.8876],[-80.1254,32.8896],[-80.1228,32.9018],[-80.1195,32.8936],[-80.0977,32.887],[-80.0798,32.9282],[-80.1413,32.9792],[-80.1105,32.9855],[-80.1355,32.9989],[-80.146,32.9843],[-80.1676,33.0026],[-80.1626,33.0105],[-80.17,33.0043],[-80.1764,33.01],[-80.1607,33.0208],[-80.1492,33.0216],[-80.1134,32.9981],[-80.1027,33.0013],[-80.1051,32.9925],[-80.0982,32.9881],[-80.056,32.9994],[-80.0401,32.9827],[-80.0415,32.955],[-80.0118,32.8999],[-79.9482,32.9083],[-79.9624,32.8911],[-79.9637,32.8754],[-79.9563,32.86],[-79.9312,32.85],[-79.9297,32.8232],[-79.9138,32.8157],[-79.8962,32.8297],[-79.8959,32.8599],[-79.853,32.8761],[-79.8359,32.9198],[-79.826,32.9186],[-79.7814,32.9438],[-79.7716,32.9418],[-79.7634,32.9563],[-79.7693,32.9716],[-79.7621,32.9891],[-79.7303,33.0126],[-79.7164,33.0386],[-79.6605,33.0908],[-79.6423,33.1244],[-79.6123,33.1384],[-79.6029,33.1338],[-79.5623,33.1563],[-79.5339,33.1438],[-79.522,33.1467],[-79.4773,33.2089],[-79.4503,33.2073],[-79.4377,33.2152],[-79.404,33.1838],[-79.3513,33.1535],[-79.3333,33.1558],[-79.2688,33.136],[-79.2756,33.1168],[-79.3282,33.0904],[-79.3623,33.0091],[-79.4231,33.0102],[-79.4011,33.0112],[-79.4044,33.0196],[-79.4833,33.0098],[-79.5069,33.0328],[-79.5252,33.0373],[-79.5711,33.0138],[-79.6176,32.9527],[-79.6075,32.9262],[-79.5741,32.9325],[-79.5811,32.9064],[-79.6311,32.8886],[-79.6981,32.8513],[-79.7264,32.806],[-79.814,32.7748],[-79.824,32.7627],[-79.8488,32.7536],[-79.878,32.7857],[-79.9232,32.7818],[-79.9285,32.7542],[-79.8791,32.7508],[-79.8709,32.7424],[-79.8701,32.73],[-79.8871,32.7019],[-79.8856,32.6849],[-79.9743,32.641],[-79.9922,32.611],[-80.0981,32.5983],[-80.1454,32.5781],[-80.1666,32.5602],[-80.195,32.56],[-80.3182,32.5113],[-80.3229,32.5237],[-80.3483,32.5254],[-80.35,32.5187],[-80.3246,32.5037],[-80.3267,32.4931],[-80.3513,32.4987],[-80.3815,32.5302],[-80.4149,32.5465],[-80.4123,32.5569],[-80.3957,32.5617],[-80.3891,32.5738],[-80.3972,32.5919],[-80.3872,32.6151],[-80.3991,32.6183],[-80.4204,32.6042],[-80.428,32.6225],[-80.4075,32.6271],[-80.389,32.6523],[-80.4049,32.6524],[-80.4209,32.6701],[-80.4227,32.6885],[-80.4159,32.6947],[-80.4228,32.7146],[-80.4354,32.7131],[-80.4296,32.7204],[-80.4471,32.7284],[-80.4536,32.7405]]]]}},{"type":"Feature","properties":{"county_fips":"45057","county_name":"Lancaster","state":"SC"},"geometry":{"type":"Polygon","coordinates":[[[-80.9093,35.0176],[-80.8973,35.0353],[-80.9059,35.0468],[-80.8996,35.0599],[-80.9062,35.0764],[-80.782,34.9358],[-80.7975,34.8198],[-80.5617,34.8175],[-80.5524,34.7919],[-80.5147,34.7666],[-80.5162,34.7589],[-80.4856,34.7174],[-80.4885,34.7046],[-80.4752,34.6992],[-80.4608,34.677],[-80.4503,34.6758],[-80.4402,34.658],[-80.4318,34.66],[-80.435,34.6421],[-80.4139,34.6278],[-80.4192,34.62],[-80.4084,34.6148],[-80.5507,34.56],[-80.5239,34.5098],[-80.5303,34.5037],[-80.544,34.5075],[-80.5489,34.4933],[-80.5794,34.4846],[-80.5958,34.5021],[-80.6104,34.4888],[-80.6136,34.4999],[-80.6296,34.4987],[-80.6296,34.4912],[-80.6227,34.4915],[-80.6281,34.4824],[-80.6322,34.4914],[-80.6456,34.4915],[-80.6452,34.4837],[-80.6584,34.4786],[-80.6891,34.5153],[-80.6982,34.516],[-80.7136,34.4873],[-80.74,34.48],[-80.7456,34.5126],[-80.7377,34.5395],[-80.7433,34.5399],[-80.8792,34.4578],[-80.8987,34.4867],[-80.8817,34.5001],[-80.873,34.553],[-80.8783,34.5811],[-80.8922,34.598],[-80.8893,34.6182],[-80.8965,34.6352],[-80.8886,34.6686],[-80.8599,34.7002],[-80.8777,34.7439],[-80.8764,34.7885],[-80.8989,34.8237],[-80.8669,34.8477],[-80.8801,34.8715],[-80.8789,34.901],[-80.8651,34.9239],[-80.874,34.9654],[-80.8847,34.9662],[-80.8857,34.9915],[-80.894,34.9932],[-80.8993,35.0114],[-80.9093,35.0176]]]}},{"type":"Feature","properties":{"county_fips":"45069","county_name":"Marlboro","state":"SC"},"geometry":{"type":"Polygon","coordinates":[[[-79.9262,34.7665],[-79.9307,34.8066],[-79.6753,34.8047],[-79.45,34.621],[-79.6334,34.298],[-79.6578,34.3052],[-79.6604,34.3223],[-79.6927,34.3565],[-79.6737,34.3711],[-79.6894,34.3818],[-79.6834,34.3991],[-79.6997,34.4066],[-79.7213,34.3925],[-79.7184,34.4171],[-79.7506,34.4368],[-79.7518,34.4665],[-79.7317,34.4664],[-79.7324,34.4771],[-79.7218,34.4854],[-79.7266,34.4955],[-79.7544,34.5041],[-79.7521,34.5135],[-79.7633,34.5191],[-79.7691,34.4965],[-79.7829,34.4978],[-79.788,34.4843],[-79.7964,34.4916],[-79.8061,34.4846],[-79.8334,34.5103],[-79.8062,34.6058],[-79.7778,34.6143],[-79.8006,34.6377],[-79.7956,34.6476],[-79.8169,34.6587],[-79.8305,34.6572],[-79.8594,34.6778],[-79.893,34.742],[-79.9262,34.7665]]]}},{"type":"Feature","properties":{"county_fips":"37101","county_name":"Johnston","state":"NC"},"geometry":{"type":"Polygon","coordinates":[[[-78.7089,35.5195],[-78.4677,35.7075],[-78.46,35.7057],[-78.256,35.8181],[-78.2439,35.7919],[-78.2509,35.7739],[-78.2383,35.7671],[-78.2327,35.7513],[-78.2188,35.7549],[-78.2085,35.7303],[-78.1823,35.7289],[-78.1609,35.7119],[-78.1578,35.6856],[-78.1256,35.6031],[-78.0648,35.5853],[-78.1549,35.4178],[-78.1537,35.392],[-78.1443,35.3874],[-78.1624,35.3672],[-78.1532,35.3507],[-78.2155,35.3415],[-78.2156,35.3338],[-78.2421,35.32],[-78.269,35.3228],[-78.2897,35.3151],[-78.3066,35.2876],[-78.4118,35.2547],[-78.4919,35.2633],[-78.5383,35.3164],[-78.5328,35.3423],[-78.5688,35.3693],[-78.5725,35.3865],[-78.5927,35.3986],[-78.6272,35.4583],[-78.6503,35.4724],[-78.6606,35.4962],[-78.6755,35.4964],[-78.6869,35.5019],[-78.6897,35.5159],[-78.7089,35.5195]]]}},{"type":"Feature","properties":{"county_fips":"37079","county_name":"Greene","state":"NC"},"geometry":{"type":"Polygon","coordinates":[[[-77.8267,35.4241],[-77.8225,35.5854],[-77.8062,35.5835],[-77.6948,35.6518],[-77.6828,35.6428],[-77.6816,35.6308],[-77.6102,35.5675],[-77.5914,35.5632],[-77.5579,35.532],[-77.541,35.533],[-77.5252,35.5283],[-77.5217,35.5176],[-77.5034,35.5174],[-77.5116,35.497],[-77.4941,35.4774],[-77.4927,35.4615],[-77.4805,35.4513],[-77.4842,35.4451],[-77.4767,35.4454],[-77.4755,35.4267],[-77.4839,35.4137],[-77.5099,35.4215],[-77.5283,35.4143],[-77.5342,35.3981],[-77.5664,35.383],[-77.5907,35.3736],[-77.6144,35.3776],[-77.6376,35.3543],[-77.6793,35.3475],[-77.6975,35.3771],[-77.8062,35.3688],[-77.7999,35.3823],[-77.8046,35.405],[-77.8267,35.4241]]]}},{"type":"Feature","properties":{"county_fips":"37057","county_name":"Davidson","state":"NC"},"geometry":{"type":"Polygon","coordinates":[[[-80.4874,35.8336],[-80.4768,35.8438],[-80.4626,35.827],[-80.4464,35.8367],[-80.4326,35.8281],[-80.4233,35.852],[-80.3976,35.8412],[-80.3884,35.8455],[-80.3911,35.8694],[-80.4165,35.8805],[-80.4079,35.8915],[-80.3726,35.8845],[-80.3652,35.8934],[-80.3749,35.9113],[-80.3683,35.9276],[-80.3753,35.9566],[-80.3943,35.9728],[-80.33,35.9908],[-80.3303,35.9965],[-80.2138,35.9971],[-80.2137,36.0268],[-80.1498,36.0268],[-80.0432,36.0108],[-80.0668,35.5057],[-80.1833,35.5041],[-80.1992,35.5456],[-80.2098,35.5523],[-80.2089,35.5813],[-80.265,35.6296],[-80.2883,35.6353],[-80.3073,35.6657],[-80.3306,35.6788],[-80.3344,35.6921],[-80.3241,35.7058],[-80.3324,35.7189],[-80.3728,35.7165],[-80.4555,35.7359],[-80.4595,35.746],[-80.4506,35.766],[-80.4767,35.7891],[-80.4644,35.805],[-80.4723,35.8255],[-80.4874,35.8336]]]}},{"type":"Feature","properties":{"county_fips":"37123","county_name":"Montgomery","state":"NC"},"geometry":{"type":"Polygon","coordinates":[[[-80.1826,35.5042],[-79.768,35.5115],[-79.7642,35.4757],[-79.7099,35.3013],[-79.712,35.2759],[-79.698,35.2515],[-79.6725,35.245],[-79.6571,35.1913],[-79.6143,35.1637],[-79.6421,35.1577],[-79.6944,35.1796],[-79.7495,35.173],[-79.8513,35.1839],[-79.8986,35.1617],[-79.9834,35.1585],[-80.0228,35.1372],[-80.0754,35.1431],[-80.0533,35.1786],[-80.0698,35.2183],[-80.0908,35.236],[-80.0984,35.2581],[-80.0819,35.3215],[-80.0663,35.3406],[-80.0654,35.3605],[-80.0512,35.3715],[-80.0661,35.3895],[-80.0937,35.402],[-80.0901,35.4156],[-80.1005,35.4299],[-80.0975,35.4381],[-80.1087,35.4451],[-80.1099,35.461],[-80.1399,35.4751],[-80.1617,35.4752],[-80.177,35.4868],[-80.1826,35.5042]]]}},{"type":"Feature","properties":{"county_fips":"45077","county_name":"Pickens","state":"SC"},"geometry":{"type":"MultiPolygon","coordinates":[[[[-82.844,34.6195],[-82.843,34.621],[-82.842,34.6215],[-82.844,34.6195]]],[[[-82.8649,34.617],[-82.8591,34.6215],[-82.8529,34.6148],[-82.8451,34.6185],[-82.8578,34.6088],[-82.8649,34.617]]],[[[-82.9434,34.9885],[-82.9303,35.0093],[-82.9121,35.0095],[-82.9209,35.0157],[-82.9138,35.0295],[-82.9183,35.0361],[-82.8976,35.056],[-82.7879,35.085],[-82.7764,35.0813],[-82.782,35.0668],[-82.7641,35.0682],[-82.7497,35.0476],[-82.7191,35.0528],[-82.7082,35.0621],[-82.6597,35.067],[-82.6416,35.0602],[-82.6114,35.0723],[-82.5716,35.0746],[-82.5743,35.0646],[-82.5905,35.0637],[-82.5977,35.0543],[-82.5982,35.0385],[-82.5903,35.0442],[-82.5857,35.0324],[-82.5956,35.0101],[-82.5379,35.0155],[-82.5432,35.0046],[-82.5341,34.9838],[-82.5481,34.9787],[-82.5274,34.9659],[-82.5182,34.9204],[-82.501,34.9104],[-82.4965,34.8876],[-82.4877,34.8858],[-82.489,34.8614],[-82.483,34.8579],[-82.4891,34.8411],[-82.4808,34.8425],[-82.487,34.8306],[-82.4764,34.8279],[-82.7876,34.6727],[-82.84,34.6233],[-82.8522,34.6213],[-82.8567,34.6323],[-82.8366,34.6327],[-82.8274,34.6424],[-82.8373,34.6393],[-82.8396,34.6451],[-82.8229,34.6545],[-82.8401,34.6525],[-82.8324,34.66],[-82.8512,34.6685],[-82.8494,34.6959],[-82.8651,34.7016],[-82.857,34.7132],[-82.8581,34.7293],[-82.9002,34.7411],[-82.889,34.7608],[-82.8932,34.7654],[-82.873,34.79],[-82.8872,34.7952],[-82.8881,34.8077],[-82.8966,34.8029],[-82.9011,34.8232],[-82.8961,34.8369],[-82.9093,34.8947],[-82.901,34.8954],[-82.9014,34.9146],[-82.9089,34.9213],[-82.9033,34.935],[-82.9157,34.9471],[-82.9088,34.9544],[-82.9192,34.9599],[-82.9159,34.9724],[-82.9368,34.9781],[-82.9434,34.9885]]]]}},{"type":"Feature","properties":{"county_fips":"45085","county_name":"Sumter","state":"SC"},"geometry":{"type":"Polygon","coordinates":[[[-80.6466,33.999],[-80.6354,34.0014],[-80.6373,34.0076],[-80.6253,34.0037],[-80.628,34.0119],[-80.6155,34.0245],[-80.6021,34.0254],[-80.608,34.0293],[-80.601,34.0394],[-80.6126,34.0518],[-80.6064,34.058],[-80.6312,34.0682],[-80.6195,34.0823],[-80.6362,34.0802],[-80.6157,34.0968],[-80.6203,34.1074],[-80.5801,34.0999],[-80.4799,34.1687],[-80.4813,34.1126],[-80.4055,34.0814],[-80.3956,34.0895],[-80.3787,34.0807],[-80.317,34.0783],[-80.2949,34.0394],[-80.267,34.0331],[-80.2498,33.9922],[-80.1883,34.0049],[-80.1804,33.952],[-80.0704,34.0079],[-80.0268,34.0085],[-80.0006,34.0479],[-79.9598,34.0214],[-79.9469,34.023],[-79.9109,34.0065],[-79.8935,33.988],[-80.1216,33.8696],[-80.1954,33.839],[-80.2554,33.8041],[-80.2712,33.7863],[-80.3971,33.7678],[-80.392,33.7156],[-80.4344,33.7119],[-80.4259,33.7241],[-80.4309,33.7383],[-80.4493,33.7375],[-80.4544,33.7135],[-80.4787,33.7143],[-80.4976,33.6743],[-80.5341,33.6439],[-80.5655,33.6647],[-80.5624,33.6784],[-80.5903,33.6848],[-80.5931,33.7019],[-80.6153,33.7118],[-80.6297,33.7374],[-80.6056,33.7575],[-80.6057,33.7718],[-80.5977,33.7775],[-80.603,33.7853],[-80.5962,33.7864],[-80.6054,33.8047],[-80.5983,33.8045],[-80.6157,33.8145],[-80.6161,33.8343],[-80.6335,33.8527],[-80.623,33.8604],[-80.6256,33.8935],[-80.615,33.8919],[-80.6341,33.9173],[-80.6262,33.9299],[-80.6306,33.9337],[-80.6167,33.9364],[-80.6291,33.9418],[-80.6158,33.9655],[-80.6331,33.9665],[-80.6304,33.9758],[-80.6466,33.999]]]}},{"type":"Feature","properties":{"county_fips":"45041","county_name":"Florence","state":"SC"},"geometry":{"type":"Polygon","coordinates":[[[-80.0699,34.0862],[-79.809,34.2524],[-79.7494,34.2451],[-79.7526,34.2506],[-79.7296,34.2952],[-79.6856,34.2844],[-79.6624,34.3076],[-79.6239,34.3006],[-79.5767,34.2726],[-79.544,34.2252],[-79.5485,34.2041],[-79.5718,34.1837],[-79.5326,34.1357],[-79.5325,34.1263],[-79.5172,34.1268],[-79.5246,34.1156],[-79.5153,34.0972],[-79.5291,34.1002],[-79.5359,34.0761],[-79.5114,34.0409],[-79.5089,34.0037],[-79.5169,33.994],[-79.4998,33.9713],[-79.4815,33.9647],[-79.4917,33.9465],[-79.4737,33.93],[-79.4629,33.9318],[-79.4596,33.9208],[-79.452,33.9246],[-79.4522,33.9148],[-79.429,33.8978],[-79.4004,33.8922],[-79.4098,33.8853],[-79.3895,33.8732],[-79.3683,33.8429],[-79.3535,33.8412],[-79.3538,33.8341],[-79.3398,33.8415],[-79.332,33.8366],[-79.3369,33.8326],[-79.3152,33.8268],[-79.3173,33.7993],[-79.3404,33.8028],[-79.3522,33.8151],[-79.3826,33.8186],[-79.3972,33.8012],[-79.4187,33.7994],[-79.4415,33.7844],[-79.4965,33.7754],[-79.6349,33.8084],[-79.6358,33.818],[-79.6773,33.8147],[-79.688,33.8049],[-79.6996,33.814],[-79.7249,33.8146],[-79.7434,33.8351],[-79.7984,33.8356],[-79.8349,33.8826],[-79.8549,33.8917],[-79.8664,33.8843],[-79.944,33.8851],[-79.9746,33.9465],[-79.8942,33.9897],[-79.9109,34.0065],[-79.9921,34.0398],[-80.0319,34.0768],[-80.0699,34.0862]]]}},{"type":"Feature","properties":{"county_fips":"45015","county_name":"Berkeley","state":"SC"},"geometry":{"type":"Polygon","coordinates":[[[-80.3613,33.2631],[-80.3489,33.278],[-80.3172,33.2641],[-80.3019,33.2675],[-80.2538,33.2993],[-80.2396,33.3522],[-80.2416,33.3831],[-80.2385,33.3912],[-80.2302,33.3841],[-80.2299,33.3916],[-80.2226,33.3913],[-80.2224,33.4478],[-80.204,33.4419],[-80.2082,33.4523],[-80.1981,33.4516],[-80.1975,33.4436],[-80.181,33.4546],[-80.1706,33.4497],[-80.1627,33.4607],[-80.1615,33.4489],[-80.1483,33.4499],[-80.1507,33.4603],[-80.1392,33.454],[-80.1442,33.4641],[-80.1318,33.4634],[-80.1521,33.4854],[-80.1273,33.4933],[-80.1255,33.5024],[-80.0959,33.4954],[-80.0799,33.5069],[-80.0425,33.5009],[-80.0253,33.5064],[-80.0205,33.4984],[-80.0054,33.5025],[-80.0019,33.4947],[-79.9962,33.5068],[-79.9898,33.4983],[-79.9646,33.4986],[-79.9031,33.4504],[-79.8941,33.4537],[-79.8682,33.4345],[-79.8787,33.4271],[-79.8613,33.4178],[-79.8608,33.4085],[-79.8083,33.3733],[-79.7842,33.3761],[-79.7554,33.3295],[-79.7348,33.3202],[-79.7096,33.3212],[-79.6066,33.2793],[-79.5623,33.2725],[-79.5598,33.2605],[-79.5498,33.265],[-79.5458,33.2548],[-79.494,33.236],[-79.4793,33.2461],[-79.4829,33.2354],[-79.4707,33.2394],[-79.4739,33.2298],[-79.4587,33.2352],[-79.462,33.2294],[-79.4537,33.2278],[-79.4551,33.2177],[-79.4466,33.2118],[-79.4837,33.2038],[-79.522,33.1467],[-79.5339,33.1438],[-79.5623,33.1563],[-79.6029,33.1338],[-79.6123,33.1384],[-79.6423,33.1244],[-79.6605,33.0908],[-79.7164,33.0386],[-79.7303,33.0126],[-79.7621,32.9891],[-79.7693,32.9716],[-79.7634,32.9563],[-79.7716,32.9418],[-79.7814,32.9438],[-79.826,32.9186],[-79.8359,32.9198],[-79.853,32.8761],[-79.8959,32.8599],[-79.8975,32.8269],[-79.919,32.8154],[-79.9297,32.8232],[-79.9312,32.85],[-79.9563,32.86],[-79.9637,32.8754],[-79.9624,32.8911],[-79.9482,32.9083],[-80.0118,32.8999],[-80.0415,32.955],[-80.0401,32.9827],[-80.056,32.9994],[-80.0982,32.9881],[-80.1051,32.9925],[-80.1027,33.0013],[-80.1134,32.9981],[-80.3359,33.1455],[-80.311,33.1584],[-80.2964,33.1795],[-80.3308,33.1984],[-80.3354,33.2245],[-80.3613,33.2631]]]}},{"type":"Feature","properties":{"county_fips":"37165","county_name":"Scotland","state":"NC"},"geometry":{"type":"Polygon","coordinates":[[[-79.6925,34.8068],[-79.6346,34.8255],[-79.6255,34.8178],[-79.6142,34.8153],[-79.6232,34.8216],[-79.6176,34.8396],[-79.6266,34.8523],[-79.5619,34.9104],[-79.5848,34.9454],[-79.578,34.9724],[-79.5667,34.9794],[-79.5734,34.9922],[-79.5105,35.0262],[-79.4588,35.0436],[-79.4495,35.0271],[-79.3965,34.9941],[-79.3531,34.9442],[-79.3489,34.8874],[-79.3373,34.8537],[-79.3576,34.8203],[-79.3317,34.773],[-79.4616,34.6303],[-79.6753,34.8047],[-79.6925,34.8068]]]}},{"type":"Feature","properties":{"county_fips":"45043","county_name":"Georgetown","state":"SC"},"geometry":{"type":"Polygon","coordinates":[[[-79.6809,33.3196],[-79.6772,33.3368],[-79.6338,33.3726],[-79.596,33.4215],[-79.5901,33.4435],[-79.5453,33.4909],[-79.4963,33.5175],[-79.4833,33.5368],[-79.4359,33.5725],[-79.4425,33.596],[-79.4111,33.6858],[-79.3324,33.7771],[-79.317,33.7799],[-79.3088,33.772],[-79.2862,33.7374],[-79.2872,33.7188],[-79.2711,33.7216],[-79.2751,33.7089],[-79.265,33.7103],[-79.2676,33.7034],[-79.2424,33.7059],[-79.2493,33.697],[-79.2347,33.6942],[-79.218,33.7058],[-79.1962,33.7013],[-79.1994,33.7101],[-79.1573,33.6848],[-79.1533,33.6594],[-79.1364,33.6638],[-79.1295,33.6501],[-79.1239,33.6522],[-79.1273,33.6436],[-79.1351,33.6467],[-79.1222,33.6057],[-79.1091,33.6003],[-79.0998,33.609],[-79.1011,33.573],[-79.0018,33.5727],[-79.0286,33.5334],[-79.0388,33.5315],[-79.0846,33.4837],[-79.1354,33.4039],[-79.1585,33.3367],[-79.1721,33.3291],[-79.1638,33.312],[-79.1803,33.2541],[-79.1757,33.2111],[-79.1832,33.1908],[-79.1945,33.1698],[-79.2464,33.126],[-79.2756,33.1168],[-79.2679,33.1327],[-79.2724,33.1397],[-79.3151,33.1457],[-79.3333,33.1558],[-79.3513,33.1535],[-79.404,33.1838],[-79.4275,33.2098],[-79.4551,33.2177],[-79.4587,33.2352],[-79.4739,33.2298],[-79.4707,33.2394],[-79.4829,33.2354],[-79.4793,33.2461],[-79.494,33.236],[-79.5302,33.2475],[-79.5498,33.265],[-79.5611,33.2615],[-79.5623,33.2725],[-79.6643,33.2983],[-79.677,33.3049],[-79.6727,33.3107],[-79.6809,33.3196]]]}},{"type":"Feature","properties":{"county_fips":"37013","county_name":"Beaufort","state":"NC"},"geometry":{"type":"Polygon","coordinates":[[[-77.1958,35.6998],[-77.1857,35.7197],[-77.1709,35.7163],[-77.1751,35.7295],[-77.1638,35.7395],[-76.9858,35.6588],[-76.8473,35.72],[-76.8446,35.7057],[-76.6375,35.7052],[-76.602,35.6701],[-76.6062,35.6469],[-76.5776,35.6112],[-76.5343,35.5956],[-76.5384,35.5826],[-76.5016,35.5797],[-76.5014,35.5716],[-76.4689,35.5578],[-76.4872,35.5371],[-76.5199,35.5307],[-76.5568,35.5289],[-76.5704,35.5385],[-76.5992,35.5399],[-76.6379,35.513],[-76.6147,35.4874],[-76.5974,35.4819],[-76.607,35.4555],[-76.5928,35.4367],[-76.5776,35.3876],[-76.6479,35.4034],[-76.6608,35.4129],[-76.6629,35.4255],[-76.6807,35.4159],[-76.7107,35.4286],[-76.7592,35.4189],[-76.8088,35.4406],[-76.8172,35.452],[-76.8309,35.4479],[-76.906,35.4594],[-76.9576,35.483],[-76.9792,35.4834],[-77.0097,35.5137],[-77.043,35.5368],[-77.0532,35.5352],[-77.0213,35.4985],[-77.0451,35.5033],[-77.0047,35.4758],[-76.9864,35.4725],[-76.9662,35.434],[-76.925,35.4488],[-76.8839,35.4262],[-76.8445,35.4237],[-76.8217,35.3999],[-76.8003,35.3908],[-76.7729,35.391],[-76.7691,35.383],[-76.7195,35.3751],[-76.6707,35.3456],[-76.6163,35.3427],[-76.6112,35.3355],[-76.6194,35.3023],[-76.6138,35.2708],[-76.6326,35.2353],[-76.8453,35.2161],[-76.9588,35.301],[-77.1904,35.419],[-77.1912,35.435],[-77.1738,35.4566],[-77.1671,35.4969],[-77.1765,35.5013],[-77.1762,35.5191],[-77.1274,35.5538],[-77.0846,35.5526],[-77.0902,35.5687],[-77.1105,35.5696],[-77.1067,35.5814],[-77.1172,35.5814],[-77.1144,35.5886],[-77.1254,35.5846],[-77.1246,35.5969],[-77.1508,35.6026],[-77.1402,35.6063],[-77.1436,35.6205],[-77.174,35.6353],[-77.1807,35.6645],[-77.1671,35.6726],[-77.1698,35.6843],[-77.1958,35.6998]]]}},{"type":"Feature","properties":{"county_fips":"37147","county_name":"Pitt","state":"NC"},"geometry":{"type":"Polygon","coordinates":[[[-77.7007,35.6523],[-77.5163,35.7613],[-77.4723,35.8011],[-77.4523,35.7999],[-77.4464,35.8086],[-77.4255,35.8054],[-77.4122,35.8253],[-77.3971,35.8252],[-77.3902,35.8331],[-77.2552,35.7864],[-77.2644,35.7752],[-77.2598,35.7652],[-77.2159,35.7601],[-77.2024,35.7464],[-77.1787,35.7394],[-77.1709,35.7163],[-77.1857,35.7197],[-77.1958,35.6998],[-77.1698,35.6843],[-77.1671,35.6726],[-77.1807,35.6645],[-77.174,35.6353],[-77.1436,35.6205],[-77.1402,35.6063],[-77.1508,35.6026],[-77.1246,35.5969],[-77.1254,35.5846],[-77.1144,35.5886],[-77.1172,35.5814],[-77.1067,35.5814],[-77.1105,35.5696],[-77.0902,35.5687],[-77.0846,35.5526],[-77.1274,35.5538],[-77.1762,35.5191],[-77.1765,35.5013],[-77.1671,35.4969],[-77.1738,35.4566],[-77.1912,35.435],[-77.1897,35.4159],[-77.2016,35.3987],[-77.2271,35.3998],[-77.2396,35.3814],[-77.2391,35.3609],[-77.2605,35.3517],[-77.2702,35.3597],[-77.2693,35.3692],[-77.2943,35.3791],[-77.3525,35.3277],[-77.3826,35.3343],[-77.4082,35.3534],[-77.4252,35.3491],[-77.4315,35.367],[-77.4482,35.3715],[-77.4452,35.38],[-77.455,35.3855],[-77.4485,35.3927],[-77.4707,35.4098],[-77.4767,35.4454],[-77.4842,35.4451],[-77.4805,35.4513],[-77.4927,35.4615],[-77.4941,35.4774],[-77.5116,35.497],[-77.5034,35.5174],[-77.5217,35.5176],[-77.5252,35.5283],[-77.541,35.533],[-77.5579,35.532],[-77.5914,35.5632],[-77.6102,35.5675],[-77.6816,35.6308],[-77.6889,35.6494],[-77.7007,35.6523]]]}},{"type":"Feature","properties":{"county_fips":"37095","county_name":"Hyde","state":"NC"},"geometry":{"type":"MultiPolygon","coordinates":[[[[-76.0153,35.0707],[-75.9856,35.0981],[-75.9884,35.1164],[-75.9822,35.1204],[-75.9582,35.1154],[-75.7736,35.1873],[-75.9202,35.1247],[-76.0029,35.0679],[-76.0153,35.0707]]],[[[-76.2815,35.3173],[-76.2742,35.3302],[-76.2624,35.3139],[-76.2712,35.3103],[-76.2815,35.3173]]],[[[-76.6375,35.7052],[-76.2692,35.6908],[-76.2979,35.609],[-76.2155,35.598],[-76.1958,35.6201],[-76.1931,35.646],[-76.1778,35.6549],[-76.1814,35.6667],[-76.1695,35.6725],[-76.1766,35.6862],[-76.1675,35.6908],[-76.1696,35.6986],[-76.1399,35.7021],[-76.1301,35.6908],[-76.1183,35.6919],[-76.1202,35.6806],[-76.0967,35.6696],[-76.0589,35.6748],[-76.0451,35.6656],[-76.0475,35.6529],[-76.038,35.6458],[-76.0188,35.6537],[-76.013,35.6689],[-75.9013,35.669],[-75.8837,35.6289],[-75.8974,35.5981],[-75.8824,35.5761],[-75.9197,35.5615],[-75.9202,35.553],[-75.9085,35.5528],[-75.9128,35.5447],[-75.9437,35.5362],[-75.9617,35.5153],[-75.9784,35.513],[-75.9631,35.4939],[-75.9888,35.4849],[-75.9991,35.4574],[-76.0157,35.4417],[-76.0135,35.4278],[-76.0227,35.4122],[-76.0317,35.4131],[-76.0397,35.4308],[-76.0587,35.4346],[-76.0539,35.4212],[-76.0712,35.4098],[-76.0694,35.3976],[-76.0834,35.391],[-76.0618,35.3832],[-76.0708,35.3706],[-76.0913,35.3695],[-76.1125,35.355],[-76.1369,35.358],[-76.1426,35.3549],[-76.1374,35.3447],[-76.1519,35.3314],[-76.1742,35.347],[-76.2035,35.3377],[-76.2049,35.3458],[-76.2211,35.3404],[-76.2315,35.3588],[-76.2498,35.3677],[-76.26,35.3654],[-76.2531,35.35],[-76.2681,35.34],[-76.3057,35.3549],[-76.3088,35.3697],[-76.3209,35.3701],[-76.3261,35.3863],[-76.3449,35.3925],[-76.3575,35.3836],[-76.3416,35.3423],[-76.376,35.3356],[-76.3772,35.3584],[-76.3893,35.3604],[-76.4119,35.3464],[-76.4114,35.3613],[-76.4243,35.365],[-76.4129,35.3757],[-76.3637,35.3642],[-76.3679,35.3823],[-76.3851,35.3842],[-76.396,35.4011],[-76.3853,35.415],[-76.3955,35.4317],[-76.4176,35.4251],[-76.4373,35.4034],[-76.4383,35.3883],[-76.4435,35.3951],[-76.4549,35.3912],[-76.4609,35.404],[-76.4808,35.4045],[-76.4723,35.3714],[-76.5403,35.4107],[-76.5331,35.4323],[-76.5525,35.4369],[-76.5655,35.4495],[-76.5457,35.4609],[-76.5628,35.475],[-76.5621,35.4913],[-76.5871,35.5089],[-76.4908,35.5044],[-76.4694,35.5193],[-76.467,35.5389],[-76.4523,35.5532],[-76.4993,35.5703],[-76.5016,35.5797],[-76.5384,35.5826],[-76.5343,35.5956],[-76.5776,35.6112],[-76.6062,35.6469],[-76.602,35.6701],[-76.6375,35.7052]]]]}},{"type":"Feature","properties":{"county_fips":"37031","county_name":"Carteret","state":"NC"},"geometry":{"type":"MultiPolygon","coordinates":[[[[-76.3301,34.8479],[-76.2974,34.8722],[-76.2892,34.8887],[-76.2762,34.8859],[-76.227,34.9257],[-76.1716,34.9805],[-76.1518,34.9868],[-76.1413,35.0057],[-76.0861,35.0481],[-76.0759,35.0699],[-76.054,35.0714],[-76.0378,35.0619],[-76.3226,34.8481],[-76.3301,34.8479]]],[[[-76.5476,34.7106],[-76.5383,34.712],[-76.5195,34.7071],[-76.5228,34.6991],[-76.544,34.7012],[-76.5476,34.7106]]],[[[-76.553,34.6146],[-76.5504,34.6309],[-76.5506,34.616],[-76.5322,34.6105],[-76.4977,34.6668],[-76.502,34.6747],[-76.474,34.7114],[-76.4415,34.7338],[-76.4381,34.7613],[-76.4136,34.7651],[-76.414,34.7792],[-76.4026,34.7914],[-76.3833,34.7949],[-76.3637,34.8234],[-76.3375,34.8388],[-76.4881,34.671],[-76.5355,34.5916],[-76.553,34.6146]]],[[[-76.5863,34.7139],[-76.5606,34.71],[-76.5642,34.7022],[-76.5259,34.6919],[-76.5257,34.6852],[-76.5816,34.6991],[-76.5863,34.7139]]],[[[-76.6655,34.6897],[-76.5893,34.672],[-76.5302,34.6436],[-76.5288,34.6315],[-76.5706,34.6583],[-76.6655,34.6897]]],[[[-77.0985,34.6469],[-77.0679,34.6638],[-77.0146,34.676],[-76.9478,34.6787],[-76.8222,34.7047],[-76.7667,34.7],[-76.7476,34.702],[-76.7421,34.7124],[-76.7306,34.7008],[-76.7026,34.6998],[-76.6989,34.7123],[-76.6757,34.6957],[-76.8474,34.6908],[-77.0985,34.6469]]],[[[-77.1664,34.7914],[-77.1357,34.798],[-77.1162,34.794],[-77.1074,34.8031],[-77.0907,34.7993],[-77.085,34.8111],[-76.9544,34.8091],[-76.9548,34.8245],[-76.8823,34.8367],[-76.8831,34.8449],[-76.758,34.8463],[-76.693,34.8692],[-76.6863,34.8954],[-76.6625,34.9123],[-76.6526,34.9376],[-76.6772,34.9577],[-76.6769,34.9688],[-76.6311,34.9887],[-76.5785,34.9762],[-76.5797,34.9901],[-76.5436,35.002],[-76.5116,35.0051],[-76.498,34.985],[-76.4842,34.9881],[-76.4975,35.0082],[-76.4865,35.0204],[-76.4939,35.0232],[-76.4858,35.0406],[-76.4647,35.0467],[-76.4775,35.0584],[-76.4704,35.0757],[-76.4358,35.0579],[-76.4331,35.0335],[-76.4226,35.0267],[-76.4376,35.0245],[-76.4404,35.0146],[-76.4359,35.001],[-76.4255,35.0015],[-76.4224,34.9772],[-76.43,34.9687],[-76.4228,34.9507],[-76.4031,34.9634],[-76.3984,34.9455],[-76.3874,34.9511],[-76.3815,34.9792],[-76.3634,34.9692],[-76.3618,34.9764],[-76.3404,34.9663],[-76.332,34.9709],[-76.3244,34.9605],[-76.3195,34.9659],[-76.3675,35.0311],[-76.3641,35.0366],[-76.2439,34.9969],[-76.2624,34.9753],[-76.2881,34.9963],[-76.3057,34.9914],[-76.2779,34.9607],[-76.2795,34.9414],[-76.2978,34.9346],[-76.2976,34.9237],[-76.3408,34.9334],[-76.3368,34.9098],[-76.3141,34.9063],[-76.3468,34.8734],[-76.3683,34.8729],[-76.3822,34.857],[-76.3957,34.8609],[-76.3917,34.8786],[-76.4024,34.8866],[-76.4121,34.8322],[-76.4186,34.8267],[-76.4276,34.8314],[-76.4495,34.8148],[-76.4854,34.7549],[-76.498,34.7639],[-76.5141,34.7543],[-76.4984,34.7321],[-76.5158,34.7196],[-76.5757,34.7217],[-76.5821,34.7313],[-76.5752,34.7397],[-76.5859,34.7567],[-76.5757,34.7684],[-76.5937,34.7717],[-76.6044,34.7899],[-76.6173,34.7879],[-76.6272,34.7246],[-76.6156,34.7102],[-76.6194,34.7042],[-76.6727,34.7147],[-76.6807,34.7062],[-76.6905,34.716],[-76.7685,34.7244],[-76.8998,34.7269],[-76.9717,34.7093],[-77.0052,34.6925],[-77.0172,34.6946],[-77.0169,34.6878],[-77.0305,34.6818],[-77.0422,34.6897],[-77.0927,34.6729],[-77.113,34.6814],[-77.106,34.7101],[-77.1218,34.7315],[-77.1256,34.7567],[-77.1578,34.7659],[-77.1508,34.7714],[-77.1603,34.7746],[-77.1593,34.782],[-77.1657,34.7793],[-77.1664,34.7914]]]]}},{"type":"Feature","properties":{"county_fips":"37153","county_name":"Richmond","state":"NC"},"geometry":{"type":"Polygon","coordinates":[[[-80.0757,35.1401],[-80.0228,35.1372],[-79.9834,35.1585],[-79.8986,35.1617],[-79.8513,35.1839],[-79.7495,35.173],[-79.6944,35.1796],[-79.6421,35.1577],[-79.6143,35.1637],[-79.6094,35.149],[-79.5733,35.1225],[-79.5828,35.084],[-79.5683,35.0648],[-79.499,35.0638],[-79.4588,35.0436],[-79.5105,35.0262],[-79.5734,34.9922],[-79.5667,34.9794],[-79.578,34.9724],[-79.5848,34.9454],[-79.5619,34.9104],[-79.6266,34.8523],[-79.6176,34.8396],[-79.6232,34.8216],[-79.6142,34.8153],[-79.6346,34.8255],[-79.6929,34.805],[-79.9274,34.8066],[-79.9143,34.8179],[-79.8997,34.8585],[-79.8801,34.8668],[-79.849,34.9013],[-79.8723,34.9504],[-79.8648,34.98],[-79.9006,35.0057],[-79.8767,35.0445],[-79.9079,35.0657],[-79.9125,35.0961],[-79.9279,35.1179],[-79.9585,35.1137],[-79.9866,35.0888],[-80.0005,35.0858],[-80.0682,35.112],[-80.0757,35.1401]]]}},{"type":"Feature","properties":{"county_fips":"37103","county_name":"Jones","state":"NC"},"geometry":{"type":"Polygon","coordinates":[[[-77.731,35.0081],[-77.6013,35.0714],[-77.5075,35.1728],[-77.5272,35.243],[-77.4523,35.219],[-77.1877,35.0811],[-77.1894,35.0667],[-77.1739,35.0591],[-77.1806,35.0552],[-77.1684,35.0606],[-77.1645,35.0655],[-77.1483,35.0547],[-77.1305,35.0723],[-77.1136,35.0726],[-77.1079,35.0381],[-77.0989,35.0267],[-77.1089,34.8308],[-77.0472,34.8364],[-77.0897,34.809],[-77.0907,34.7993],[-77.1617,34.7948],[-77.1727,34.7806],[-77.1711,34.7907],[-77.1963,34.811],[-77.1813,34.8362],[-77.202,34.8348],[-77.2224,34.8871],[-77.2342,34.8863],[-77.2374,34.9],[-77.2602,34.9096],[-77.2674,34.9255],[-77.3316,34.9391],[-77.3633,34.9255],[-77.3668,34.9087],[-77.5028,34.9696],[-77.639,34.9845],[-77.6748,34.9739],[-77.731,35.0081]]]}},{"type":"Feature","properties":{"county_fips":"37017","county_name":"Bladen","state":"NC"},"geometry":{"type":"Polygon","coordinates":[[[-78.902,34.8353],[-78.8274,34.8507],[-78.5161,34.8459],[-78.4947,34.8562],[-78.4877,34.8363],[-78.4658,34.8276],[-78.4592,34.8127],[-78.4498,34.8135],[-78.4245,34.7699],[-78.3907,34.7495],[-78.3919,34.7296],[-78.3794,34.7234],[-78.3823,34.7173],[-78.3686,34.7043],[-78.3734,34.6992],[-78.3493,34.6919],[-78.3469,34.6802],[-78.325,34.6688],[-78.3246,34.6497],[-78.3116,34.6416],[-78.3228,34.6297],[-78.3131,34.6259],[-78.305,34.6024],[-78.2912,34.6005],[-78.275,34.5814],[-78.2663,34.584],[-78.2551,34.5689],[-78.2517,34.562],[-78.2601,34.5557],[-78.2544,34.5536],[-78.2726,34.5378],[-78.2639,34.5196],[-78.2541,34.5198],[-78.2553,34.5081],[-78.1765,34.4654],[-78.2561,34.3995],[-78.3351,34.3676],[-78.4453,34.3774],[-78.594,34.4314],[-78.6468,34.4607],[-78.6594,34.4537],[-78.6564,34.4603],[-78.6676,34.4696],[-78.8252,34.4618],[-78.8581,34.4744],[-78.8694,34.4871],[-78.8444,34.5081],[-78.857,34.5151],[-78.853,34.5278],[-78.8627,34.562],[-78.8361,34.5935],[-78.8412,34.5974],[-78.8315,34.6088],[-78.8344,34.6216],[-78.8136,34.6519],[-78.8192,34.6626],[-78.8094,34.6683],[-78.8054,34.6866],[-78.8544,34.7357],[-78.8836,34.8124],[-78.8924,34.8138],[-78.902,34.8353]]]}},{"type":"Feature","properties":{"county_fips":"45063","county_name":"Lexington","state":"SC"},"geometry":{"type":"Polygon","coordinates":[[[-81.5715,33.8773],[-81.4655,34.0873],[-81.4449,34.0777],[-81.4249,34.083],[-81.4028,34.0708],[-81.3901,34.0753],[-81.4372,34.13],[-81.4037,34.1779],[-81.3748,34.179],[-81.3523,34.1967],[-81.339,34.1976],[-81.3145,34.1869],[-81.3023,34.1624],[-81.315,34.1461],[-81.2758,34.0974],[-81.2334,34.1018],[-81.1729,34.0905],[-81.132,34.0623],[-81.0975,34.0177],[-81.0649,34.0086],[-81.0509,33.9958],[-81.017,33.9309],[-81.0301,33.9136],[-81.0088,33.9041],[-81.0214,33.8881],[-81.0123,33.8801],[-81.0379,33.8709],[-81.0585,33.7471],[-81.0361,33.7452],[-81.0329,33.7641],[-81.0235,33.7635],[-81.014,33.7812],[-80.9619,33.779],[-80.9246,33.7569],[-80.9557,33.7378],[-80.9915,33.7321],[-81.1873,33.6529],[-81.2701,33.6939],[-81.2905,33.6942],[-81.3645,33.7281],[-81.4152,33.7321],[-81.4267,33.7431],[-81.4357,33.7757],[-81.4606,33.7973],[-81.515,33.8131],[-81.5464,33.8586],[-81.5611,33.8628],[-81.5715,33.8773]]]}},{"type":"Feature","properties":{"county_fips":"45031","county_name":"Darlington","state":"SC"},"geometry":{"type":"Polygon","coordinates":[[[-80.2887,34.3641],[-80.0455,34.4926],[-80.0265,34.4865],[-79.9834,34.5017],[-79.9625,34.487],[-79.9198,34.4958],[-79.8942,34.4891],[-79.8748,34.4963],[-79.862,34.521],[-79.8361,34.5351],[-79.83,34.5319],[-79.8334,34.5103],[-79.8061,34.4846],[-79.7964,34.4916],[-79.788,34.4843],[-79.7829,34.4978],[-79.7691,34.4965],[-79.7633,34.5191],[-79.7521,34.5135],[-79.7544,34.5041],[-79.7266,34.4955],[-79.7218,34.4854],[-79.7324,34.4771],[-79.7317,34.4664],[-79.7518,34.4665],[-79.7506,34.4368],[-79.7184,34.4171],[-79.7213,34.3925],[-79.6997,34.4066],[-79.6834,34.3991],[-79.6894,34.3818],[-79.6737,34.3711],[-79.6927,34.3565],[-79.6604,34.3223],[-79.6568,34.3091],[-79.6707,34.304],[-79.6856,34.2844],[-79.7296,34.2952],[-79.7526,34.2506],[-79.7494,34.2451],[-79.809,34.2524],[-80.0722,34.0853],[-80.1345,34.1285],[-80.1586,34.1616],[-80.1127,34.197],[-80.1117,34.2286],[-80.1358,34.2725],[-80.1339,34.2824],[-80.1702,34.316],[-80.1772,34.3662],[-80.1913,34.3667],[-80.2063,34.3391],[-80.2436,34.3239],[-80.2529,34.3407],[-80.2756,34.3492],[-80.2887,34.3641]]]}},{"type":"Feature","properties":{"county_fips":"45089","county_name":"Williamsburg","state":"SC"},"geometry":{"type":"Polygon","coordinates":[[[-80.1017,33.4969],[-79.9932,33.7045],[-79.9744,33.7216],[-79.9956,33.7679],[-79.9445,33.8102],[-79.9153,33.8186],[-79.8756,33.8852],[-79.8549,33.8917],[-79.8349,33.8826],[-79.7984,33.8356],[-79.7434,33.8351],[-79.7249,33.8146],[-79.6996,33.814],[-79.688,33.8049],[-79.6773,33.8147],[-79.6358,33.818],[-79.6349,33.8084],[-79.4965,33.7754],[-79.4415,33.7844],[-79.4187,33.7994],[-79.3972,33.8012],[-79.3852,33.8175],[-79.3704,33.8186],[-79.3314,33.8048],[-79.3201,33.7913],[-79.317,33.7799],[-79.3378,33.7746],[-79.3466,33.7553],[-79.41,33.6879],[-79.4425,33.596],[-79.4359,33.5725],[-79.4833,33.5368],[-79.4963,33.5175],[-79.5397,33.496],[-79.5901,33.4435],[-79.596,33.4215],[-79.6338,33.3726],[-79.6772,33.3368],[-79.677,33.3049],[-79.7096,33.3212],[-79.7348,33.3202],[-79.7554,33.3295],[-79.7842,33.3761],[-79.807,33.3726],[-79.8548,33.4029],[-79.8613,33.4178],[-79.8787,33.4271],[-79.8682,33.4345],[-79.8941,33.4537],[-79.9031,33.4504],[-79.9646,33.4986],[-79.9898,33.4983],[-79.9988,33.5067],[-80.0019,33.4947],[-80.0121,33.5052],[-80.0186,33.4983],[-80.0239,33.5063],[-80.0425,33.5009],[-80.0735,33.5072],[-80.1017,33.4969]]]}},{"type":"Feature","properties":{"county_fips":"37183","county_name":"Wake","state":"NC"},"geometry":{"type":"Polygon","coordinates":[[[-78.995,35.6102],[-78.9094,35.843],[-78.9061,35.8681],[-78.83,35.867],[-78.8048,35.9276],[-78.7591,35.9184],[-78.717,35.9613],[-78.6998,36.0114],[-78.7074,36.0111],[-78.72,36.0296],[-78.7402,36.0236],[-78.7536,36.0314],[-78.7513,36.0708],[-78.6832,36.0745],[-78.4269,35.975],[-78.3943,35.9369],[-78.3533,35.9311],[-78.351,35.9101],[-78.3285,35.8967],[-78.3072,35.8966],[-78.278,35.8673],[-78.2538,35.8274],[-78.256,35.8181],[-78.2789,35.8044],[-78.4716,35.7049],[-78.7089,35.5195],[-78.995,35.6102]]]}},{"type":"Feature","properties":{"county_fips":"37081","county_name":"Guilford","state":"NC"},"geometry":{"type":"Polygon","coordinates":[[[-80.0469,35.9207],[-80.0351,36.2572],[-79.5324,36.2415],[-79.5417,35.8999],[-80.0469,35.9207]]]}},{"type":"Feature","properties":{"county_fips":"37191","county_name":"Wayne","state":"NC"},"geometry":{"type":"Polygon","coordinates":[[[-78.3044,35.2907],[-78.2897,35.3151],[-78.2584,35.3255],[-78.2421,35.32],[-78.2156,35.3338],[-78.2155,35.3415],[-78.1532,35.3507],[-78.1624,35.3672],[-78.1443,35.3874],[-78.1537,35.392],[-78.1549,35.4178],[-78.058,35.5978],[-77.9984,35.5856],[-77.8225,35.5854],[-77.8267,35.4241],[-77.8055,35.4075],[-77.7999,35.3823],[-77.8242,35.3438],[-77.8342,35.1778],[-77.8889,35.1599],[-77.8917,35.1466],[-77.926,35.173],[-77.9701,35.1659],[-77.984,35.1836],[-78.0202,35.1937],[-78.0445,35.1925],[-78.0774,35.1751],[-78.1634,35.1897],[-78.1618,35.2043],[-78.2462,35.226],[-78.3044,35.2907]]]}},{"type":"Feature","properties":{"county_fips":"37151","county_name":"Randolph","state":"NC"},"geometry":{"type":"Polygon","coordinates":[[[-80.0668,35.5057],[-80.0469,35.9207],[-79.5417,35.8999],[-79.5558,35.515],[-80.0668,35.5057]]]}},{"type":"Feature","properties":{"county_fips":"45039","county_name":"Fairfield","state":"SC"},"geometry":{"type":"Polygon","coordinates":[[[-81.4224,34.4822],[-81.4227,34.572],[-80.8776,34.5431],[-80.8817,34.5001],[-80.8987,34.4867],[-80.8882,34.4679],[-80.8332,34.4148],[-80.7935,34.4133],[-80.7832,34.4065],[-80.7836,34.3888],[-80.7699,34.3771],[-80.8259,34.2688],[-80.9619,34.252],[-81.0612,34.228],[-81.0699,34.2322],[-81.0708,34.2251],[-81.0959,34.2139],[-81.1812,34.2203],[-81.1684,34.1977],[-81.1794,34.1871],[-81.1783,34.1746],[-81.2264,34.2057],[-81.2513,34.2029],[-81.2841,34.233],[-81.3142,34.2377],[-81.3423,34.2669],[-81.3396,34.2922],[-81.3652,34.3227],[-81.3715,34.3504],[-81.3965,34.3898],[-81.4212,34.4538],[-81.4125,34.4699],[-81.4224,34.4822]]]}},{"type":"Feature","properties":{"county_fips":"37045","county_name":"Cleveland","state":"NC"},"geometry":{"type":"Polygon","coordinates":[[[-81.7681,35.1804],[-81.7595,35.2226],[-81.7029,35.3573],[-81.6927,35.583],[-81.6706,35.5666],[-81.649,35.5616],[-81.5962,35.5713],[-81.5732,35.5587],[-81.5453,35.5647],[-81.5154,35.5583],[-81.5092,35.5504],[-81.513,35.5233],[-81.4588,35.4237],[-81.3989,35.3531],[-81.3567,35.3306],[-81.3666,35.3149],[-81.3557,35.2805],[-81.3217,35.2604],[-81.328,35.1634],[-81.7681,35.1804]]]}},{"type":"Feature","properties":{"county_fips":"51035","county_name":"Carroll","state":"VA"},"geometry":{"type":"Polygon","coordinates":[[[-81.0424,36.8064],[-80.8127,36.8532],[-80.6826,36.8951],[-80.6808,36.9092],[-80.6591,36.9135],[-80.634,36.9318],[-80.4538,36.7004],[-80.466,36.6731],[-80.4893,36.6619],[-80.4887,36.6504],[-80.5012,36.6566],[-80.539,36.641],[-80.5781,36.6621],[-80.5949,36.6614],[-80.6256,36.6062],[-80.615,36.5884],[-80.6121,36.5579],[-80.838,36.5591],[-80.9142,36.6502],[-80.8773,36.6922],[-80.8911,36.696],[-80.9055,36.6869],[-80.9176,36.6941],[-80.9174,36.6798],[-80.9252,36.6823],[-80.9323,36.6716],[-81.0424,36.8064]]]}},{"type":"Feature","properties":{"county_fips":"54055","county_name":"Mercer","state":"WV"},"geometry":{"type":"Polygon","coordinates":[[[-81.3622,37.3377],[-81.3112,37.4245],[-81.2929,37.4132],[-81.2826,37.4198],[-81.3075,37.4591],[-81.2782,37.4724],[-81.2585,37.4988],[-81.2145,37.5079],[-81.2104,37.5306],[-81.2,37.5403],[-81.1989,37.5755],[-81.1354,37.5979],[-81.1194,37.5884],[-81.1081,37.5939],[-81.0937,37.5881],[-80.8596,37.4296],[-80.8628,37.4118],[-80.8832,37.3839],[-80.8495,37.3469],[-80.9479,37.2959],[-80.9739,37.2914],[-80.9813,37.2935],[-80.9796,37.3023],[-81.0948,37.2826],[-81.167,37.2629],[-81.2251,37.2349],[-81.3201,37.2993],[-81.3622,37.3377]]]}},{"type":"Feature","properties":{"county_fips":"37063","county_name":"Durham","state":"NC"},"geometry":{"type":"Polygon","coordinates":[[[-79.0163,35.8632],[-78.9506,36.2393],[-78.8023,36.2358],[-78.8075,36.0873],[-78.7921,36.0853],[-78.7837,36.07],[-78.7513,36.0708],[-78.7536,36.0314],[-78.7402,36.0236],[-78.72,36.0296],[-78.7074,36.0111],[-78.6998,36.0114],[-78.717,35.9613],[-78.7591,35.9184],[-78.8048,35.9276],[-78.83,35.867],[-79.0163,35.8632]]]}},{"type":"Feature","properties":{"county_fips":"37035","county_name":"Catawba","state":"NC"},"geometry":{"type":"Polygon","coordinates":[[[-81.5342,35.5703],[-81.5068,35.608],[-81.4329,35.6778],[-81.3638,35.7678],[-81.3539,35.7689],[-81.3556,35.7803],[-81.3452,35.7946],[-81.2624,35.8058],[-81.249,35.8157],[-81.2258,35.8095],[-81.2051,35.8228],[-81.1496,35.829],[-81.1423,35.8272],[-81.1286,35.7898],[-81.0895,35.7659],[-81.0905,35.7574],[-81.0671,35.7368],[-81.0637,35.7126],[-81.0018,35.7082],[-80.9667,35.671],[-80.9534,35.6439],[-80.9252,35.6203],[-80.9433,35.6063],[-80.9336,35.5909],[-80.9533,35.5786],[-80.96,35.547],[-81.5342,35.5703]]]}},{"type":"Feature","properties":{"county_fips":"37109","county_name":"Lincoln","state":"NC"},"geometry":{"type":"Polygon","coordinates":[[[-81.5354,35.5681],[-80.96,35.547],[-80.9397,35.5286],[-80.9555,35.5325],[-80.9635,35.506],[-80.9479,35.4905],[-80.9515,35.4671],[-80.9425,35.4577],[-80.9587,35.4326],[-80.9549,35.4001],[-81.4556,35.4198],[-81.513,35.5233],[-81.5092,35.5504],[-81.5354,35.5681]]]}},{"type":"Feature","properties":{"county_fips":"45033","county_name":"Dillon","state":"SC"},"geometry":{"type":"Polygon","coordinates":[[[-79.6334,34.298],[-79.45,34.621],[-79.0713,34.2993],[-79.0861,34.295],[-79.0864,34.285],[-79.11,34.2724],[-79.1257,34.2533],[-79.1735,34.2875],[-79.2143,34.2555],[-79.2394,34.2543],[-79.2944,34.277],[-79.3054,34.2693],[-79.3803,34.3006],[-79.411,34.3002],[-79.4807,34.2881],[-79.4791,34.2786],[-79.4963,34.2748],[-79.5124,34.2575],[-79.5543,34.2476],[-79.5479,34.2309],[-79.5616,34.2579],[-79.5872,34.2814],[-79.6239,34.3006],[-79.6334,34.298]]]}},{"type":"Feature","properties":{"county_fips":"37179","county_name":"Union","state":"NC"},"geometry":{"type":"Polygon","coordinates":[[[-80.838,35.005],[-80.8045,35.0277],[-80.7676,35.0363],[-80.5503,35.2084],[-80.4898,35.1758],[-80.479,35.1793],[-80.4704,35.1673],[-80.4399,35.161],[-80.4193,35.1729],[-80.4115,35.1633],[-80.3883,35.1659],[-80.371,35.1797],[-80.3547,35.1655],[-80.3404,35.1741],[-80.3217,35.1731],[-80.2944,35.1944],[-80.2768,35.1957],[-80.3208,34.8141],[-80.7975,34.8198],[-80.782,34.9358],[-80.838,35.005]]]}},{"type":"Feature","properties":{"county_fips":"51173","county_name":"Smyth","state":"VA"},"geometry":{"type":"Polygon","coordinates":[[[-81.8371,36.929],[-81.8187,36.9473],[-81.7088,36.977],[-81.6828,36.9329],[-81.6739,36.9345],[-81.5761,36.9897],[-81.5338,36.9961],[-81.4745,37.0185],[-81.4686,37.0144],[-81.4805,36.9863],[-81.4367,37.0101],[-81.3269,36.8995],[-81.262,36.763],[-81.384,36.74],[-81.4388,36.7169],[-81.544,36.7015],[-81.5314,36.6938],[-81.5312,36.685],[-81.5472,36.6565],[-81.564,36.6582],[-81.619,36.634],[-81.6996,36.7893],[-81.8371,36.929]]]}},{"type":"Feature","properties":{"county_fips":"37025","county_name":"Cabarrus","state":"NC"},"geometry":{"type":"Polygon","coordinates":[[[-80.7871,35.4949],[-80.7842,35.506],[-80.2954,35.5029],[-80.4829,35.2133],[-80.5059,35.1933],[-80.505,35.185],[-80.6671,35.2688],[-80.6931,35.3464],[-80.7664,35.4015],[-80.7635,35.4121],[-80.7522,35.4141],[-80.7871,35.4949]]]}},{"type":"Feature","properties":{"county_fips":"45023","county_name":"Chester","state":"SC"},"geometry":{"type":"Polygon","coordinates":[[[-81.4883,34.7355],[-81.4529,34.7628],[-81.4593,34.7975],[-81.4693,34.8028],[-81.4691,34.811],[-81.4874,34.8134],[-81.4766,34.8226],[-80.8982,34.8208],[-80.8764,34.7885],[-80.8777,34.7439],[-80.8599,34.7002],[-80.8886,34.6686],[-80.8965,34.6352],[-80.8893,34.6182],[-80.8922,34.598],[-80.8783,34.5811],[-80.873,34.553],[-80.8776,34.5431],[-80.9509,34.5454],[-81.4227,34.572],[-81.4165,34.6353],[-81.442,34.6537],[-81.4543,34.6752],[-81.4542,34.7209],[-81.4794,34.7239],[-81.4883,34.7355]]]}},{"type":"Feature","properties":{"county_fips":"37105","county_name":"Lee","state":"NC"},"geometry":{"type":"Polygon","coordinates":[[[-79.3599,35.4775],[-79.3519,35.4775],[-79.3359,35.4978],[-79.3488,35.5196],[-79.311,35.532],[-79.3239,35.5438],[-79.2846,35.555],[-79.2901,35.5397],[-79.2676,35.5327],[-79.2452,35.553],[-79.2446,35.5693],[-79.2205,35.5674],[-79.2239,35.5508],[-79.1999,35.5586],[-79.2012,35.5762],[-79.1868,35.5799],[-79.142,35.6231],[-79.1192,35.6283],[-79.0687,35.6089],[-79.0526,35.5961],[-79.0456,35.5684],[-79.024,35.5484],[-78.9908,35.5402],[-78.9696,35.5217],[-79.1836,35.3072],[-79.2733,35.3523],[-79.2896,35.4004],[-79.3302,35.4246],[-79.3267,35.4349],[-79.3599,35.4775]]]}},{"type":"Feature","properties":{"county_fips":"37107","county_name":"Lenoir","state":"NC"},"geometry":{"type":"Polygon","coordinates":[[[-77.8342,35.1778],[-77.8242,35.3438],[-77.8062,35.3688],[-77.6975,35.3771],[-77.6823,35.3497],[-77.6732,35.3479],[-77.6376,35.3543],[-77.6144,35.3776],[-77.5907,35.3736],[-77.5664,35.383],[-77.5342,35.3981],[-77.5283,35.4143],[-77.5099,35.4215],[-77.4839,35.4137],[-77.4744,35.4268],[-77.4634,35.3996],[-77.4485,35.3927],[-77.455,35.3855],[-77.4452,35.38],[-77.4482,35.3715],[-77.4315,35.367],[-77.4264,35.3498],[-77.4082,35.3534],[-77.3918,35.3456],[-77.3916,35.3392],[-77.4313,35.3298],[-77.4311,35.313],[-77.4491,35.3018],[-77.4262,35.2624],[-77.4326,35.2502],[-77.4737,35.229],[-77.5272,35.243],[-77.5075,35.1728],[-77.6013,35.0714],[-77.731,35.0081],[-77.746,35.0223],[-77.7496,35.1086],[-77.7692,35.1456],[-77.8342,35.1778]]]}},{"type":"Feature","properties":{"county_fips":"37135","county_name":"Orange","state":"NC"},"geometry":{"type":"Polygon","coordinates":[[[-79.2684,35.9109],[-79.258,36.2434],[-78.9506,36.2393],[-79.0163,35.8632],[-79.0819,35.8608],[-79.2495,35.8768],[-79.2569,35.9021],[-79.2684,35.9109]]]}},{"type":"Feature","properties":{"county_fips":"37061","county_name":"Duplin","state":"NC"},"geometry":{"type":"Polygon","coordinates":[[[-78.1985,34.742],[-78.1471,34.9025],[-78.1598,35.0798],[-78.1718,35.0935],[-78.1634,35.1897],[-78.0774,35.1751],[-78.0445,35.1925],[-78.0202,35.1937],[-77.984,35.1836],[-77.9701,35.1659],[-77.926,35.173],[-77.8917,35.1466],[-77.8889,35.1599],[-77.8342,35.1778],[-77.7692,35.1456],[-77.7496,35.1086],[-77.746,35.0223],[-77.6748,34.9739],[-77.6801,34.9711],[-77.6534,34.9405],[-77.6511,34.9235],[-77.6772,34.7981],[-77.6801,34.7206],[-77.938,34.7232],[-77.952,34.7147],[-77.9614,34.7199],[-77.9812,34.714],[-78.0127,34.7326],[-78.0307,34.7248],[-78.1024,34.7254],[-78.1352,34.7102],[-78.1985,34.742]]]}},{"type":"Feature","properties":{"county_fips":"37037","county_name":"Chatham","state":"NC"},"geometry":{"type":"Polygon","coordinates":[[[-79.5558,35.515],[-79.5424,35.8433],[-79.2373,35.8442],[-79.2504,35.857],[-79.2495,35.8768],[-79.0819,35.8608],[-78.9061,35.8681],[-78.9094,35.843],[-78.995,35.6102],[-78.9161,35.5841],[-78.9696,35.5217],[-78.9908,35.5402],[-79.024,35.5484],[-79.0456,35.5684],[-79.0526,35.5961],[-79.0687,35.6089],[-79.1192,35.6283],[-79.142,35.6231],[-79.1868,35.5799],[-79.2012,35.5762],[-79.1999,35.5586],[-79.2239,35.5508],[-79.2205,35.5674],[-79.2446,35.5693],[-79.2452,35.553],[-79.2676,35.5327],[-79.2901,35.5397],[-79.2821,35.5515],[-79.287,35.5551],[-79.3239,35.5438],[-79.3121,35.5305],[-79.3501,35.518],[-79.5558,35.515]]]}},{"type":"Feature","properties":{"county_fips":"37067","county_name":"Forsyth","state":"NC"},"geometry":{"type":"Polygon","coordinates":[[[-80.5156,36.088],[-80.5065,36.1086],[-80.463,36.1179],[-80.4394,36.1369],[-80.437,36.1706],[-80.4464,36.2065],[-80.4322,36.218],[-80.4527,36.2417],[-80.4519,36.2615],[-80.0351,36.2572],[-80.0432,36.0108],[-80.1498,36.0268],[-80.2137,36.0268],[-80.2138,35.9971],[-80.3303,35.9965],[-80.33,35.9908],[-80.3943,35.9728],[-80.4212,35.9873],[-80.4135,36.001],[-80.4179,36.0155],[-80.4419,36.0306],[-80.4638,36.0626],[-80.4872,36.0432],[-80.5053,36.0527],[-80.5156,36.088]]]}},{"type":"Feature","properties":{"county_fips":"37069","county_name":"Franklin","state":"NC"},"geometry":{"type":"Polygon","coordinates":[[[-78.5464,36.0218],[-78.5448,36.0807],[-78.4928,36.1839],[-78.4576,36.1637],[-78.4497,36.1691],[-78.4214,36.1645],[-78.4121,36.1696],[-78.3781,36.2351],[-78.3381,36.2344],[-78.307,36.2662],[-78.1935,36.2468],[-78.1732,36.2555],[-78.157,36.2444],[-78.1327,36.2463],[-78.1098,36.2102],[-78.0449,36.2155],[-78.0066,36.2026],[-78.256,35.8181],[-78.2544,35.8291],[-78.278,35.8673],[-78.3072,35.8966],[-78.3285,35.8967],[-78.351,35.9101],[-78.3533,35.9311],[-78.3943,35.9369],[-78.4269,35.975],[-78.5464,36.0218]]]}},{"type":"Feature","properties":{"county_fips":"37097","county_name":"Iredell","state":"NC"},"geometry":{"type":"Polygon","coordinates":[[[-81.1095,35.7766],[-81.0789,35.8028],[-81.0413,35.8579],[-81.0055,35.9583],[-81.0034,35.9967],[-81.0288,36.0457],[-80.9757,36.0588],[-80.6932,36.0513],[-80.7078,35.853],[-80.7716,35.6722],[-80.7398,35.5441],[-80.7372,35.5058],[-80.9067,35.5148],[-80.9473,35.4885],[-80.9613,35.497],[-80.9555,35.5325],[-80.9397,35.5286],[-80.96,35.547],[-80.9535,35.5543],[-80.9557,35.5738],[-80.9336,35.5909],[-80.9433,35.6063],[-80.9255,35.6209],[-80.9534,35.6439],[-80.9667,35.671],[-81.0018,35.7082],[-81.0618,35.7109],[-81.0671,35.7368],[-81.0905,35.7574],[-81.0895,35.7659],[-81.1095,35.7766]]]}},{"type":"Feature","properties":{"county_fips":"37187","county_name":"Washington","state":"NC"},"geometry":{"type":"Polygon","coordinates":[[[-76.8473,35.72],[-76.8174,35.7481],[-76.8035,35.7839],[-76.793,35.7899],[-76.8026,35.8052],[-76.7827,35.8242],[-76.7892,35.8376],[-76.7806,35.8539],[-76.7391,35.8766],[-76.72,35.9173],[-76.7014,35.923],[-76.693,35.9424],[-76.6624,35.9321],[-76.5538,35.9402],[-76.3996,35.9821],[-76.3749,35.9554],[-76.3822,35.9482],[-76.3662,35.9348],[-76.38,35.9147],[-76.3536,35.8613],[-76.4056,35.7863],[-76.406,35.6976],[-76.8446,35.7057],[-76.8473,35.72]]]}},{"type":"Feature","properties":{"county_fips":"37071","county_name":"Gaston","state":"NC"},"geometry":{"type":"Polygon","coordinates":[[[-81.4556,35.4198],[-80.9549,35.4001],[-80.9575,35.391],[-80.9856,35.3811],[-80.9837,35.3684],[-80.9733,35.3642],[-80.9613,35.3755],[-80.923,35.3599],[-80.9436,35.3506],[-80.9727,35.3503],[-81.0009,35.3054],[-81.0151,35.2687],[-81.0083,35.2481],[-81.0141,35.222],[-81.0024,35.1808],[-81.0095,35.1531],[-81.0314,35.1484],[-81.328,35.1634],[-81.3217,35.2604],[-81.3557,35.2805],[-81.3666,35.3149],[-81.3567,35.3306],[-81.3989,35.3531],[-81.4556,35.4198]]]}}]}